name,id,region,region_code,city,lat,lon
ABANO TERME,S05700,Veneto,12,A,45.355199,11.811533
ABBADIA LARIANA,S01416,Lombardia,1,A,45.895864,9.335175
ABBASANTA,S12873,Sardegna,20,A,40.128801,8.817733
ABBIATE GUAZZONE,N00018,N/A,N/A,N/A,N/A,N/A
ABBIATEGRASSO,S01062,Lombardia,1,A,45.400631,8.921305
ACATE,S12409,Sicilia,14,A,36.996592,14.42545
ACCIANO,S07423,Abruzzo,19,A,42.175994,13.711345
ACERRA,S09215,Campania,18,A,40.939066,14.372243
ACIREALE,S12328,Sicilia,14,A,37.600514,15.163697
ACQUA ACETOSA,S08715,Lazio,5,A,41.794294,12.616449
ACQUAFREDDA,S11722,Basilicata,15,A,40.035527,15.671846
ACQUAMELA,S09798,N/A,N/A,N/A,N/A,N/A
ACQUANEGRA CREMONESE,S01913,Lombardia,1,A,45.172102,9.888456
ACQUAPPESA,S11736,Calabria,17,A,39.48648,15.955992
ACQUAVIVA,S12209,Sicilia,14,A,37.570258,13.674927
ACQUAVIVA DELLE FONTI,S11504,Puglia,16,A,40.892806,16.839826
ACQUEDOLCI-S.FRATELLO,S12026,Sicilia,14,A,38.058459,14.587597
ACQUI TERME,S00867,Piemonte,3,Acqui,44.67407,8.474482
ACRI BISIGNANO LUZZI,S11907,Calabria,17,A,39.441389,16.245177
ADRIA,S05420,Veneto,12,A,45.06058,12.054228
AFRICO NUOVO,S11872,Calabria,17,A,38.053759,16.144283
AGLIANO CASTELNUOVO CALCEA,S00804,Piemonte,3,A,44.786108,8.267723
AGRIGENTO BASSA,S12213,Sicilia,14,Agrigento Bassa,37.319148,13.588094
AGRIGENTO CENTRALE,S12216,Sicilia,14,Agrigento C.le,37.309051,13.584412
AGROPOLI CASTELLABATE,S11705,Campania,18,A,40.351521,15.002053
AIELLI,S08550,N/A,N/A,N/A,N/A,N/A
AIRASCA,S00514,Piemonte,3,A,44.928093,7.483536
AIROLE,S04481,Liguria,2,A,43.870494,7.552757
AIRUNO,S01515,Lombardia,1,A,45.754086,9.422066
ALA,S02049,N/A,9,A,45.760087,10.996775
ALANNO,S07708,Abruzzo,19,A,42.287185,14.019595
ALANO FENER VALDOBBIADENE,S02566,Veneto,12,A,45.90229,11.944546
ALASSIO,S04515,Liguria,2,A,44.007889,8.17112
ALBA,S00825,Piemonte,3,A,44.697713,8.030629
ALBA ADRIATICA NERETO CONTR.,S07800,Abruzzo,19,A,42.83438,13.91733
ALBACINA,S07207,Marche,11,Albacina,43.345686,12.986501
ALBAIRATE VERMEZZO,S01059,N/A,N/A,N/A,N/A,N/A
ALBANO DI LUCANIA,S11453,Basilicata,15,A,40.574707,16.021247
ALBANO LAZIALE,S08704,Lazio,5,Albano,41.72632,12.658056
ALBANO S.ALESSANDRO,S01534,Lombardia,1,A,45.682744,9.768027
ALBANOVA,S09004,Campania,18,A,40.996117,14.128596
ALBAREDO,S02538,Veneto,12,A,45.670265,12.015104
ALBATE CAMERLATA,S01310,Lombardia,1,Albate,45.777371,9.073461
ALBATE-TRECALLO,S01450,Lombardia,1,A,45.777391,9.095752
ALBENGA,S04516,Liguria,2,Albenga,44.04722,8.221663
ALBERESE,S08001,Toscana,13,A,42.634158,11.1352
ALBERGO,S06067,N/A,N/A,N/A,N/A,N/A
ALBINIA,S08003,Toscana,13,A,42.502165,11.21134
ALBISOLA,S04529,Liguria,2,A,44.33469,8.512092
ALBIZZATE SOLBIATE ARNO,S01209,Lombardia,1,A,45.724117,8.80621
ALBONESE,S00033,Lombardia,1,A,45.297785,8.714601
ALBUZZANO,S01863,Lombardia,1,A,45.172504,9.261624
ALCAMO DIRAMAZIONE,S12150,Sicilia,14,A,37.978894,12.915916
ALCANTARA,S12320,Sicilia,14,A,37.82145,15.251158
ALESSANDRIA,S00470,Piemonte,3,Alessandria,44.909091,8.606498
ALFEDENA-SCONTRONE,S08908,Abruzzo,19,A,41.738222,14.044662
ALFONSINE,S05808,Emilia Romagna,8,A,44.512364,12.039155
ALICE BELCOLLE,S00809,Piemonte,3,A,44.722636,8.440076
ALIFE,S09020,N/A,N/A,N/A,N/A,N/A
ALI` TERME,S12310,Sicilia,14,A,38.013952,15.435184
ALLERONA-CASTEL VISCARDO,S08202,Umbria,6,Allerona,42.78502,12.035236
ALPIGNANO,S00216,Piemonte,3,A,45.091077,7.523745
ALTAMURA,S11307,Puglia,16,A,40.837666,16.551739
ALTARE,S04810,Liguria,2,A,44.336169,8.332753
ALTAVILLA IRPINA,S09511,Campania,18,A,41.015265,14.782833
ALTAVILLA M.,S12011,Sicilia,14,A,38.048392,13.554421
ALTAVILLA TAVERNELLE,S02444,Veneto,12,A,45.511805,11.454702
ALTOPASCIO,S06407,Toscana,13,A,43.817418,10.672754
ALVIANO,S08206,Umbria,6,A,42.591917,12.259583
ALVIGNNO,S09023,N/A,N/A,N/A,N/A,N/A
AMANTEA,S11744,Calabria,17,A,39.134353,16.068448
AMBIVERE MAPELLO,S01527,Lombardia,1,A,45.722163,9.550444
AMENDOLA,S11051,Puglia,16,A,41.518025,15.732569
AMENDOLARA ORIOLO,S11807,Calabria,17,A,39.933731,16.60308
AMOROSI MELIZZANO,S09306,Campania,18,A,41.173509,14.470759
ANAGNI-FIUGGI,S08658,Lazio,5,A,41.71037,13.09597
ANCONA,S07113,Marche,11,Ancona,43.607734,13.497665
ANCONA MARITTIMA,S07116,Marche,11,A,43.619445,13.50911
ANCONA STADIO,S07114,N/A,N/A,N/A,N/A,N/A
ANCONA TORRETTE,S07015,Marche,11,A,43.609936,13.455777
ANCONETTA,S02141,Veneto,12,A,45.565249,11.567865
ANDORA,S04513,Liguria,2,A,43.952003,8.139319
ANFITEATRO,S09031,N/A,N/A,N/A,N/A,N/A
ANGRI,S09812,Campania,18,A,40.746404,14.575366
ANGUILLARA,S08318,Lazio,5,A,42.068133,12.304978
ANNA,S11870,N/A,N/A,N/A,N/A,N/A
ANNONE VENETO,S02769,Veneto,12,A,45.774904,12.680334
ANTIGNANO,S06727,Toscana,13,A,43.492482,10.328827
ANTRODOCO BORGO VELINO,S07408,Lazio,5,A,42.415393,13.076193
ANTRODOCO CENTRO,S07435,Lazio,5,A,42.409844,13.07096
ANVERSA-VILLALAGO-SCANNO,S08537,Abruzzo,19,A,42.017261,13.835618
ANZANO DEL PARCO,S01453,Lombardia,1,A,45.764965,9.202676
ANZIO,S08709,Lazio,5,A,41.4532,12.633205
ANZIO COLONIA,S08713,Lazio,5,A,41.459893,12.617442
ANZOLA,S05386,N/A,N/A,N/A,N/A,N/A
AOSTA,S00137,Valle d'Aosta,4,Aosta,45.73407,7.322424
AOSTA ISTITUTO,S00143,Valle d'Aosta,4,A,45.732938,7.303076
AOSTA VIALE EUROPA,S00146,Valle d'Aosta,4,A,45.733294,7.297371
APICE S.ARCANGELO BONITO,S09314,Campania,18,Apice S.A.B.,41.140927,14.918733
APPIANO,S08328,Lazio,5,A,41.909342,12.43838
APRICENA,S11024,Puglia,16,A,41.77664,15.387809
APRILIA,S08705,Lazio,5,A,41.592386,12.639126
AQUILONIA,S09623,Campania,18,A,40.940252,15.541249
ARAGONA CALDARE,S12370,Sicilia,14,Aragona Caldare,37.381097,13.636837
ARBIA,S06811,Toscana,13,A,43.294393,11.406225
ARBOSTELLA,S09838,Campania,18,A,40.677263,15.623814
ARCE,S08861,Lazio,5,A,41.583695,13.571848
ARCHI,S07992,N/A,N/A,N/A,N/A,N/A
ARCISATE,S01203,Lombardia,1,A,45.858579,8.86241
ARCOLA,S06006,Liguria,2,Arcola,44.118651,9.914649
ARCORE,S01510,Lombardia,1,A,45.623493,9.322798
ARDARA,S12817,Sardegna,20,A,40.632139,8.818996
ARDENNO MASINO,S01427,Lombardia,1,A,46.16198,9.651374
ARDORE,S11853,Calabria,17,A,38.175698,16.207311
ARECHI,S09839,N/A,N/A,N/A,N/A,N/A
ARENA PO,S01947,Lombardia,1,A,45.082065,9.360394
ARENZANO,S04533,Liguria,2,A,44.403089,8.678322
AREZZO,S06915,Toscana,13,Arezzo,43.461725,11.874189
AREZZO C.C.,S06086,N/A,N/A,N/A,N/A,N/A
AREZZO PESCAIOLA,S06063,N/A,N/A,N/A,N/A,N/A
ARGENTA,S05804,Emilia Romagna,8,A,44.616867,11.841267
ARIANO IRPINO,S09316,Campania,18,A,41.181883,15.117508
ARONA,S01020,Piemonte,3,Arona,45.755392,8.559075
AROSIO,S01092,N/A,N/A,N/A,N/A,N/A
ARPAIA-AIROLA-S. AGATA DEI GOTI,S09017,N/A,N/A,N/A,N/A,N/A
ARPINO,S08859,Lazio,5,A,41.648296,13.59959
ARQUATA SCRIVIA,S04207,Piemonte,3,Arquata,44.692533,8.885342
ARQUA,S05707,Veneto,12,A,45.006465,11.748518
ARSOLI,S08516,Lazio,5,A,42.045852,13.013064
ARTEGNA,S03021,Friuli-Venezia Giulia,10,A,46.23115,13.162328
ARTOGNE - GIANICO,N00219,N/A,N/A,N/A,N/A,N/A
ARVIER,S00134,Valle d'Aosta,4,A,45.704259,7.166681
ASCEA,S11711,Campania,18,A,40.140955,15.172626
ASCIANO,S06813,Toscana,13,Asciano,43.235245,11.579237
ASCIANO MONTE OLIVETO MAGGIORE,S06825,Toscana,13,A,43.231706,11.563621
ASCOLI PICENO,S07550,Marche,11,Ascoli Piceno,42.855474,13.587939
ASCOLI SATRIANO,S11203,Puglia,16,A,41.219859,15.547828
ASOLA,S01847,Lombardia,1,A,45.220454,10.402313
ASSEMINI,S12889,Sardegna,20,A,39.287603,8.997936
ASSISI,S07008,Umbria,6,A,43.058921,12.585304
ASSO,S01101,Lombardia,1,Asso,45.855228,9.268513
ASTI,S00462,Piemonte,3,Asti,44.89479,8.208112
ATELETA,S07998,N/A,N/A,N/A,N/A,N/A
ATENA,S09904,Campania,18,A,40.456676,15.536094
ATTIGLIANO,S08207,Umbria,6,Attigliano,42.518054,12.294761
AUGUSTA,S12345,Sicilia,14,A,37.24334,15.218628
AULETTA,S09902,Campania,18,A,40.534934,15.426706
AULLA,S06168,Toscana,13,Aulla,44.209662,9.970632
AULLA LUNIGIANA,S06013,Toscana,13,A,44.210555,9.970015
AURISINA,S03550,Friuli-Venezia Giulia,10,A,45.753943,13.687706
AVELLINO,S09514,Campania,18,Avellino,40.921612,14.820586
AVERSA,S09006,Campania,18,Aversa,40.973323,14.218578
AVEZZANO,S08526,Abruzzo,19,Avezzano,42.039495,13.426446
AVIANO,S03087,Friuli-Venezia Giulia,10,A,46.064362,12.590686
AVIGLIANA,S00214,Piemonte,3,A,45.085276,7.401096
AVIGLIANO LUCANIA,S11214,Basilicata,15,A,40.714667,15.785619
AVIO,S02050,N/A,9,A,45.733892,10.955842
AVISE,S00133,Valle d'Aosta,4,A,45.706296,7.131285
AVOLA,S12426,Sicilia,14,A,36.907434,15.125733
BA POLICLINICO,S11499,N/A,N/A,N/A,N/A,N/A
BACIANO,S06081,N/A,N/A,N/A,N/A,N/A
BADEN,S03118,N/A,N/A,N/A,N/A,N/A
BADIA POLESINE,S02370,Veneto,12,A,45.094439,11.484722
BADOLATO,S11841,Calabria,17,A,38.572268,16.567646
BAGHERIA,S12008,Sicilia,14,A,38.089905,13.507215
BAGNACAVALLO,S05902,Emilia Romagna,8,A,44.412138,11.969398
BAGNARA,S11770,Calabria,17,Bagnara,38.282695,15.800327
BAGNARIA ARSA,S03123,Friuli-Venezia Giulia,10,A,45.885513,13.282026
BAGNASCO,S00921,Piemonte,3,A,44.303264,8.046132
BAGNI DI LUCCA,S06308,Toscana,13,A,44.003447,10.551631
BAGNI DI TIVOLI,S08504,Lazio,5,A,41.949593,12.722208
BAGNOLI AGNANO TERME,S09102,Campania,18,A,40.819444,14.166694
BAGNOLI IRPINO,S09613,Campania,18,A,40.83917,15.06324
BAGNOLO MELLA,S01901,Lombardia,1,A,45.428532,10.183617
BAIANO DI SPOLETO,S07224,Umbria,6,A,42.726238,12.663615
BALANGERO,S00094,N/A,N/A,N/A,N/A,N/A
BALATONFOELDVAR,S03418,N/A,N/A,N/A,N/A,N/A
BALATONLELLE,S03459,N/A,N/A,N/A,N/A,N/A
BALATONSZENTGYORGY,S03566,N/A,N/A,N/A,N/A,N/A
BALDICHIERI,S00460,Piemonte,3,A,44.899204,8.091198
BALESTRATE,S12122,Sicilia,14,A,38.053364,13.007374
BALSORANO,S08856,Abruzzo,19,Balsorano,41.809427,13.556546
BALVANO R.,S09830,Basilicata,15,A,40.649993,15.495304
BALZOLA,S00178,Piemonte,3,A,45.173985,8.402174
BANDITO,S00732,Piemonte,3,A,44.722075,7.819452
BARAGIANO,S09832,Basilicata,15,A,40.695213,15.569206
BARANELLO,S09458,Molise,7,A,41.5176,14.596314
BARASSO - COMERIO,N00027,N/A,N/A,N/A,N/A,N/A
BARBERINO VAL D`ELSA,S06806,N/A,N/A,N/A,N/A,N/A
BARBIANELLO,S01932,Lombardia,1,A,45.07263,9.204165
BARBIANO,S05905,Emilia Romagna,8,A,44.387263,11.878086
BARBUSI,S12971,Sardegna,20,A,39.203024,8.501702
BARCELLONA,S12041,Sicilia,14,A,38.14918,15.212499
BARDONECCHIA,S00202,Piemonte,3,Bardonecchia,45.076447,6.709959
BARGA GALLICANO,S06303,Toscana,13,A,44.068114,10.451938
BARI CENTRALE,S11119,Puglia,16,Bari,41.11774,16.869601
BARI PALESE MACCHIE,S11118,Puglia,16,A,41.151583,16.766902
BARI PARCO NORD,S11148,Puglia,16,A,41.123916,16.837018
BARI PARCO NORD FASCIO TARANTO,S11149,N/A,N/A,N/A,N/A,N/A
BARI PARCO SUD,S11125,Puglia,16,A,41.111822,16.914736
BARI S. SPIRITO,S11116,Puglia,16,A,41.159653,16.746324
BARI S.ANDREA,S11513,Puglia,16,A,41.105467,16.830255
BARI S.GIORGIO,S11150,Puglia,16,A,41.093779,16.950084
BARI TORRE A MARE,S11126,Puglia,16,A,41.082637,16.995772
BARI ZONA INDUSTRIALE,S11120,N/A,N/A,N/A,N/A,N/A
BARICETTA,S05419,Veneto,12,A,45.060889,11.995348
BARILE,S11208,Basilicata,15,A,40.943044,15.670959
BARLASSINA,S01926,N/A,N/A,N/A,N/A,N/A
BARLETTA,S11108,Puglia,16,Barletta,41.315227,16.278867
BARONISSI,S09520,Campania,18,A,40.743779,14.77224
BARRUCCANA,S01929,N/A,N/A,N/A,N/A,N/A
BASCHI-MONTECCHIO,S08204,Umbria,6,Baschi,42.68685,12.203496
BASILIANO,S02832,Friuli-Venezia Giulia,10,A,46.012737,13.109233
BASSANO DEL GRAPPA,S02520,Veneto,12,Bassano del Gr.,45.766697,11.741525
BASSANO IN TEVERINA,S08208,Umbria,6,Bassano,42.483551,12.333556
BASSANO ROMANO,S08312,Lazio,5,A,42.212444,12.152302
BASTIA,S07007,Umbria,6,A,43.07133,12.547735
BASTIA MONDOVI`,S00908,Piemonte,3,A,44.439398,7.891671
BATTAGLIA TERME,S05702,Veneto,12,A,45.291475,11.77838
BATTIPAGLIA,S09823,Campania,18,Battipaglia,40.605789,14.98324
BAULADU MILIS,S12875,Sardegna,20,A,40.020722,8.687123
BAVENO,S01015,Piemonte,3,A,45.909105,8.502121
BAZZANA,S00807,Piemonte,3,A,44.777094,8.401557
BEAULARD,S00203,Piemonte,3,A,45.046495,6.759713
BEFFI,S07422,Abruzzo,19,A,42.197341,13.660759
BEINETTE,S00901,Piemonte,3,A,44.36782,7.644884
BELGIOIOSO,S01864,Lombardia,1,A,45.16456,9.316875
BELGIRATE,S01017,Piemonte,3,A,45.843337,8.570821
BELLA MURO,S09831,Basilicata,15,A,40.700914,15.542936
BELLANO TARTAVELLE TERME,S01409,Lombardia,1,A,46.039448,9.302776
BELLANTE RIPATTONE,S07902,Abruzzo,19,A,42.705775,13.837978
BELLARIA,S05817,Emilia Romagna,8,A,44.150249,12.461168
BELLAVISTA,S11512,Puglia,16,A,40.517077,17.176892
BELLINZAGO,S00985,Piemonte,3,A,45.566681,8.627652
BELLINZONA,S00300,N/A,N/A,N/A,N/A,N/A
BELLISIO SOLFARE,S07061,Marche,11,A,43.520379,12.823977
BELLUNO,S02559,Veneto,12,Belluno,46.141594,12.209703
BELMONTE CALABRO,S11743,Calabria,17,A,39.164427,16.064515
BELVEDERE MARITTIMO,S11732,Calabria,17,A,39.616549,15.853039
BENEVENTO,S09311,Campania,18,Benevento,41.141901,14.769998
BENEVENTO ACQUAFREDDA,S09472,N/A,N/A,N/A,N/A,N/A
BENEVENTO APPIA,S09011,N/A,N/A,N/A,N/A,N/A
BENEVENTO ARCO TRAIANO,S09530,Campania,18,A,41.136834,14.777662
BENEVENTO PORTA RUFINA,S09509,Campania,18,A,41.123564,14.784315
BENEVENTO RIONE LIBERTA',S09012,N/A,N/A,N/A,N/A,N/A
BERCETO,S06158,Emilia Romagna,8,A,44.555912,9.931759
BERCHIDDA,S12859,Sardegna,20,A,40.772052,9.181312
BERGAMASCO,S00838,Piemonte,3,A,44.819891,8.461447
BERGAMO,S01529,Lombardia,1,Bergamo,45.690271,9.675082
BERNALDA,S11460,Basilicata,15,A,40.397616,16.682281
BESANA,S01488,Lombardia,1,A,45.702824,9.28288
BESNATE,S01145,Lombardia,1,A,45.695409,8.761072
BESOZZO,S01141,Lombardia,1,A,45.842188,8.662997
BEURA CARDEZZA,S01007,Piemonte,3,A,46.068341,8.289627
BEVERA,S04482,Liguria,2,A,43.825303,7.579157
BEVILACQUA,S02391,Veneto,12,A,45.230145,11.398643
BIAGIONI LAGACCI,S05119,Emilia Romagna,8,A,44.086359,10.948257
BIANCO,S11855,Calabria,17,A,38.089072,16.153348
BIANZE`,S00238,Piemonte,3,A,45.309488,8.115523
BIANZONE,S01438,Lombardia,1,A,46.179383,10.112507
BIASSONO-LESMO PARCO,S01483,Lombardia,1,A,45.632209,9.298408
BIBBIENA,S06076,N/A,N/A,N/A,N/A,N/A
BIBBIENA CORSALONE,S06077,N/A,N/A,N/A,N/A,N/A
BIBIANA,S00522,Piemonte,3,A,44.809941,7.285727
BICOCCA,S12338,Sicilia,14,Bicocca,37.460617,15.044594
BIELLA CHIAVAZZA,S00970,Piemonte,3,A,45.568084,8.066787
BIELLA S.PAOLO,S00070,Piemonte,3,Biella,45.557334,8.067541
BIFORCO,S06611,Toscana,13,A,44.068431,11.602243
BINARIO S.MARCO VECCHIO,S06950,Toscana,13,A,43.790336,11.267403
BISCEGLIE,S11113,Puglia,16,A,41.235445,16.499484
BISTAGNO,S00870,Piemonte,3,A,44.659256,8.372057
BISUSCHIO VIGGIU,S01202,Lombardia,1,A,45.870658,8.887544
BITETTO PALO DEL COLLE,S11501,Puglia,16,A,41.041481,16.74053
BIVIO D`AURISINA,S03313,Friuli-Venezia Giulia,10,Bivio d`Aurisina,45.754253,13.655777
BOARIO TERME,N00221,N/A,N/A,N/A,N/A,N/A
BOCCIA AL MAURO,S09763,Campania,18,A,40.732794,14.471878
BOGLIASCO,S04709,Liguria,2,A,44.379207,9.066042
BOIANO,S09453,Molise,7,A,41.487883,14.474551
BOLGHERI,S06028,Toscana,13,A,43.244664,10.550548
BOLLATE CENTRO,S01071,N/A,N/A,N/A,N/A,N/A
BOLLATE NORD,S01072,N/A,N/A,N/A,N/A,N/A
BOLOGNA BORGO PANIGALE,S05100,Emilia Romagna,8,A,44.515024,11.284728
BOLOGNA C.LE,S05043,Emilia Romagna,8,Bologna,44.50626,11.342267
BOLOGNA C.LE/AV,S05046,Emilia Romagna,8,A,44.50626,11.342267
BOLOGNA CORTICELLA,S05725,Emilia Romagna,8,A,44.551985,11.35401
BOLOGNA FIERE,S05020,Emilia Romagna,8,A,44.512742,11.368809
BOLOGNA MAZZINI,S05140,Emilia Romagna,8,A,44.482284,11.376271
BOLOGNA RAVONE,S05042,Emilia Romagna,8,A,44.510244,11.320029
BOLOGNA S.RUFFILLO,S05130,Emilia Romagna,8,A,44.462657,11.372967
BOLOGNA SAN VITALE,S05081,N/A,N/A,N/A,N/A,N/A
BOLZANO ,S02026,Trentino Alto Adige,22,Bolzano ,46.496346,11.358556
BOLZANO NOVARESE,S00014,Piemonte,3,A,45.759357,8.440754
BOLZANO SUD ,S02226,N/A,9,A,46.472617,11.33334
BOMBA TORRICELLA,S07993,N/A,N/A,N/A,N/A,N/A
BONASSOLA,S04730,Liguria,2,A,44.184867,9.582673
BONDENO,S05165,N/A,N/A,N/A,N/A,N/A
BONEFRO S.CROCE,S09464,Molise,7,A,41.710522,14.860799
BONFERRARO,S02383,Veneto,12,A,45.185651,11.009247
BONORVA,S12867,Sardegna,20,A,40.417763,8.760707
BORDIGHERA,S04503,Liguria,2,A,43.778313,7.663504
BORGARO,S00086,N/A,N/A,N/A,N/A,N/A
BORGHETTO,S02051,N/A,9,A,45.696721,10.927083
BORGHETTO PARMENSE,S06100,Emilia Romagna,8,A,44.837198,10.1177
BORGHETTO SANTO SPIRITO,S04518,Liguria,2,A,44.109006,8.242346
BORGIO VEREZZI,S04521,Liguria,2,A,44.157722,8.30908
BORGO,S09526,Campania,18,A,40.845976,14.784092
BORGO A BUGGIANO,S06410,Toscana,13,A,43.880724,10.730079
BORGO A MOZZANO,S06309,Toscana,13,A,43.977207,10.541285
BORGO FORNARI PER VOLTAGGIO,S04214,Liguria,2,A,44.588379,8.938295
BORGO LAVEZZARO,S00032,Piemonte,3,A,45.318783,8.703242
BORGO REVEL,S00171,Piemonte,3,A,45.189827,8.02021
BORGO S. GIOVANNI,N00202,N/A,N/A,N/A,N/A,N/A
BORGO S. LORENZO,S06604,Toscana,13,Borgo S. L.,43.959822,11.380422
BORGO S.L.RIMORELLI,S06704,Toscana,13,A,43.953279,11.400076
BORGO S.MARTINO,S00315,Piemonte,3,A,45.087083,8.520661
BORGO SAN DALMAZZO,S00613,Piemonte,3,A,44.326249,7.486111
BORGO TICINO,S00981,Piemonte,3,A,45.691943,8.602483
BORGO VAL DI TARO,S06161,Emilia Romagna,8,Borgo Val di Taro,44.486522,9.781489
BORGO VALSUGANA CENTRO,S02313,N/A,21,Borgo Valsugana,46.051182,11.453967
BORGO VALSUGANA EST,S02314,N/A,9,A,46.05224,11.462119
BORGO VERCELLI,S00246,Piemonte,3,A,45.359252,8.461474
BORGOFORTE,S02338,Lombardia,1,A,45.050328,10.752388
BORGOFRANCO,S00152,Piemonte,3,A,45.514775,7.854612
BORGOLOMBARDO,S01830,Lombardia,1,A,45.403856,9.27111
BORGOMANERO,S00016,Piemonte,3,Borgomanero,45.701054,8.468093
BORGONATO - ADRO,N00208,N/A,N/A,N/A,N/A,N/A
BORGONE,S00210,Piemonte,3,A,45.123191,7.236037
BORGONUOVO,S05152,N/A,N/A,N/A,N/A,N/A
BORGORATTO,S00860,Piemonte,3,A,44.835999,8.538182
BORGOSESIA,S00104,Piemonte,3,A,45.716798,8.28239
BORNATO - CALINO,N00207,N/A,N/A,N/A,N/A,N/A
BORORE,S12872,Sardegna,20,A,40.218992,8.809535
BOSCHI S.ANNA,S02390,Veneto,12,A,45.217328,11.362302
BOSCO REDOLE,S09452,Molise,7,Bosco Redole,41.459299,14.587884
BOSCONERO,S00882,N/A,N/A,N/A,N/A,N/A
BOSCOREALE,S09754,Campania,18,A,40.770786,14.48017
BOTRICELLO,S11829,Calabria,17,A,38.933943,16.857433
BOTTENICCHIO Z.I.,S03057,N/A,N/A,N/A,N/A,N/A
BOVA MARINA,S11860,Calabria,17,A,37.930269,15.923897
BOVALINO,S11854,Calabria,17,A,38.149087,16.180584
BOVINO DELICETO,S09321,Puglia,16,A,41.27835,15.369255
BOVISO MASCIAGO - MOMBELLO,S01085,N/A,N/A,N/A,N/A,N/A
BOVOLONE,S02363,Veneto,12,A,45.254446,11.123862
BOZZOLO,S01920,Lombardia,1,A,45.107246,10.472655
BRA,S00821,Piemonte,3,Bra,44.693556,7.848643
BRACCIANO,S08315,Lazio,5,A,42.103667,12.173023
BRAGNO,S04803,Liguria,2,A,44.371679,8.304473
BRANCALEONE,S11857,Calabria,17,A,37.965475,16.103301
BRANDIZZO,S00231,Piemonte,3,A,45.178915,7.841218
BREIL SUR ROYA,S00622,Piemonte,3,Breil,43.890267,7.530915
BRENNA-ALZATE,S01452,Lombardia,1,A,45.754044,9.183312
BRENNERO,S02001,Trentino Alto Adige,22,Brennero,47.004117,11.505711
BRENO,N00226,N/A,N/A,N/A,N/A,N/A
BRESCIA,S01717,Lombardia,1,Brescia,45.532315,10.212828
BRESSANA ARGINE,S01930,Lombardia,1,A,45.072739,9.137038
BRESSANA BOTTARONE,S01805,Lombardia,1,Bressana B.,45.086298,9.110602
BRESSANONE,S02014,N/A,9,A,46.710088,11.649677
BRIATICO,S11757,Calabria,17,A,38.725447,16.025765
BRICHERASIO,S00521,Piemonte,3,A,44.824336,7.307513
BRINDISI,S11136,Puglia,16,Brindisi,40.634339,17.938978
BRINDISI DI MONTAGNA,S11451,Basilicata,15,A,40.611991,15.955795
BRINDISI MARITTIMA,S11137,Puglia,16,Brindisi Marittima,40.633543,17.94863
BRIONA,S00113,Piemonte,3,A,45.538568,8.479541
BRISIGHELLA,S06614,Emilia Romagna,8,A,44.220565,11.769757
BROLO FICARRA,S12031,Sicilia,14,A,38.159204,14.830176
BRONI,S01944,Lombardia,1,Broni,45.066263,9.258751
BRONZOLO ,S02030,N/A,9,A,46.40505,11.315833
BROZOLO,S00424,Piemonte,3,A,45.121299,8.05893
BRUNICO ,S02107,N/A,9,A,46.794922,11.929989
BRUNICO NORD,S02018,N/A,N/A,N/A,N/A,N/A
BRUNO,S00837,Piemonte,3,A,44.797947,8.439639
BRUZOLO,S00209,Piemonte,3,A,45.131032,7.201497
BUCCINO S.,S09828,Campania,18,A,40.600806,15.374199
BUCINE,S06911,Toscana,13,A,43.480478,11.617609
BUDOIA POLCENIGO,S03088,Friuli-Venezia Giulia,10,A,46.031464,12.537637
BUGNARA,S08538,Abruzzo,19,A,42.031166,13.862082
BUONCONVENTO,S06874,Toscana,13,A,43.135503,11.483773
BUONFORNELLO,S12016,Sicilia,14,A,37.972052,13.816408
BURONZO,S00054,Piemonte,3,A,45.47179,8.2667
BUSALLA,S04215,Liguria,2,A,44.57558,8.943611
BUSCA,S00704,Piemonte,3,A,44.520585,7.481589
BUSCHE LENTIAI MEL,S02563,Veneto,12,A,46.040092,11.979251
BUSSETO,S01963,Emilia Romagna,8,A,44.974692,10.038909
BUSSI,S07704,Abruzzo,19,A,42.194154,13.849075
BUSSOLENO,S00208,Piemonte,3,Bussoleno,45.139631,7.144819
BUSTO ARSIZIO,S01031,Lombardia,1,Busto Arsizio,45.616164,8.865031
BUSTO ARSIZIO N.,S01137,N/A,N/A,N/A,N/A,N/A
BUSTO ARSIZIO RFI,N00107,N/A,N/A,N/A,N/A,N/A
BUTTAFAVA,S01482,Lombardia,1,A,45.62141,9.301185
BUTTAPIETRA,S05301,Veneto,12,A,45.338787,10.988059
BUTTRIO,S03029,Friuli-Venezia Giulia,10,A,46.012664,13.329039
Biv. Venezia,S05048,N/A,N/A,N/A,N/A,N/A
CABIATE,S01088,N/A,N/A,N/A,N/A,N/A
CADEO,S05006,Emilia Romagna,8,A,44.967283,9.853181
CADORAGO,N00038,N/A,N/A,N/A,N/A,N/A
CAGLIARI,S12891,Sardegna,20,Cagliari,39.216078,9.107984
CAGLIARI ELMAS,S12890,Sardegna,20,A,39.264193,9.045497
CAIAZZO,S09025,N/A,N/A,N/A,N/A,N/A
CAIRO MONTENOTTE,S00879,Liguria,2,A,44.394747,8.278786
CALA SABINA,S12851,Sardegna,20,A,41.011012,9.5881
CALALZO PIEVE CADORE CORTINA,S02550,Veneto,12,Calalzo PC Cort.,46.443829,12.388668
CALAMANDRANA,S00833,Piemonte,3,A,44.738986,8.331572
CALATABIANO,S12321,Sicilia,14,A,37.814684,15.226568
CALATAFIMI,S12151,Sicilia,14,A,37.938858,12.856156
CALBEZANO,S06080,N/A,N/A,N/A,N/A,N/A
CALCERANICA,S02307,N/A,9,A,46.007384,11.240713
CALCIANO,S11455,Basilicata,15,A,40.595117,16.202526
CALCIO,S01712,Lombardia,1,A,45.532937,9.841342
CALDE`,S01117,Lombardia,1,A,45.945812,8.663157
CALDIERO,S02437,Veneto,12,A,45.41407,11.169753
CALDONAZZO,S02308,N/A,9,A,45.997575,11.264815
CALENZANO,S06417,Toscana,13,A,43.856429,11.14537
CALITRI PESCOPAGANO,S09620,Campania,18,Calitri Pescop.,40.884932,15.427962
CALLIANO,S02041,N/A,N/A,N/A,N/A,N/A
CALOLZIOCORTE OLGINATE,S01524,Lombardia,1,Calolziocorte,45.801619,9.42698
CALOPEZZATI,S11815,Calabria,17,A,39.579022,16.819361
CALTAGIRONE,S12270,Sicilia,14,Caltagirone,37.225276,14.521165
CALTANISSETTA CENTRALE,S12381,Sicilia,14,Caltanissetta C.,37.48829,14.057396
CALTANISSETTA XIRBI,S12380,Sicilia,14,Caltanissetta X.,37.536296,14.056902
CALTIGNAGA,S00020,Piemonte,3,A,45.519167,8.591602
CALUSCO,S01503,Lombardia,1,A,45.684113,9.470646
CALUSO,S00158,Piemonte,3,A,45.303194,7.902568
CALVISANO,S01843,Lombardia,1,A,45.346572,10.349411
CAMAIORE LIDO CAPEZZANO,S06043,Toscana,13,A,43.912176,10.24765
CAMBIANO,S06804,Toscana,13,A,43.631183,10.958997
CAMBIANO SANTENA,S00456,Piemonte,3,A,44.966491,7.773225
CAMERANO ASPIO,S07021,N/A,N/A,N/A,N/A,N/A
CAMMARATA S.GIOVANNI GEMINI,S12207,Sicilia,14,A,37.653759,13.673791
CAMNAGO-LENTATE,S01316,Lombardia,1,CM Lentate,45.668425,9.133451
CAMOGLI SAN FRUTTUOSO,S04716,Liguria,2,A,44.348166,9.156743
CAMPAGNA SERRE PERSANO,S09825,Campania,18,A,40.595667,15.113986
CAMPELLO,S07219,Umbria,6,A,42.822814,12.761253
CAMPIGLIA MARITTIMA,S06031,Toscana,13,Campiglia Maritt.,43.017118,10.586558
CAMPO DI CARNE,S08706,Lazio,5,A,41.552116,12.635125
CAMPO DI GIOVE,S08903,Abruzzo,19,A,42.007967,14.041492
CAMPO DI GIOVE-MONTE MAIELLA,S08919,Abruzzo,19,A,41.993262,14.069088
CAMPO DI NUSCO,S09626,Campania,18,A,40.879143,15.129255
CAMPO DI TRENS ,S02007,N/A,9,A,46.869076,11.488231
CAMPOBASSO,S09459,Molise,7,Campobasso,41.558137,14.66393
CAMPOBELLO DI MAZARA,S12112,Sicilia,14,A,37.636256,12.733165
CAMPOBELLO RAVANUSA,S12385,Sicilia,14,A,37.265731,13.946251
CAMPODARSEGO,S02527,Veneto,12,A,45.505721,11.900894
CAMPOFELICE,S12017,Sicilia,14,A,37.992615,13.876549
CAMPOFRANCO,S12211,Sicilia,14,A,37.510105,13.686777
CAMPOLATTARO,S09505,Campania,18,A,41.285869,14.726853
CAMPOLEONE,S08602,Lazio,5,Campoleone,41.642396,12.648341
CAMPOLIETO MONACILIONI,S09462,Molise,7,A,41.642573,14.76544
CAMPOLIGURE MASONE,S04105,Liguria,2,Campoligure,44.530909,8.700878
CAMPOMAGGIORE,S11454,Basilicata,15,A,40.550772,16.086766
CAMPOMARINO,S11020,Molise,7,A,41.957398,15.042416
CAMPOMELA,S12815,Sardegna,20,A,40.68139,8.638875
CAMPOMIGLIAIO,S06659,Toscana,13,A,43.937241,11.303593
CAMPORA S.GIOV. SERRA AIELLO,S11745,Calabria,17,A,39.068402,16.09102
CAMPORE,S00889,N/A,N/A,N/A,N/A,N/A
CAMPORGIANO,S06324,Toscana,13,A,44.161448,10.334849
CAMPOSAMPIERO,S02525,Veneto,12,Camposampiero,45.568922,11.928293
CAMPOSANTO,S05314,Emilia Romagna,8,A,44.787527,11.143587
CAMUCIA CORTONA,S06921,Toscana,13,A,43.261104,11.971245
CANCELLI DI FABRIANO,S07232,N/A,N/A,N/A,N/A,N/A
CANCELLIERA,S08735,Lazio,5,A,41.710587,12.621758
CANCELLO,S09213,Campania,18,Cancello,40.993063,14.418877
CANCELLO ARNONE,S09002,Campania,18,A,41.063369,14.02901
CANDELA,S11204,Puglia,16,A,41.151439,15.533163
CANDELO,S00071,Piemonte,3,A,45.547433,8.100103
CANDIA CANAVESE,S00157,Piemonte,3,A,45.329824,7.891819
CANDIA LOMELLINA,S00333,Lombardia,1,A,45.179911,8.593156
CANDIDA,S11105,Puglia,16,A,41.346664,15.996588
CANDIOLO,S00512,Piemonte,3,A,44.961155,7.598973
CANDOGLIA ORNAVASSO,S01011,Piemonte,3,A,45.977489,8.419715
CANEGRATE,S01034,Lombardia,1,A,45.569235,8.926593
CANELLI,S00832,Piemonte,3,A,44.716716,8.294544
CANETRA,S07429,Lazio,5,A,42.391578,13.029159
CANICATTI`,S12375,Sicilia,14,Canicatti`,37.359879,13.855395
CANIGA,S12812,Sardegna,20,A,40.716116,8.526395
CANISTRO,S08812,N/A,N/A,N/A,N/A,N/A
CANNARA,S07009,Umbria,6,A,43.019591,12.628709
CANNE DELLA BATTAGLIA,S11406,Puglia,16,A,41.294583,16.146169
CANNETO SULL`OGLIO,S01848,Lombardia,1,A,45.150211,10.37147
CANOSA DI PUGLIA,S11402,Puglia,16,A,41.218556,16.053906
CANTALUPO DEL SANNIO,S09451,Molise,7,A,41.5174,14.6671
CANTU`,S01451,Lombardia,1,A,45.752316,9.130321
CANTU`- CERMENATE,S01313,Lombardia,1,A,45.716236,9.099284
CANZO,S01099,N/A,N/A,N/A,N/A,N/A
CAORSO,S01970,Emilia Romagna,8,A,45.042048,9.868157
CAPACCIO ROCCADASPIDE,S11702,Campania,18,A,40.454518,15.013551
CAPACI,S12128,Sicilia,14,A,38.171794,13.232398
CAPALBIO,S08006,Toscana,13,A,42.407974,11.370982
CAPANNELLE,S08672,Lazio,5,A,41.830713,12.568884
CAPISTRELLO,S08850,Abruzzo,19,A,41.97051,13.399276
CAPO BONIFATI,S11734,Calabria,17,A,39.558342,15.874052
CAPO DI PONTE,N00229,N/A,N/A,N/A,N/A,N/A
CAPO D`ORLANDO-NASO,S12030,Sicilia,14,A,38.157941,14.744844
CAPO SPARTIVENTO,S11858,Calabria,17,A,37.924778,16.058342
CAPOCROCE,S08804,N/A,N/A,N/A,N/A,N/A
CAPODACQUA PIEVE FANONICA,S07215,Umbria,6,A,43.026769,12.7541
CAPOLONA,S06083,N/A,N/A,N/A,N/A,N/A
CAPPELLE-MAGLIANO,S08525,Abruzzo,19,A,42.059369,13.372468
CAPRALBA,S01603,Lombardia,1,A,45.443871,9.640015
CAPRANICA,S08311,Lazio,5,A,42.245195,12.157194
CAPRAROLA,S08110,Lazio,5,A,42.303815,12.258238
CAPRIATI AL VOLTURNO,S09061,Molise,7,A,41.44279,14.070664
CAPRIOLO,S01622,Lombardia,1,A,45.64556,9.933806
CAPRIVA,S03301,Friuli-Venezia Giulia,10,A,45.938764,13.517494
CAPUA,S09208,Campania,18,A,41.101306,14.210347
CARATE-CALO`,S01486,Lombardia,1,A,45.676451,9.252304
CARAVAGGIO,S01602,Lombardia,1,A,45.491158,9.637723
CARBONA,S05120,Emilia Romagna,8,A,44.246876,11.09618
CARBONARA SCRIVIA,S04300,Piemonte,3,A,44.860173,8.853772
CARBONIA SERBARIU,S12818,Sardegna,20,Carbonia Serbariu,39.169508,8.509186
CARBONIA STATO,S12972,N/A,N/A,N/A,N/A,N/A
CARDILLO ZEN,S12140,Sicilia,14,A,38.17495,13.296897
CARENTINO,S00839,Piemonte,3,A,44.831303,8.470474
CARIATI,S11818,Calabria,17,A,39.496884,16.952018
CARIMATE,S01315,Lombardia,1,A,45.697094,9.107188
CARINI,S12127,Sicilia,14,A,38.147696,13.186624
CARINI TORRE CIACHEA,S12799,Sicilia,14,A,38.16149,13.219641
CARISIO,S00055,Piemonte,3,A,45.403164,8.21249
CARMAGNOLA,S00601,Piemonte,3,Carmagnola,44.846944,7.72797
CARMIGNANO DI BRENTA,S02532,Veneto,12,A,45.621354,11.714891
CARNATE USMATE,S01511,Lombardia,1,Carnate Usmate,45.653072,9.375089
CARNIA,S03016,Friuli-Venezia Giulia,10,A,46.373634,13.132847
CARONIA,S12025,Sicilia,14,A,38.034475,14.443761
CARONNO PERTUSELLA,S01076,N/A,N/A,N/A,N/A,N/A
CAROVIGNO,S11133,Puglia,16,A,40.737337,17.683791
CAROVILLI-ROCCASICURA,S08914,Molise,7,A,41.712485,14.299732
CARPANE`VALSTAGNA,S02502,Veneto,12,A,45.860128,11.661183
CARPI,S02349,Emilia Romagna,8,A,44.782919,10.891952
CARPIGNANO SESIA,S00971,Piemonte,3,A,45.528934,8.422898
CARPINONE,S09050,Molise,7,Carpinone,41.588038,14.326783
CARRARA AVENZA,S06005,Toscana,13,A,44.051239,10.062927
CARRITO-ORTONA,S08533,Abruzzo,19,A,42.026506,13.720179
CARRUBA,S12326,Sicilia,14,A,37.694344,15.196143
CARRU` CLAVESANA,S00738,Piemonte,3,A,44.479548,7.891414
CARSOLI,S08519,Abruzzo,19,Carsoli,42.09578,13.080388
CARUGO - GIUSSANO,S01091,N/A,N/A,N/A,N/A,N/A
CASABIANCA,S08730,Lazio,5,A,41.788327,12.60431
CASACALENDA GUARDIALFIERA,S09465,Molise,7,A,41.738109,14.849602
CASAL SABINI,S11309,Puglia,16,A,40.799021,16.647908
CASALBORDINO POLLUTRI,S07821,Abruzzo,19,A,42.193653,14.633045
CASALBUONO,S09910,Campania,18,A,40.214093,15.686095
CASALBUTTANO,S01609,Lombardia,1,A,45.255398,9.962361
CASALE MONFERRATO,S00314,Piemonte,3,Casale Monferrato,45.133928,8.460292
CASALE POPOLO,S00179,Piemonte,3,Casale Popolo,45.160434,8.44055
CASALECCHIO DI RENO,S05101,Emilia Romagna,8,A,44.474298,11.276097
CASALECCHIO GARIBALDI,S05111,Emilia Romagna,8,A,44.482995,11.272474
CASALEGGIO,S00972,Piemonte,3,A,45.491298,8.490369
CASALETTO,S09922,N/A,N/A,N/A,N/A,N/A
CASALETTO VAPRIO,S01604,Lombardia,1,A,45.408641,9.631746
CASALMAGGIORE,S01850,Lombardia,1,Casalmaggiore,44.993139,10.425023
CASALNUOVO,S09216,Campania,18,A,40.915559,14.35296
CASALPUSTERLENGO,S01827,Lombardia,1,Casalpusterlengo,45.182473,9.653627
CASANOVA KAISERAU,S02059,N/A,N/A,N/A,N/A,N/A
CASARSA,S02830,Friuli-Venezia Giulia,10,Casarsa,45.953002,12.8406
CASCINA,S06505,Toscana,13,A,43.674542,10.545225
CASELLE,S00087,N/A,N/A,N/A,N/A,N/A
CASELLE AEROPORTO,S00088,N/A,N/A,N/A,N/A,N/A
CASERTA,S09211,Campania,18,Caserta,41.068655,14.328457
CASINO DI TERRA,S06751,Toscana,13,A,43.328581,10.662975
CASLETTO-ROGENO,S01457,Lombardia,1,A,45.786028,9.275375
CASLINO AL PIANO,N00037,N/A,N/A,N/A,N/A,N/A
CASLINO D'ERBA,S01098,N/A,N/A,N/A,N/A,N/A
CASOLI,S07991,N/A,N/A,N/A,N/A,N/A
CASORATE SEMPIONE,S01029,Lombardia,1,A,45.675075,8.743954
CASORIA,S09009,Campania,18,A,40.907762,14.29874
CASSAGO-NIBIONNO-BULCIAGO,S01490,Lombardia,1,A,45.746243,9.279834
CASSANO ALL`IONIO,S11900,Calabria,17,A,39.726326,16.35218
CASSANO D`ADDA,S01707,Lombardia,1,Cassano d`Adda,45.514372,9.512746
CASSANO IRPINO,S09611,Campania,18,A,40.869227,15.031213
CASSINE,S00864,Piemonte,3,A,44.751513,8.533613
CASSINO,S08671,Lazio,5,A,41.484306,13.832125
CASSOLA,S02506,Veneto,12,A,45.732291,11.795866
CASTAGNARO,S02368,Veneto,12,A,45.119349,11.403936
CASTAGNETO CARDUCCI,S06029,Toscana,13,A,43.16816,10.56399
CASTAGNO,S05122,Toscana,13,A,44.012359,10.91538
CASTAGNOLE DELLE LANZE,S00828,Piemonte,3,Castagnole L.,44.749341,8.152836
CASTANO PRIMO,N00050,N/A,N/A,N/A,N/A,N/A
CASTEGGIO,S01942,Lombardia,1,A,45.017365,9.124595
CASTEGNATO,N00204,N/A,N/A,N/A,N/A,N/A
CASTEL BAGNOLO DI ORTE,S08114,Lazio,5,A,42.400183,12.400781
CASTEL DI SANGRO,S08910,Abruzzo,19,Castel di Sangro,41.777829,14.112049
CASTEL D`ARIO,S02382,Lombardia,1,A,45.183399,10.97531
CASTEL FRENTANO,S07987,N/A,N/A,N/A,N/A,N/A
CASTEL GANDOLFO,S08703,Lazio,5,A,41.746946,12.652266
CASTEL LAGOPESOLE,S11212,Basilicata,15,A,40.787682,15.758093
CASTEL MADAMA,S08510,Lazio,5,A,41.988389,12.864938
CASTEL S.ANGELO,S07407,Lazio,5,A,42.379666,13.017612
CASTEL S.GIORGIO ROCCAPIEMONTE,S09704,Campania,18,A,40.758713,14.692352
CASTEL S.GIOVANNI,S01948,Emilia Romagna,8,A,45.063272,9.436856
CASTEL S.PIETRO TERME,S05053,Emilia Romagna,8,A,44.407376,11.597681
CASTELBELLO,S02208,N/A,9,A,46.626994,10.897884
CASTELBOLOGNESE,S05056,Emilia Romagna,8,Castelbolognese,44.325391,11.804174
CASTELBUONO,S12020,Sicilia,14,A,38.014606,14.108578
CASTELDACCIA,S12010,Sicilia,14,A,38.060474,13.536867
CASTELDARNE ,S02105,N/A,9,A,46.797708,11.844223
CASTELDEBOLE,S05102,Emilia Romagna,8,A,44.503974,11.27456
CASTELFERRETTI,S07200,Marche,11,A,43.607303,13.357519
CASTELFIORENTINO,S06802,Toscana,13,A,43.60542,10.968048
CASTELFRANCI,S09609,Campania,18,A,40.935968,15.038655
CASTELFRANCO D'EMILIA,S05037,Emilia Romagna,8,A,44.597381,11.056408
CASTELFRANCO IN MISCANO,S09323,N/A,N/A,N/A,N/A,N/A
CASTELFRANCO VENETO,S02537,Veneto,12,Castelfranco V.,45.666439,11.934315
CASTELGUELFO,S05012,Emilia Romagna,8,A,44.836434,10.176706
CASTELLALTO CANZANO,S07901,Abruzzo,19,A,42.69564,13.793043
CASTELLAMMARE DEL GOLFO,S12120,Sicilia,14,Castellammare G.,38.024309,12.912209
CASTELLAMMARE DI STABIA,S09756,Campania,18,A,40.701398,14.483737
CASTELLANETA,S11507,N/A,N/A,N/A,N/A,N/A
CASTELLANETA MARINA,S11463,Puglia,16,A,40.481111,16.965434
CASTELLANZA,S01136,N/A,N/A,N/A,N/A,N/A
CASTELLAZZO CASALCERMELLI,S04000,Piemonte,3,A,44.843839,8.589645
CASTELLEONE,S01606,Lombardia,1,A,45.301826,9.76779
CASTELLETTO BUSCA,S00720,Piemonte,3,A,44.501319,7.463939
CASTELLETTO TICINO,S01123,Piemonte,3,A,45.710757,8.638259
CASTELLINA CH,S06808,Toscana,13,A,43.408744,11.212379
CASTELLINA MARITTIMA,S06024,Toscana,13,A,43.406122,10.495776
CASTELLINO TANARO,S00741,Piemonte,3,A,44.41657,7.974321
CASTELLO DI GODEGO,S02507,Veneto,12,A,45.688082,11.87759
CASTELLO D`ANNONE,S00465,Piemonte,3,A,44.878742,8.312724
CASTELLUCCHIO,S01923,Lombardia,1,A,45.144293,10.64749
CASTELLUCCIO,S09920,N/A,N/A,N/A,N/A,N/A
CASTELL`ALFERO,S00343,Piemonte,3,A,44.986347,8.220882
CASTELMAGGIORE,S05724,Emilia Romagna,8,A,44.576055,11.366901
CASTELNUOVO,S02093,Veneto,12,A,45.430843,10.758273
CASTELNUOVO BELBO,S00836,Piemonte,3,A,44.798127,8.42516
CASTELNUOVO BERARDENGA,S06812,Toscana,13,A,43.306882,11.484912
CASTELNUOVO DI GARFAGNANA,S06300,Toscana,13,A,44.116351,10.409054
CASTELPLANIO CUPRAMONTANA,S07204,Marche,11,A,43.481403,13.084733
CASTELRAIMONDO CAMERINO,S07302,Marche,11,A,43.210511,13.057274
CASTELROSSO,S00233,Piemonte,3,A,45.201802,7.932162
CASTELSPINA PORTANOVA,S04001,Piemonte,3,A,44.796662,8.62203
CASTELVECCHIO PASCOLI,S06302,Toscana,13,A,44.09007,10.455061
CASTELVETERE,S09608,Campania,18,A,40.952072,15.011348
CASTELVETRANO,S12113,Sicilia,14,A,37.684977,12.799552
CASTELVETRO,S01960,Emilia Romagna,8,Castelvetro,45.100095,9.982181
CASTIGLION DEL LAGO,S06923,Umbria,6,Castiglione del Lago,43.123195,12.032077
CASTIGLION FIORENTINO,S06920,Toscana,13,A,43.34075,11.914362
CASTIGLIONCELLO,S06729,Toscana,13,A,43.404619,10.414354
CASTIGLIONE COSENTINO,S11909,Calabria,17,Castiglione C.,39.35542,16.244388
CASTIGLIONE DI SICILIA,S12362,Sicilia,14,A,37.88674,15.097013
CASTIGLIONE IN TEVERINA,S08205,Umbria,6,A,42.648544,12.234913
CASTIONE ANDEVENNO,S01429,Lombardia,1,A,46.161659,9.806151
CASTIONE DEI MARCHESI,S01964,Emilia Romagna,8,A,44.915157,10.044449
CASTRO-POFI,S08663,Lazio,5,A,41.533014,13.410741
CASTRONNO,S01208,Lombardia,1,A,45.74524,8.810302
CATANIA ACQUICELLA,S12337,Sicilia,14,A,37.492765,15.074699
CATANIA CENTRALE,S12332,Sicilia,14,Catania,37.506211,15.099417
CATANIA OGNINA,S12331,Sicilia,14,A,37.534049,15.11261
CATANZARO,S11956,Calabria,17,Catanzaro,38.896222,16.599081
CATANZARO LIDO,S11833,Calabria,17,Catanzaro Lido,38.821788,16.612975
CATENANUOVA,S12244,Sicilia,14,A,37.562026,14.688263
CATTOLICA S.GIOVANNI GABICCE,S07102,Emilia Romagna,8,Cattolica,43.959931,12.745087
CAULONIA,S11846,Calabria,17,A,38.343785,16.467278
CAVA CARBONARA,S00279,Lombardia,1,Cava Carbonara,45.147055,9.071387
CAVA DEI TIRRENI,S09816,Campania,18,Cava dei Tirreni,40.703662,14.708461
CAVA MANARA,S01804,Lombardia,1,A,45.144867,9.115332
CAVA TIGOZZI,S01914,Lombardia,1,A,45.156823,9.955827
CAVAGNOLO BRUSASCO,S00423,Piemonte,3,A,45.153655,8.047534
CAVALLEGGERI AOSTA,S09113,Campania,18,A,40.819292,14.185679
CAVALLERMAGGIORE,S00603,Piemonte,3,Cavallermaggiore,44.708147,7.692108
CAVANELLA D`ADIGE,S05425,Veneto,12,A,45.111263,12.249312
CAVANELLA PO,S05422,Veneto,12,A,45.052208,12.134893
CAVARIA OGGIONA JERAGO,S01210,Lombardia,1,A,45.698145,8.8035
CAVAZZALE,S02147,Veneto,12,A,45.596079,11.569823
CAVI,S04724,Liguria,2,A,44.29354,9.37251
CAZZAGO S. MARTINO,N00238,N/A,N/A,N/A,N/A,N/A
CA` DI BOSCHETTI,S06044,Liguria,2,A,44.117925,9.857449
CECCANO,S08664,Lazio,5,A,41.573583,13.336417
CECCHINA,S08732,Lazio,5,A,41.692029,12.650992
CECINA,S06026,Toscana,13,Cecina,43.31028,10.514225
CEDEGOLO,N00231,N/A,N/A,N/A,N/A,N/A
CEFALU`,S12019,Sicilia,14,Cefalu`,38.03285,14.019526
CEGGIA,S02665,Veneto,12,A,45.688394,12.633987
CELANO-OVINDOLI,S08528,Abruzzo,19,A,42.076999,13.543398
CELLE,S04530,Liguria,2,A,44.34246,8.542626
CELLE BULGHERIA ROCCAGLORIOSA,S11716,Campania,18,A,40.10287,15.39473
CENGIO,S00745,Liguria,2,A,44.390798,8.191824
CENTALLO,S00608,Piemonte,3,A,44.496223,7.591035
CENTOLA,S11715,Campania,18,A,40.090672,15.34674
CEPRANO-FALVATERRA,S08666,Lazio,5,A,41.523962,13.523481
CERBERE,S78500,N/A,N/A,N/A,N/A,N/A
CERCENASCO,S00541,Piemonte,3,A,44.864897,7.495302
CERCHIO,S08530,Abruzzo,19,A,42.061082,13.597972
CERCINA,S06956,Toscana,13,A,43.900121,11.265279
CERDA,S12200,Sicilia,14,A,37.953964,13.78447
CEREA,S02364,Veneto,12,Cerea,45.196556,11.213921
CEREGNANO,S05417,Veneto,12,A,45.05062,11.870958
CERIALE,S04517,Liguria,2,A,44.098922,8.234216
CERIANO LAGHETTO SOLARO,N00248,N/A,N/A,N/A,N/A,N/A
CERIGNOLA,S11103,Puglia,16,A,41.315664,15.897298
CERLANO LAGHETTO,S01934,N/A,N/A,N/A,N/A,N/A
CERNUSCO-MERATE,S01513,Lombardia,1,A,45.695096,9.396794
CERRETO D`ESI,S07300,Marche,11,A,43.32205,12.98319
CERTALDO,S06803,Toscana,13,A,43.547124,11.037711
CERTOSA DI PAVIA,S01803,Lombardia,1,A,45.256927,9.154456
CERVARO,S11200,Puglia,16,Cervaro,41.397604,15.595704
CERVIA-MILANO MARITTIMA,S05814,Emilia Romagna,8,A,44.258444,12.347096
CERVIGNANO A.G.,S03207,Friuli-Venezia Giulia,10,Cervignano,45.823948,13.342866
CERVIGNASCO,S00546,Piemonte,3,A,44.699669,7.518644
CERVINARA,S09015,N/A,N/A,N/A,N/A,N/A
CERVO SAN BARTOLOMEO,S04512,Liguria,2,A,43.923901,8.109704
CESANO BOSCONE,S01112,N/A,N/A,N/A,N/A,N/A
CESANO DI ROMA,S08319,Lazio,5,Cesano,42.061833,12.326669
CESANO MADERNO,S01086,N/A,N/A,N/A,N/A,N/A
CESATE,S01075,N/A,N/A,N/A,N/A,N/A
CESE,S09473,Campania,18,A,41.210883,14.787329
CESENA,S05066,Emilia Romagna,8,Cesena,44.145449,12.24964
CESENATICO,S05815,Emilia Romagna,8,A,44.20065,12.391186
CETO - CERVENO,N00228,N/A,N/A,N/A,N/A,N/A
CETRARO,S11735,Calabria,17,A,39.512553,15.939263
CEVA,S00742,Piemonte,3,Ceva,44.389861,8.031958
CHAMBAVE,S00141,Valle d'Aosta,4,A,45.744163,7.557301
CHATILLON SAINT VINCENT,S00142,Valle d'Aosta,4,A,45.7434,7.619309
CHERASCO,S00733,Piemonte,3,A,44.65261,7.867211
CHIANCHE CEPPALONI,S09510,Campania,18,A,41.050122,14.777618
CHIARAVALLE,S07201,Marche,11,A,43.595503,13.327655
CHIARI,S01713,Lombardia,1,A,45.54011,9.926474
CHIARONE,S08007,Toscana,13,A,42.387528,11.446123
CHIASSO,S01301,Lombardia,1,Chiasso,45.830736,9.03421
CHIAVARI,S04722,Liguria,2,A,44.315156,9.322464
CHIAVENNA,S01400,Lombardia,1,Chiavenna,46.321258,9.407129
CHIERI,S00500,Piemonte,3,Chieri,45.007008,7.827077
CHIETI,S07712,Abruzzo,19,Chieti,42.356905,14.13815
CHIEUTI SERRACAPRIOLA,S11021,Puglia,16,Chieuti Serrac.,41.921962,15.156645
CHIGNOLO PO,S01868,Lombardia,1,A,45.160942,9.494196
CHIOGGIA,S05428,Veneto,12,Chioggia,45.210243,12.275235
CHIOMONTE,S00206,Piemonte,3,A,45.119876,6.988716
CHIRIALZA,S12899,Sardegna,20,A,40.830877,9.36732
CHIUDUNO,S01536,Lombardia,1,A,45.650449,9.846924
CHIURO,S01435,Lombardia,1,A,46.164658,9.992317
CHIUSA ,S02017,N/A,9,A,46.642611,11.572678
CHIUSANO COSSOMBRONE,S00429,Piemonte,3,A,44.985034,8.128822
CHIUSI C.T.,S06925,Toscana,13,Chiusi C.T.,43.002466,11.957893
CHIVASSO,S00232,Piemonte,3,Chivasso,45.193637,7.889666
CIAMPINO,S08650,Lazio,5,Ciampino,41.804442,12.599546
CIARDES,S02209,N/A,9,A,46.635274,10.940542
CINISI TERRASINI,S12126,Sicilia,14,Cinisi Terrasini,38.155314,13.096673
CIRE',S00090,N/A,N/A,N/A,N/A,N/A
CIRELLA MAJERA`,S11730,Calabria,17,A,39.708556,15.812289
CIRO',S11820,Calabria,17,A,39.368701,17.116997
CISANO CAPRINO BERGAMASCO,S01525,Lombardia,1,A,45.739606,9.474261
CISLAGO,N00015,N/A,N/A,N/A,N/A,N/A
CISMON DEL GRAPPA,S02500,Veneto,12,A,45.919664,11.729272
CISTERNA DI LATINA,S08603,Lazio,5,A,41.586511,12.827538
CISTERNINO,S11131,Puglia,16,A,40.816652,17.456899
CITERNA TARO,S06154,Emilia Romagna,8,A,44.63548,10.032939
CITTADELLA,S02535,Veneto,12,Cittadella,45.643868,11.789857
CITTADUCALE,S07406,Lazio,5,A,42.387764,12.94269
CITTA` DELLA PIEVE,S08200,Umbria,6,Citta` della Pieve,42.936221,11.971127
CITTIGLIO,N00032,N/A,N/A,N/A,N/A,N/A
CIVATE,S01462,Lombardia,1,A,45.831295,9.352877
CIVIDALE,S03056,N/A,N/A,N/A,N/A,N/A
CIVIDATE - MALEGNO,N00225,N/A,N/A,N/A,N/A,N/A
CIVITA CASTELLANA,S08211,Lazio,5,A,42.346593,12.453821
CIVITA D`ANTINO-MORINO,S08853,Abruzzo,19,A,41.870632,13.458868
CIVITANOVA MARCHE,S07506,Marche,11,Civitanova,43.3091,13.7257
CIVITAVECCHIA,S08010,Lazio,5,Civitavecchia,42.088287,11.79815
CIVITAVECCHIA M.MA,S08012,Lazio,5,A,42.099843,11.78438
CIVITAVECCHIA VIALE DELLA VITTORIA,S08024,Lazio,5,A,42.086518,11.800599
CIVITELLA - BADIA AL PINO,S06066,N/A,N/A,N/A,N/A,N/A
CIVITELLA PAGANICO,S06822,Toscana,13,A,42.94028,11.283536
CIVITELLA ROVETO,S08852,Abruzzo,19,A,41.916419,13.424882
CIXERRI,S12970,Sardegna,20,A,39.26982,8.578934
CLASSE,S05812,Emilia Romagna,8,A,44.382033,12.234995
COCCAGLIO,S01540,Lombardia,1,A,45.560971,9.977648
COCCONATO,S00425,Piemonte,3,A,45.082926,8.070145
COCQUIO - TREVISAGO,N00030,N/A,N/A,N/A,N/A,N/A
COCULLO,S08534,Abruzzo,19,A,42.040723,13.776636
CODIGORO,S05799,N/A,N/A,N/A,N/A,N/A
CODOGNO,S01828,Lombardia,1,Codogno,45.154897,9.701376
CODOLA,S09703,Campania,18,Codola,40.767687,14.665622
CODROIPO,S02831,Friuli-Venezia Giulia,10,A,45.9657,12.976543
COGNO - ESINE,N00224,N/A,N/A,N/A,N/A,N/A
COGOLETO,S04532,Liguria,2,A,44.389762,8.643906
COLDRANO-MARTELLO,S02206,N/A,9,A,46.618902,10.821204
COLFELICE,S08820,N/A,N/A,N/A,N/A,N/A
COLICO,S01420,Lombardia,1,Colico,46.138019,9.375222
COLLARMELE,S08548,N/A,N/A,N/A,N/A,N/A
COLLE ISARCO ,S02005,N/A,9,A,46.937951,11.441336
COLLE MATTIA,S08651,Lazio,5,A,41.832756,12.728329
COLLE VAL D`ELSA,S06840,Toscana,13,Colle Val d`Elsa,43.421908,11.127681
COLLECCHIO,S06151,Emilia Romagna,8,A,44.755339,10.21228
COLLEDIMEZZO,S07994,N/A,N/A,N/A,N/A,N/A
COLLEFERRO-SEGNI-PALIANO,S08657,Lazio,5,A,41.740062,13.00299
COLLEGNO,S00217,Piemonte,3,A,45.078854,7.574131
COLLESALVETTI,S06018,Toscana,13,A,43.586586,10.470534
COLLEVECCHIO,S08221,Lazio,5,A,42.298089,12.520546
COLLI DI MONTE BOVE,S08520,Abruzzo,19,A,42.097103,13.15057
COLMEGNA,S01111,N/A,N/A,N/A,N/A,N/A
COLOGNE,S01539,Lombardia,1,A,45.576627,9.935316
COLONNA GALLERIA,S08653,N/A,N/A,N/A,N/A,N/A
COLORNO,S01852,Emilia Romagna,8,A,44.927943,10.382935
COMIGNAGO,S00050,Piemonte,3,A,45.714296,8.566362
COMISO,S12411,Sicilia,14,A,36.947184,14.60037
COMO NORD BORGHI,N00043,N/A,N/A,N/A,N/A,N/A
COMO NORD CAMERLATA,N00042,N/A,N/A,N/A,N/A,N/A
COMO NORD LAGO,N00044,N/A,N/A,N/A,N/A,N/A
COMO S. GIOVANNI,S01307,Lombardia,1,Como,45.808946,9.072331
COMPIOBBI,S06902,Toscana,13,A,43.782527,11.358695
COMPRE S.VINCENZO,S08816,N/A,N/A,N/A,N/A,N/A
CONA F. C.,S05169,N/A,N/A,N/A,N/A,N/A
CONDOFURI,S11861,Calabria,17,A,37.92761,15.874952
CONDOVE,S00212,Piemonte,3,A,45.106689,7.317022
CONEGLIANO,S02706,Veneto,12,Conegliano,45.884706,12.298909
CONSELICE,S05950,Emilia Romagna,8,A,44.510987,11.831949
CONTEA LONDA,S06702,Toscana,13,A,43.865124,11.531603
CONTESSE,S12355,Sicilia,14,A,38.16193,15.544717
CONTIGLIANO,S07404,Lazio,5,A,42.412072,12.779144
CONTURSI TERME,S09826,Campania,18,A,40.630046,15.235486
CONZA ANDRETTA CAIRANO,S09618,N/A,N/A,N/A,N/A,N/A
CORBETTA S. STEFANO,S01041,Lombardia,1,A,45.480829,8.917457
CORBEZZI,S05115,Toscana,13,A,43.993948,10.919676
CORCHIANO,S08112,Lazio,5,A,42.361351,12.341846
CORDOVADO SESTO,S02661,Friuli-Venezia Giulia,10,Cordovado Sesto,45.850653,12.877784
CORIGLIANO CALABRO,S11812,Calabria,17,A,39.628223,16.514949
CORMANO - BRUSUGLIO,N00058,N/A,N/A,N/A,N/A,N/A
CORMANO - BRUSUGLIO,S01080,N/A,N/A,N/A,N/A,N/A
CORMONS,S03300,Friuli-Venezia Giulia,10,A,45.957519,13.461563
CORNIGLIA,S04734,Liguria,2,A,44.119938,9.711051
CORNINO,S03053,Friuli-Venezia Giulia,10,A,46.220516,13.010581
CORNUDA,S02569,Veneto,12,A,45.833846,12.012886
CORONELLA,S05719,N/A,N/A,N/A,N/A,N/A
CORRIDONIA MOGLIANO,S07308,Marche,11,A,43.281616,13.477697
CORSANO,S09324,Campania,18,A,41.164472,14.958463
CORSICO,S01064,Lombardia,1,A,45.434688,9.105156
CORTEOLONA,S01865,Lombardia,1,A,45.159701,9.375477
COSENZA,S11910,Calabria,17,Cosenza,39.318386,16.260955
COSIO TRAONA,S01424,Lombardia,1,A,46.135564,9.525498
COSSATO,S00973,Piemonte,3,A,45.564216,8.175964
COSTA,S02375,Veneto,12,A,45.045766,11.696511
COSTA MASNAGA,S01491,Lombardia,1,A,45.76343,9.285231
COSTIGLIOLE (MOTTA DI),S00348,Piemonte,3,A,44.807559,8.145712
COSTIGLIOLE D`ASTI,S00829,Piemonte,3,A,44.754882,8.20477
COSTIGLIOLE SALUZZO,S00702,Piemonte,3,A,44.570196,7.482075
COTIGNOLA,S05956,Emilia Romagna,8,A,44.387077,11.938037
COTILIA,S07432,Lazio,5,A,42.372602,12.96871
COURGNE',S00888,N/A,N/A,N/A,N/A,N/A
COZZE,S11151,Puglia,16,A,41.017835,17.159396
COZZO,S00332,Lombardia,1,A,45.182989,8.603292
CREMA,S01605,Lombardia,1,A,45.366864,9.694209
CREMONA,S01915,Lombardia,1,Cremona,45.143215,10.017951
CRESCENTINO,S00172,Piemonte,3,A,45.194302,8.107175
CRESPINO DEL LAMONE,S06607,N/A,N/A,N/A,N/A,N/A
CRESSA FONTANETO,S00017,Piemonte,3,A,45.646331,8.498435
CREVALCORE,S05316,Emilia Romagna,8,Crevalcore,44.719156,11.152625
CROCETTA,S07988,N/A,N/A,N/A,N/A,N/A
CROCICCHIE,S08317,Lazio,5,A,42.0559,12.238888
CROPANI,S11830,Calabria,17,A,38.921968,16.813562
CROTONE,S11823,Calabria,17,Crotone,39.0845,17.108418
CRUCOLI,S11819,Calabria,17,A,39.449588,17.040718
CUCCIAGO,S01312,Lombardia,1,A,45.740813,9.082205
CUNEO,S00610,Piemonte,3,Cuneo,44.387914,7.536235
CUNEO GESSO,S00611,Piemonte,3,Cuneo Gesso,44.394234,7.556017
CUNICO SCANDELUZZA,S00427,Piemonte,3,A,45.036947,8.11007
CUPONE,S08810,Abruzzo,19,A,41.964628,13.377481
CUPRAMARITTIMA,S07511,Marche,11,A,43.02349,13.860812
CUREGGIO,S00051,Piemonte,3,A,45.672538,8.456282
CURINGA,S11972,N/A,N/A,N/A,N/A,N/A
CUSANO,S02700,Friuli-Venezia Giulia,10,A,45.945427,12.757485
CUTRO,S11826,Calabria,17,A,39.02593,16.963809
CUZZAGO,S01010,Piemonte,3,A,45.993682,8.373989
DARFO-CORNA,S01006,N/A,N/A,N/A,N/A,N/A
DECIMOMANNU,S12888,Sardegna,20,Decimomannu,39.304593,8.965808
DEGO,S00877,Liguria,2,A,44.448003,8.308469
DEIVA MARINA,S04728,Liguria,2,A,44.217306,9.519022
DELEBIO,S01422,Lombardia,1,A,46.13865,9.461168
DERBY,S00162,Valle d'Aosta,4,A,45.730289,7.087018
DERVIO,S01408,Lombardia,1,A,46.077709,9.30596
DESENZANO,S02084,Lombardia,1,Desenzano,45.462677,10.536322
DESIO,S01320,Lombardia,1,A,45.620112,9.218495
DIAMANTE BUONVICINO,S11731,Calabria,17,A,39.67701,15.824278
DIANO MARINA,S04511,Liguria,2,A,43.909635,8.078433
DICOMANO,S06701,Toscana,13,A,43.893489,11.519148
DIECIMO - PESCAGLIA,S06310,Toscana,13,A,43.959404,10.507844
DITTAINO,S12240,Sicilia,14,A,37.564605,14.462429
DIVACA,S44200,N/A,N/A,N/A,N/A,N/A
DOBBIACO ,S02113,N/A,9,A,46.725049,12.225122
DOGATO,S05174,N/A,N/A,N/A,N/A,N/A
DOLE VILLE,S71341,N/A,N/A,N/A,N/A,N/A
DOLO,S02587,Veneto,12,A,45.453466,12.07161
DOMEGLIARA,S02055,Veneto,12,A,45.522348,10.820408
DOMODOSSOLA,S01003,Piemonte,3,Domodossola,46.115429,8.296684
DONNA,S04202,Piemonte,3,A,44.818902,8.712792
DONNAFUGATA,S12412,Sicilia,14,A,36.882055,14.568968
DONNAZ,S00148,Valle d'Aosta,4,A,45.602713,7.769563
DORIO,S01407,Lombardia,1,A,46.102756,9.319063
DORMELLETTO,S01025,Piemonte,3,A,45.7233,8.581906
DORMELLETTO PAESE,S00980,Piemonte,3,A,45.730032,8.574324
DOSSOBUONO,S02330,Veneto,12,Dossobuono,45.392382,10.914831
DRAGONI,S09021,N/A,N/A,N/A,N/A,N/A
DRONERO,S00722,Piemonte,3,A,44.464974,7.423245
DUBINO,S01405,Lombardia,1,A,46.172802,9.432188
DUEVILLE,S02146,Veneto,12,A,45.635,11.546108
DUGO SELO,S72517,N/A,N/A,N/A,N/A,N/A
DUOMO VIA VERNIERI,S09819,N/A,N/A,N/A,N/A,N/A
Dev.Int. DD/AV,S08220,Lazio,5,A,42.274228,12.607523
EBOLI,S09824,Campania,18,A,40.611057,15.052382
ECA NASAGO`,S00926,Piemonte,3,A,44.160769,7.965137
ECCELLENTE,S11788,Calabria,17,Eccellente,38.809696,16.232598
EDOLO,N00235,N/A,N/A,N/A,N/A,N/A
EGNA-TERMENO ,S02032,N/A,9,A,46.319418,11.257177
EGNAZIA,S11154,Puglia,16,A,40.901727,17.329607
ELLERA CORCIANO,S07003,Umbria,6,A,43.094699,12.318574
ELMAS AEROPORTO,S12819,N/A,N/A,N/A,N/A,N/A
EMPOLI,S06510,Toscana,13,Empoli,43.715708,10.94915
ENAS,S12856,Sardegna,20,A,40.85706,9.431095
ENNA,S12238,Sicilia,14,Enna,37.581134,14.289579
ENZITETO/CATINO,S11041,N/A,N/A,N/A,N/A,N/A
EQUI TERME,S06226,Toscana,13,A,44.170282,10.153624
ERBA,S01096,N/A,N/A,N/A,N/A,N/A
ERBANNO - ANGONE,N00222,N/A,N/A,N/A,N/A,N/A
ESTE,S02396,Veneto,12,A,45.220954,11.662931
EXILLES,S00251,Piemonte,3,A,45.08999,6.927344
FABRIANO,S07208,Marche,11,Fabriano,43.345429,12.905336
FABRIANO CA` MAIANO,S07059,Marche,11,A,43.345598,12.873939
FABRICA DI ROMA,S08111,Lazio,5,A,42.334416,12.307467
FABRO-FICULLE,S08201,Umbria,6,A,42.874851,12.04123
FAENZA,S05058,Emilia Romagna,8,Faenza,44.293594,11.883268
FAE`FORTOGNA,S02557,Veneto,12,A,46.239439,12.294121
FAGARE,S02762,Veneto,12,A,45.70705,12.444296
FAGNANO CAMPANA,S07420,Abruzzo,19,A,42.250575,13.562743
FALCIANO MONDRAGONE CAR.,S09001,Campania,18,A,41.123525,13.971792
FALCONARA,S12405,Sicilia,14,A,37.113529,14.052516
FALCONARA IBLEA,S12440,N/A,N/A,N/A,N/A,N/A
FALCONARA MARITTIMA,S07111,Marche,11,Falconara Marittima,43.630577,13.397378
FALCONARA STADIO,S07117,Marche,11,A,43.626158,13.381179
FALCONE,S12038,Sicilia,14,A,38.119573,15.080467
FALERNA,S11747,Calabria,17,A,38.970726,16.14991
FANNA - CAVASSO,S03083,Friuli-Venezia Giulia,10,A,46.187072,12.7707
FANO,S07105,Marche,11,A,43.842977,13.02478
FANZOLO,S02575,Veneto,12,A,45.708253,11.992069
FARA,S00112,Piemonte,3,A,45.550556,8.458049
FARA SABINA,S08214,Lazio,5,Fara Sabina,42.155546,12.648323
FARIGLIANO,S00737,Piemonte,3,A,44.513337,7.90947
FASANO,S11130,Puglia,16,Fasano,40.851753,17.3859
FAUGLIA - LORENZANA,S06021,Toscana,13,A,43.551831,10.50304
FAVAZZINA,S11771,Calabria,17,A,38.258742,15.756625
FAVRIA,S00885,N/A,N/A,N/A,N/A,N/A
FEDERICO,S12136,Sicilia,14,A,38.144862,13.344966
FELEGARA - S.ANDREA BAGNI,S06103,Emilia Romagna,8,A,44.724809,10.114523
FELETTO,S00883,N/A,N/A,N/A,N/A,N/A
FELIZZANO,S00468,Piemonte,3,A,44.893367,8.437155
FELONICA PO,S05162,N/A,N/A,N/A,N/A,N/A
FELTRE,S02564,Veneto,12,A,46.012884,11.911493
FERENTINO-SUPINO,S08661,Lazio,5,A,41.6564,13.246971
FERNO LONATE POZZOLO,S01138,N/A,N/A,N/A,N/A,N/A
FEROLETO ANTICA PIANOPOLI,S11952,Calabria,17,A,38.938255,16.36622
FERRANDINA,S11458,Basilicata,15,A,40.516566,16.475276
FERRANIA,S04804,Liguria,2,A,44.365136,8.328885
FERRARA,S05712,Emilia Romagna,8,Ferrara,44.843047,11.603594
FERRARA ALEOTTI,S05167,N/A,N/A,N/A,N/A,N/A
FERRARA P. RENO,S05168,N/A,N/A,N/A,N/A,N/A
FERRERA LOMELLINA,S00404,Lombardia,1,A,45.111807,8.862805
FERRUZZANO,S11856,Calabria,17,A,38.016304,16.134486
FI ROVEZZANO,S06901,Toscana,13,Fi Rovezzano,43.768657,11.307372
FIDENE,S08235,Lazio,5,A,41.979773,12.508451
FIDENZA,S05009,Emilia Romagna,8,Fidenza,44.86773,10.06339
FIERA,S12137,Sicilia,14,A,38.144004,13.351336
FIESOLE CALDINE,S06953,Toscana,13,A,43.833697,11.266047
FIGLINE VALDARNO,S06908,Toscana,13,Figline Valdarno,43.621596,11.473652
FILATTIERA,S06165,Toscana,13,A,44.33137,9.933352
FILDIDONNA,S12277,Sicilia,14,A,37.310867,14.808848
FILIANO,S11211,Basilicata,15,A,40.837161,15.752285
FINALE LIGURE MARINA,S04522,Liguria,2,A,44.169116,8.34033
FINO MORNASCO,N00039,N/A,N/A,N/A,N/A,N/A
FIORENZUOLA,S05007,Emilia Romagna,8,A,44.928716,9.917403
FIRENZE CAMPO MARTE,S06900,Toscana,13,A,43.776856,11.27702
FIRENZE CASTELLO,S06419,Toscana,13,A,43.819444,11.21838
FIRENZE RIFREDI,S06420,Toscana,13,A,43.800873,11.235729
FIRENZE S.M.N.,S06421,Toscana,13,Firenze,43.776893,11.247373
FIRENZE STATUTO,S06430,Toscana,13,A,43.787273,11.249738
FISCIANO,S09519,Campania,18,A,40.759095,14.77486
FIUMEFREDDO BRUZIO,S11741,Calabria,17,A,39.246369,16.059012
FIUMEFREDDO DI SICILIA,S12322,Sicilia,14,A,37.795247,15.205615
FIUMELATTE,S01412,Lombardia,1,A,45.999017,9.292857
FIUMETORTO,S12015,Sicilia,14,Fiumetorto,37.966939,13.774781
FIUMICINO AEROPORTO,S08411,Lazio,5,Fiumicino Aeroporto,41.793673,12.251728
FIVIZZANO - GASSANO,S06223,Toscana,13,A,44.202672,10.091691
FIVIZZANO ROMETTA - SOLIERA,S06222,Toscana,13,A,44.201526,10.05953
FOGGIA,S11100,Puglia,16,Foggia,41.466,15.555816
FOGNANO,S06618,N/A,N/A,N/A,N/A,N/A
FOLIGNO,S07217,Umbria,6,Foligno,42.954261,12.711096
FOLLONICA,S06033,Toscana,13,A,42.926687,10.755775
FONDI - SPERLONGA,S08606,Lazio,5,A,41.337663,13.424893
FONTAN SAORGE,S00621,N/A,N/A,N/A,N/A,N/A
FONTANA LIRI,S08818,N/A,N/A,N/A,N/A,N/A
FONTANA LIRI INFERIORE,S08819,N/A,N/A,N/A,N/A,N/A
FONTANAFREDDA,S02702,Friuli-Venezia Giulia,10,A,45.967555,12.575266
FONTANAROSA,S09199,N/A,N/A,N/A,N/A,N/A
FONTANETTO PO,S00174,Piemonte,3,A,45.191238,8.188697
FONTANIVA,S02534,Veneto,12,A,45.634723,11.749038
FONTEBUONA,S06619,Toscana,13,A,43.91751,11.265553
FONTECCHIO,S07421,Abruzzo,19,A,42.222822,13.604445
FONYOD,S03491,N/A,N/A,N/A,N/A,N/A
FORENZA,S11210,Basilicata,15,A,40.866839,15.725331
FORGARIA BAGNI ANDUINS,S03054,Friuli-Venezia Giulia,10,A,46.203472,12.964109
FORLIMPOPOLI,S05065,Emilia Romagna,8,A,44.194165,12.128125
FORLI`,S05059,Emilia Romagna,8,Forli`,44.22413,12.054871
FORMIA-GAETA,S08640,Lazio,5,Formia-Gaeta,41.258773,13.605996
FORNACI DI BARGA,S06304,Toscana,13,A,44.045253,10.473173
FORNO ALLIONE,N00232,N/A,N/A,N/A,N/A,N/A
FORNOVO,S06153,Emilia Romagna,8,Fornovo,44.693791,10.102014
FORTE DEI MARMI SERRAVEZZA Q.,S06011,Toscana,13,A,43.97777,10.19936
FORTEZZA ,S02011,Trentino Alto Adige,22,Fortezza ,46.788841,11.609922
FOSCIANDORA - CESERANA,S06301,Toscana,13,A,44.118559,10.444212
FOSSACESIA,S07819,Abruzzo,19,A,42.235097,14.524255
FOSSACESIA - TORINO DI SANGRO,S07018,Abruzzo,19,A,42.237648,14.525456
FOSSALTA DI PIAVE,S02667,Veneto,12,A,45.624215,12.500393
FOSSALTA DI PORTOGRUARO,S03201,Veneto,12,A,45.78324,12.907473
FOSSANO,S00606,Piemonte,3,Fossano,44.550231,7.717971
FOSSATO DI VICO GUBBIO,S07209,Umbria,6,Fossato di Vico,43.283798,12.757258
FRAGNETO MONFORTE,S09506,Campania,18,A,41.247292,14.76486
FRAMURA,S04729,Liguria,2,A,44.201903,9.555169
FRANCAVILLA,S12361,Sicilia,14,A,37.899892,15.132812
FRANCAVILLA AL MARE,S07813,Abruzzo,19,A,42.421316,14.288062
FRANCAVILLA ANGITOLA F.,S11752,Calabria,17,A,38.778074,16.215215
FRANCAVILLA FONTANA,S11603,Puglia,16,A,40.523145,17.584714
FRANCIA,S12139,Sicilia,14,A,38.155233,13.321938
FRANCIOSA,S09842,N/A,N/A,N/A,N/A,N/A
FRASCATI,S08751,Lazio,5,Frascati,41.806881,12.677962
FRASSO,S08806,N/A,N/A,N/A,N/A,N/A
FRASSO T. DUGENTA,S09305,Campania,18,A,41.137244,14.459459
FRATTA,S02374,Veneto,12,A,45.038673,11.642598
FRATTAMAGGIORE,S09008,Campania,18,A,40.940018,14.263676
FRATTAROLO,S11053,Puglia,16,A,41.58364,15.861727
FRATTE,S09522,Campania,18,A,40.705637,14.778362
FRATTE CENTRO,S02524,Veneto,12,A,45.585849,11.906637
FRATTE VILLA COMUNALE,S09524,Campania,18,A,40.697895,14.779252
FROSINONE,S08662,Lazio,5,Frosinone,41.625333,13.328728
FRUGAROLO BOSCOMARENGO,S04200,Piemonte,3,A,44.841687,8.682724
FRUTIGEN,S07478,N/A,N/A,N/A,N/A,N/A
FUNO CENTERGROSS,S05726,Emilia Romagna,8,A,44.593646,11.370672
FURCI,S12313,Sicilia,14,A,37.961714,15.380022
FUSCALDO,S11738,Calabria,17,A,39.409692,16.011475
GABELLA GRANDE,S11871,Calabria,17,A,39.146447,17.10991
GAGGI,S12358,Sicilia,14,A,37.858532,15.225095
GAGGIANO,S01063,Lombardia,1,A,45.408827,9.031117
GAGGIO,S02671,Veneto,12,A,45.551893,12.326027
GAGLIOLE,S07311,Marche,11,A,43.220298,13.07522
GAIBANELLA,S05800,Emilia Romagna,8,A,44.778116,11.671325
GAIFANA,S07212,Umbria,6,A,43.181837,12.784148
GALATI,S12305,Sicilia,14,A,38.104511,15.505313
GALDO,S09900,Campania,18,A,40.569272,15.355627
GALLARATE,S01030,Lombardia,1,Gallarate,45.659828,8.798243
GALLESE BASSANELLO,S08113,Lazio,5,A,42.3798,12.371998
GALLESE IN TEVERINA,S08210,Lazio,5,A,42.380901,12.439732
GALLIATE,N00054,N/A,N/A,N/A,N/A,N/A
GALLIERA,S05721,Emilia Romagna,8,A,44.737738,11.441551
GALLIERA VENETA TOMBOLO,S02541,Veneto,12,A,45.652901,11.828066
GAMALERO,S00861,Piemonte,3,A,44.817476,8.543427
GAMBERALE-S.ANGELO P.,S07997,N/A,N/A,N/A,N/A,N/A
GAMBETTOLA,S05067,Emilia Romagna,8,A,44.116718,12.327555
GAMBOLO`REMONDO`,S00274,Lombardia,1,A,45.23587,8.79757
GARBAGNA,S00030,Piemonte,3,A,45.385552,8.66627
GARESSIO,S00924,Piemonte,3,A,44.199088,8.015214
GARGAZZONE ,S02218,N/A,N/A,N/A,N/A,N/A
GARIBALDI,N00090,N/A,N/A,N/A,N/A,N/A
GARLASCO,S00276,Lombardia,1,A,45.198948,8.926829
GATTEO A MARE,S05816,Emilia Romagna,8,A,44.170691,12.432057
GATTINARA,S00052,Piemonte,3,A,45.611523,8.364288
GAVIGNANO,S08241,N/A,N/A,N/A,N/A,N/A
GAVIRATE,N00028,N/A,N/A,N/A,N/A,N/A
GAVIRATE VERBANO,N00029,N/A,N/A,N/A,N/A,N/A
GAVORRANO,S06036,Toscana,13,A,42.947959,10.9338
GAZZADA SCHIANNO MORAZZONE,S01207,Lombardia,1,A,45.77862,8.824815
GAZZO DI BIGARELLO,S02381,Lombardia,1,A,45.176648,10.894005
GAZZO PIEVE S. GIACOMO,S01917,Lombardia,1,A,45.137151,10.189922
GELA,S12407,Sicilia,14,Gela,37.07283,14.259461
GEMELLI,S08326,Lazio,5,A,41.927813,12.427797
GEMONA DEL FRIULI,S03019,Friuli-Venezia Giulia,10,Gemona del Friuli,46.274243,13.127978
GEMONIO,N00031,N/A,N/A,N/A,N/A,N/A
GENGA S.VITTORE TERME,S07206,Marche,11,A,43.403011,12.977163
GENOVA ACQUASANTA,S04107,Liguria,2,A,44.458757,8.773197
GENOVA BOLZANETO,S04218,Liguria,2,A,44.459208,8.900193
GENOVA BORZOLI,S04109,Liguria,2,Borzoli,44.434704,8.866648
GENOVA BRIGNOLE,S04702,Liguria,2,A,44.407213,8.947553
GENOVA CORNIGLIANO,S04538,Liguria,2,A,44.414752,8.865035
GENOVA COSTA DI SESTRI PONENTE,S04110,Liguria,2,A,44.433535,8.84553
GENOVA GRANARA,S04108,Liguria,2,A,44.442055,8.823453
GENOVA MARITTIMA S. LIMBANIA,S04603,Liguria,2,A,44.412808,8.911098
GENOVA NERVI,S04707,Liguria,2,A,44.381271,9.039895
GENOVA P. PRINCIPE SOTTERRANEA,S04701,Liguria,2,A,44.414803,8.918041
GENOVA P.PRINCIPE,S04700,Liguria,2,Genova,44.417784,8.9207
GENOVA PEGLI,S04536,Liguria,2,A,44.426236,8.816767
GENOVA PONTEDECIMO,S04217,Liguria,2,A,44.494189,8.905642
GENOVA PRA,S04535,Liguria,2,A,44.426874,8.785356
GENOVA QUARTO DEI MILLE,S04704,Liguria,2,A,44.388607,8.99597
GENOVA QUINTO AL MARE,S04705,Liguria,2,A,44.385184,9.020514
GENOVA RIVAROLO,S04219,Liguria,2,Rivarolo,44.435955,8.89106
GENOVA S.BIAGIO,S04222,Liguria,2,A,44.484399,8.900854
GENOVA SAMPIERDARENA,S04220,Liguria,2,Genova Samp.,44.413102,8.887271
GENOVA SAN QUIRICO,S04213,N/A,N/A,N/A,N/A,N/A
GENOVA SESTRI PONENTE,S04537,Liguria,2,A,44.422374,8.847707
GENOVA STURLA,S04703,Liguria,2,A,44.397977,8.981466
GENOVA VESIMA,S04540,Liguria,2,A,44.416176,8.714099
GENOVA VIA DI FRANCIA,S04223,Liguria,2,A,44.411126,8.90192
GENOVA VOLTRI,S04534,Liguria,2,Voltri,44.428467,8.758163
GENOVA VOLTRI MARE,S04541,N/A,N/A,N/A,N/A,N/A
GERENZANO - TURATE,N00014,N/A,N/A,N/A,N/A,N/A
GERMAGNANO,S00096,N/A,N/A,N/A,N/A,N/A
GHEDI,S01841,Lombardia,1,A,45.409439,10.280506
GHEMME,S00110,Piemonte,3,A,45.595882,8.417135
GHISLARENGO,S00974,Piemonte,3,A,45.526006,8.379453
GHIVIZZANO - COREGLIA,S06306,Toscana,13,A,44.027583,10.510183
GIACHERY,S12138,Sicilia,14,A,38.138135,13.355856
GIAMPILIERI,S12308,Sicilia,14,A,38.080121,15.493863
GIAROLE,S00316,Piemonte,3,A,45.056125,8.5609
GIARRE RIPOSTO,S12324,Sicilia,14,A,37.730346,15.193386
GIAVE,S12866,Sardegna,20,A,40.455875,8.729388
GINOSA,S11462,Puglia,16,A,40.429201,16.890968
GIOIA DEL COLLE,S11505,Puglia,16,Gioia del Colle,40.796983,16.916569
GIOIA TAURO,S11766,Calabria,17,A,38.423436,15.897516
GIOIOSA JONICA,S11848,Calabria,17,A,38.300812,16.332501
GIOJOSA MAREA,S12033,Sicilia,14,A,38.175149,14.894794
GIOVI,S06084,N/A,N/A,N/A,N/A,N/A
GIOVINAZZO,S11115,Puglia,16,A,41.180968,16.669346
GIUBIASCO,S00850,N/A,N/A,N/A,N/A,N/A
GIUGLIANO QUALIANO,S09100,Campania,18,A,40.935018,14.10378
GIULIANOVA,S07802,Abruzzo,19,Giulianova,42.751673,13.965743
GIUNCANO,S07225,Umbria,6,A,42.647802,12.637694
GIUNCARICO,S06037,Toscana,13,A,42.915473,11.008362
GIZZERIA LIDO,S11748,Calabria,17,A,38.933446,16.212563
GLORIE,S05809,Emilia Romagna,8,A,44.483341,12.075736
GODO,S05904,Emilia Romagna,8,A,44.389322,12.071256
GOLE DI ALCANTARA,S12366,Sicilia,14,A,37.878403,15.176039
GOLFO ARANCI,S12852,Sardegna,20,Golfo Aranci,40.997261,9.62471
GONZAGA-REGGIOLO,S02344,Lombardia,1,Gonzaga,44.939239,10.815533
GOPPESTEIN,S07474,N/A,N/A,N/A,N/A,N/A
GORGO AL MONTICANO,S02766,Veneto,12,A,45.784444,12.553737
GORIANO SICOLI,S08535,Abruzzo,19,A,42.082698,13.78286
GORIZIA CENTRALE,S03304,Friuli-Venezia Giulia,10,Gorizia,45.933047,13.60684
GOZZANO,S00015,Piemonte,3,A,45.741039,8.438726
GRAGNANO,S09758,Campania,18,Gragnano,40.688964,14.520445
GRAGNOLA,S06224,Toscana,13,A,44.191069,10.109245
GRAMMICHELE,S12272,Sicilia,14,A,37.209336,14.641256
GRANAIOLO,S06801,Toscana,13,A,43.652244,10.945223
GRANAROLO,S05955,Emilia Romagna,8,Granarolo,44.357356,11.937441
GRANDATE - BRECCIA,N00041,N/A,N/A,N/A,N/A,N/A
GRANITI,S12359,Sicilia,14,A,37.869467,15.208633
GRASSANO,S11456,Basilicata,15,A,40.593317,16.241049
GRAVELLONA TOCE,S00007,Piemonte,3,A,45.934051,8.428346
GRAVINA IN PUGLIA,S11306,Puglia,16,A,40.825216,16.418926
GRECCIO,S07403,Lazio,5,A,42.462872,12.777009
GRICIGNANO,S09300,Campania,18,Gricignano,40.998742,14.241657
GRIGNANO,S03315,Friuli-Venezia Giulia,10,A,45.713308,13.710255
GRIGNASCO,S00106,Piemonte,3,A,45.683288,8.332913
GRIGNO,S02317,N/A,9,A,46.015059,11.624984
GRISIGNANO DI ZOCCO,S02579,Veneto,12,A,45.48638,11.710762
GRISOLIA S.MARIA,S11729,Calabria,17,A,39.739731,15.821072
GRIZZANA,S05133,Emilia Romagna,8,A,44.258292,11.181194
GROANE,S01927,N/A,N/A,N/A,N/A,N/A
GROPELLO CAIROLI,S00277,Lombardia,1,A,45.173101,8.991626
GROSSETO,S06039,Toscana,13,Grosseto,42.76728,11.1065
GROTTAGLIE,S11602,Puglia,16,A,40.528989,17.424503
GROTTAMMARE,S07512,Marche,11,A,42.99381,13.870265
GROTTE,S12372,Sicilia,14,A,37.409848,13.702717
GROTTE S.STEFANO,S08301,Lazio,5,A,42.51512,12.169372
GRUMELLO DEL MONTE,S01537,Lombardia,1,A,45.634102,9.862767
GRUMO APPULA,S11502,Puglia,16,A,41.01199,16.718777
GUALDO TADINO,S07211,Umbria,6,A,43.233475,12.7672
GUARDAVALLE,S11843,Calabria,17,A,38.480266,16.578923
GUARDIA MANGANO SANTA VENERINA,S12327,Sicilia,14,A,37.661812,15.169447
GUARDIA PIEMONTESE TERME,S11737,Calabria,17,A,39.464259,15.979237
GUARDIAREGIA,S09456,Molise,7,A,41.457455,14.553753
GUIDONIA-MONTECELLO-S.ANGELO,S08506,Lazio,5,Guidonia,41.993405,12.725681
GYEKENYES,S00125,N/A,N/A,N/A,N/A,N/A
HONE BARD,S00147,Valle d'Aosta,4,A,45.613918,7.741345
HORB,S29399,N/A,N/A,N/A,N/A,N/A
IGEA MARINA,S05818,Emilia Romagna,8,A,44.131972,12.481636
IGLESIAS,S12950,Sardegna,20,Iglesias,39.310563,8.539786
IL CIONFO,S06958,N/A,N/A,N/A,N/A,N/A
IL CIONFO BIN. LE CURE,S06957,Toscana,13,A,43.786182,11.268501
IL CIONFO BIN. SALVIATI,S06951,Toscana,13,A,43.798687,11.273076
IL NETO,S06424,Toscana,13,A,43.839624,11.182656
IMOLA,S05054,Emilia Romagna,8,A,44.359418,11.718723
IMPERIA ONEGLIA,S04510,Liguria,2,Imperia,43.892321,8.039145
IMPERIA PORTO MAURIZIO,S04509,N/A,N/A,N/A,N/A,N/A
INCISA,S06907,Toscana,13,A,43.656541,11.452728
INCISA SCAPACCINO,S00835,Piemonte,3,A,44.80052,8.388468
INCORONATA,S11101,Puglia,16,A,41.408174,15.650728
INDICATORE,S06914,Toscana,13,A,43.480067,11.803468
INDUNO OLONA,S01204,Lombardia,1,A,45.846432,8.838357
INVERIGO,S01093,N/A,N/A,N/A,N/A,N/A
IPOGEO DEGLI OTTAVI,S08330,Lazio,5,A,41.968391,12.409026
ISELLE DI TRASQUERA,S01952,N/A,N/A,N/A,N/A,N/A
ISEO,N00210,N/A,N/A,N/A,N/A,N/A
ISERNIA,S09053,Molise,7,Isernia,41.596946,14.235421
ISOLA CAPO RIZZUTO,S11825,Calabria,17,A,39.043084,17.071764
ISOLA DEL CANTONE,S04210,Liguria,2,A,44.646589,8.957578
ISOLA DELLA SCALA,S05307,Veneto,12,Isola della Scala,45.269474,11.013312
ISOLA DELLE FEMMINE,S12129,Sicilia,14,A,38.194784,13.250188
ISOLA D`ASTI,S00347,Piemonte,3,A,44.830605,8.175113
ISOLA LIRI,S08858,Lazio,5,A,41.681712,13.581088
ISOLETTA-S.GIOVANNI I.,S08665,Lazio,5,A,41.527873,13.547095
ISPICA,S12421,Sicilia,14,A,36.77804,14.914315
ISPRA,S01121,Lombardia,1,A,45.811573,8.621338
ISTRANA,S02539,Veneto,12,A,45.676539,12.102781
ITRI,S08607,Lazio,5,A,41.271328,13.545549
IVREA,S00154,Piemonte,3,Ivrea,45.461542,7.876348
JENBACH,S01176,N/A,N/A,N/A,N/A,N/A
JESI,S07202,Marche,11,Jesi,43.520164,13.251316
JOPPOLO,S11763,Calabria,17,A,38.580318,15.897025
KANDERSTEG,S07475,N/A,N/A,N/A,N/A,N/A
KARLSRUHE HBF,S01800,N/A,N/A,N/A,N/A,N/A
KNITTEFELD,S03612,N/A,N/A,N/A,N/A,N/A
KOELN HBF,S02100,N/A,N/A,N/A,N/A,N/A
KRIZEVCI,S73107,N/A,N/A,N/A,N/A,N/A
LA BRIGUE,S00634,N/A,N/A,N/A,N/A,N/A
LA FIORA,S08808,Lazio,5,A,41.331487,13.200365
LA GIUSTINIANA,S08321,Lazio,5,A,41.985243,12.403457
LA RUSTICA UIR,S08514,N/A,N/A,N/A,N/A,N/A
LA SALLE,S00132,Valle d'Aosta,4,A,45.744637,7.061987
LA SPEZIA CENTRALE,S06000,Liguria,2,La Spezia,44.11141,9.813906
LA SPEZIA MIGLIARINA,S06004,Liguria,2,A,44.123391,9.84028
LA STORTA,S08320,Lazio,5,A,42.001748,12.381254
LABICO,S08654,N/A,N/A,N/A,N/A,N/A
LABRO MOGGIO,S07427,Lazio,5,A,42.506131,12.746224
LACES,S02207,N/A,9,A,46.619692,10.85863
LADISPOLI-CERVETERI,S08021,Lazio,5,A,41.953502,12.081675
LAGONEGRO,S09911,Basilicata,15,A,40.120325,15.7627
LAIGUEGLIA,S04514,Liguria,2,A,43.981283,8.158685
LAIVES ,S02029,N/A,9,A,46.43409,11.323533
LAMA,S05418,Veneto,12,A,45.043466,11.913123
LAMA DI RENO,S05121,Emilia Romagna,8,A,44.363501,11.216168
LAMBRINIA,S01869,Lombardia,1,A,45.164376,9.527436
LAMBRUGO - LURAGO D'ERBA,S01094,N/A,N/A,N/A,N/A,N/A
LAMEZIA TERME CENTRALE,S11749,Calabria,17,Lamezia Terme,38.921347,16.255577
LAMEZIA TERME NICASTRO,S11951,Calabria,17,A,38.966779,16.320043
LAMEZIA TERME SAMBIASE,S11950,Calabria,17,A,38.959927,16.284962
LANA-POSTAL ,S02219,N/A,9,A,46.608079,11.182252
LANCENIGO,S02710,Veneto,12,A,45.710087,12.265663
LANCETTI,N00092,N/A,N/A,N/A,N/A,N/A
LANCIANO,S07986,N/A,N/A,N/A,N/A,N/A
LANUVIO,S08733,Lazio,5,A,41.672211,12.690885
LANZARA FIMIANI,S09707,Campania,18,A,40.769685,14.68115
LANZO,S00095,N/A,N/A,N/A,N/A,N/A
LAPIO,S09604,N/A,N/A,N/A,N/A,N/A
LARINO,S09466,Molise,7,A,41.80015,14.918226
LASA,S02204,N/A,9,A,46.618617,10.694828
LASCARI,S12018,Sicilia,14,A,38.011672,13.928633
LATERINA,S06912,Toscana,13,A,43.496458,11.660573
LATIANO,S11606,Puglia,16,A,40.558074,17.717629
LATINA,S08608,Lazio,5,Latina,41.538372,12.945888
LATISANA LIGNANO B.,S03202,Friuli-Venezia Giulia,10,Latisana Lignano B.,45.777733,13.001101
LAURIANO,S00421,Piemonte,3,A,45.160761,7.998531
LAVAGNA,S04723,Liguria,2,A,44.305677,9.346371
LAVENO MOMBELLO,S01118,Lombardia,1,Laveno Mombello,45.903272,8.624583
LAVEZZOLA,S05806,Emilia Romagna,8,Lavezzola,44.559591,11.880154
LAVINO,S05041,Emilia Romagna,8,A,44.538306,11.232799
LAVIS,S02037,N/A,9,A,46.148306,11.095993
LAVORATE,S09708,Campania,18,A,40.78733,14.649875
LE CAVE,S02009,N/A,N/A,N/A,N/A,N/A
LE PIAGGE,S06516,Toscana,13,A,43.789684,11.171665
LECCE,S11145,Puglia,16,Lecce,40.34566,18.165724
LECCO,S01520,Lombardia,1,Lecco,45.856471,9.393638
LECCO MAGGIANICO,S01522,Lombardia,1,A,45.831179,9.411691
LEGGIUNO MONVALLE,S01120,Lombardia,1,A,45.867349,8.629476
LEGNAGO,S02366,Veneto,12,Legnago,45.189034,11.304724
LEGNANO,S01033,Lombardia,1,A,45.593653,8.910638
LENDINARA,S02373,Veneto,12,A,45.081816,11.591667
LENTINI,S12341,Sicilia,14,Lentini,37.300916,14.99758
LENTINI DIRAMAZIONE,S12340,Sicilia,14,A,37.340009,14.98141
LEONESSA,S11219,Basilicata,15,A,41.062304,15.595094
LEONFORTE-PIRATO,S12239,Sicilia,14,A,37.606305,14.376063
LERCARA BASSA,S12205,Sicilia,14,A,37.737639,13.633053
LERINO,S02578,Veneto,12,A,45.518725,11.63567
LESA,S01018,Piemonte,3,A,45.833042,8.566471
LESEGNO,S00954,Piemonte,3,A,44.385891,7.94266
LESMO,S01501,Lombardia,1,A,45.644745,9.309318
LETOJANNI,S12316,Sicilia,14,A,37.877581,15.303128
LEVADA,S02568,Veneto,12,A,45.850158,12.006657
LEVANTO,S04731,Liguria,2,A,44.174167,9.616018
LEVATA,S02019,N/A,N/A,N/A,N/A,N/A
LEVICO,S02309,N/A,9,A,46.005729,11.30493
LEZZA - CARPESINO,N00075,N/A,N/A,N/A,N/A,N/A
LICATA,S12400,Sicilia,14,Licata,37.106024,13.938114
LIDO DI CLASSE-LIDO DI SAVIO,S05813,Emilia Romagna,8,A,44.314546,12.292722
LIDO DI LAVINIO,S08708,Lazio,5,A,41.500599,12.625926
LIDO DI TURBIGO,N00052,N/A,N/A,N/A,N/A,N/A
LIERNA,S01413,Lombardia,1,A,45.960973,9.303071
LIMONE,S00617,Piemonte,3,A,44.203799,7.577912
LIONI,S09616,Campania,18,A,40.874869,15.186324
LIONI VALLE DELLE VITI,S09628,Campania,18,A,40.887025,15.215936
LISIDE,S11124,N/A,N/A,N/A,N/A,N/A
LISIERA,S02530,Veneto,12,A,45.578581,11.610695
LISON,S02663,Veneto,12,A,45.751947,12.759416
LISSONE-MUGGIO`,S01321,Lombardia,1,A,45.60592,9.235368
LIVORNO CENTRALE,S06725,Toscana,13,Livorno,43.55406,10.336593
LIVORNO FERRARIS,S00237,Piemonte,3,A,45.283402,8.073493
LOANO,S04519,Liguria,2,A,44.122429,8.254523
LOCATE TRIULZI,S01801,Lombardia,1,A,45.35973,9.221398
LOCATE V. - CARBONATE,N00017,N/A,N/A,N/A,N/A,N/A
LOCRI,S11851,Calabria,17,A,38.233154,16.264787
LODI,S01825,Lombardia,1,Lodi,45.308966,9.497585
LOMAZZO,N00036,N/A,N/A,N/A,N/A,N/A
LOMELLO,S00405,Lombardia,1,A,45.117276,8.799121
LONATO,S02083,Lombardia,1,A,45.457204,10.486714
LONGARONE ZOLDO,S02556,Veneto,12,A,46.267466,12.301953
LONGOBARDI,S11742,Calabria,17,A,39.211493,16.061261
LONIGO,S02441,Veneto,12,A,45.413269,11.345016
LOREO,S05423,Veneto,12,A,45.059476,12.191569
LORETO,S07503,Marche,11,A,43.448376,13.620455
LUCCA,S06404,Toscana,13,Lucca,43.837186,10.506069
LUCIGNANO - MARCIANO - POZZO,S06069,N/A,N/A,N/A,N/A,N/A
LUGO,S05951,Emilia Romagna,8,Lugo,44.414106,11.914723
LUINO,S01113,Lombardia,1,Luino,45.996643,8.737464
LUMIGNACCO,S03125,Friuli-Venezia Giulia,10,A,45.999177,13.250841
LUNGAVILLA,S01806,Lombardia,1,A,45.049837,9.068968
LUNGHEZZA,S08503,Lazio,5,A,41.923253,12.667212
LUNI,S06003,N/A,N/A,N/A,N/A,N/A
LUOGOSANO,S09606,Campania,18,A,40.980381,14.994305
LUSERNA S. GIOVANNI,S00523,Piemonte,3,A,44.815842,7.246902
LYON ST EXUPERY,S76290,N/A,N/A,N/A,N/A,N/A
L`AQUILA,S07414,Abruzzo,19,L`Aquila,42.351055,13.384959
MACCAGNO,S13653,N/A,N/A,N/A,N/A,N/A
MACCARESE,S08020,Lazio,5,Maccarese,41.879372,12.23695
MACERATA,S07307,Marche,11,Macerata,43.293094,13.455172
MACERATA FONTESCODELLA,S07313,Marche,11,A,43.291569,13.44048
MACHERIO SOVICO,S01500,Lombardia,1,A,45.642485,9.266895
MACHERIO-CANONICA,S01484,Lombardia,1,A,45.645533,9.286736
MACOMER,S12869,Sardegna,20,A,40.267899,8.772279
MADDALENE,S00607,Piemonte,3,A,44.518734,7.648022
MADDALONI INFERIORE,S09212,Campania,18,A,41.035954,14.380504
MADDALONI SUPERIORE,S09303,Campania,18,A,41.048567,14.396055
MADIGNANO,S01610,Lombardia,1,A,45.34383,9.730179
MADONNA DEL PIANO,S08108,Lazio,5,A,42.259963,12.166357
MADONNA DEL PILONE,S00820,Piemonte,3,A,44.695347,7.747639
MADONNA DELLA SCALA,S00501,Piemonte,3,A,44.993686,7.780994
MADONNA DELLE GRAZIE,S09773,N/A,N/A,N/A,N/A,N/A
MADONNA DI CAMPAGNA,S00083,N/A,N/A,N/A,N/A,N/A
MADONNA DI CASTRO,S12853,Sardegna,20,A,40.672018,9.046014
MAERNE DI MARTELLAGO,S02512,Veneto,12,A,45.514799,12.150629
MAGENTA,S01040,Lombardia,1,A,45.468204,8.880633
MAGIONE,S07002,Umbria,6,A,43.137356,12.202238
MAGLIANA,S08404,Lazio,5,A,41.834235,12.431017
MAGLIANO CRAVA MOROZZO,S00951,Piemonte,3,A,44.445259,7.777852
MAGNA GRECIA,S11042,N/A,N/A,N/A,N/A,N/A
MAGNACAVALLO,S05159,N/A,N/A,N/A,N/A,N/A
MAGRE`- CORTACCIA,S02033,N/A,9,A,46.287976,11.232646
MAJANO,S03051,Friuli-Venezia Giulia,10,A,46.219372,13.066308
MALEO,S01910,Lombardia,1,A,45.170118,9.755201
MALLES VENOSTA,S02200,N/A,9,A,46.684542,10.546445
MALNATE,N00023,N/A,N/A,N/A,N/A,N/A
MALONNO,N00233,N/A,N/A,N/A,N/A,N/A
MALPENSA,S01139,N/A,N/A,N/A,N/A,N/A
MALTIGNANO DEL TRONTO,S07555,Marche,11,A,42.844918,13.664738
MANAROLA,S04735,Liguria,2,A,44.109904,9.727401
MANDATORICCIO CAMPANA,S11817,Calabria,17,A,39.525442,16.893125
MANDELA-SAMBUCI,S08512,Lazio,5,A,42.016212,12.921976
MANDELLO DEL LARIO,S01415,Lombardia,1,A,45.915208,9.322061
MANDOLOSSA,N00203,N/A,N/A,N/A,N/A,N/A
MANDRAS,S12898,N/A,N/A,N/A,N/A,N/A
MANERBIO,S01902,Lombardia,1,A,45.357212,10.132348
MANFREDONIA,S11054,Puglia,16,A,41.623046,15.908142
MANIAGO,S03084,Friuli-Venezia Giulia,10,A,46.170057,12.714527
MANOPPELLO,S07710,Abruzzo,19,A,42.305848,14.061057
MANTA,S00700,Piemonte,3,A,44.620887,7.494166
MANTOVA,S02336,Lombardia,1,Mantova,45.158746,10.783165
MANTOVA FRASSINE,S02380,Lombardia,1,A,45.150491,10.831007
MANZANO,S03030,Friuli-Venezia Giulia,10,A,45.98811,13.375016
MANZIANA-CANALE MONTERANO,S08314,Lazio,5,A,42.128246,12.134934
MARANO,S02142,Veneto,12,A,45.706864,11.4246
MARANO TICINO,S00983,Piemonte,3,A,45.629485,8.626172
MARATEA,S11723,Basilicata,15,Maratea,39.995028,15.70975
MARAUSA,S12104,Sicilia,14,A,37.92647,12.504113
MARCARIA,S01921,Lombardia,1,A,45.124518,10.533651
MARCELLINA VERBICARO ORSOMARSO,S11728,Calabria,17,A,39.766974,15.822665
MARCELLINA-PALOMBARA,S08507,Lazio,5,A,41.999609,12.79134
MARCELLINARA,S11953,Calabria,17,A,38.923103,16.466939
MARCIANISE,S09301,Campania,18,A,41.03596,14.287658
MARCONI,S11121,N/A,N/A,N/A,N/A,N/A
MARCONIA,S11800,Basilicata,15,A,40.316896,16.752317
MARECHIARO,S08716,Lazio,5,A,41.470762,12.6123
MARGARITA,S00902,Piemonte,3,A,44.380082,7.685738
MARGHERITA DI SAV./OFANTINO,S11107,Puglia,16,A,41.343,16.136024
MARIANO COMENSE,S01089,Lombardia,1,Mariano C.,45.693622,9.18147
MARIANOPOLI,S12234,Sicilia,14,A,37.623011,13.898901
MARIGLIANO,S09750,Campania,18,A,40.923733,14.460435
MARINA DI CERVETERI,S08022,Lazio,5,A,41.979133,12.047924
MARINA DI MARATEA,S11724,Basilicata,15,A,39.959512,15.735953
MARINA DI SAN LORENZO,S11862,Calabria,17,A,37.919844,15.826365
MARINELLA,S12854,Sardegna,20,A,40.999129,9.55362
MARINO,S08701,Lazio,5,A,41.768961,12.655994
MARINO DEL TRONTO FOLIGNANO,S07556,Marche,11,A,42.844346,13.632995
MARLENGO,S02214,N/A,9,A,46.664558,11.138577
MARMORE,S07401,Umbria,6,Marmore,42.547499,12.715224
MARONE - ZONE,N00214,N/A,N/A,N/A,N/A,N/A
MAROTTA MONDOLFO,S07107,Marche,11,A,43.769748,13.137273
MARRADI,S06610,Toscana,13,Marradi,44.07973,11.619174
MARRUBIU TERRALBA ARBOREA,S12879,Sardegna,20,A,39.75293,8.641144
MARSALA,S12107,Sicilia,14,Marsala,37.793514,12.443174
MARZABOTTO,S05105,Emilia Romagna,8,A,44.341237,11.207351
MARZAMEMI,S12444,Sicilia,14,A,36.7309,15.111238
MARZOCCA,S07109,Marche,11,A,43.677362,13.287922
MASCALI,S12323,Sicilia,14,A,37.765403,15.1942
MASCHIO,S04811,Liguria,2,A,44.326605,8.436686
MASI TORELLO,S05171,N/A,N/A,N/A,N/A,N/A
MASSA CENTRO,S06009,Toscana,13,Massa Centro,44.023741,10.136041
MASSAFISCAGLIA,S05179,N/A,N/A,N/A,N/A,N/A
MASSAFRA,S11510,Puglia,16,A,40.582968,17.107899
MASSALOMBARDA,S05952,Emilia Romagna,8,A,44.448948,11.828068
MASSAROSA BOZZANO,S06350,Toscana,13,A,43.855652,10.352022
MATELICA,S07301,Marche,11,A,43.25394,13.01509
MATHI,S00093,N/A,N/A,N/A,N/A,N/A
MATREI,S02263,N/A,N/A,N/A,N/A,N/A
MATRICE MONTAGANO,S09461,Molise,7,A,41.621321,14.699561
MATTARELLO,S02040,N/A,N/A,N/A,N/A,N/A
MAZARA DEL VALLO,S12110,Sicilia,14,Mazara del Vallo,37.652448,12.594565
MEDA,S01087,N/A,N/A,N/A,N/A,N/A
MEDE,S00406,Lombardia,1,A,45.095009,8.742594
MEDESANO,S06102,Emilia Romagna,8,A,44.749265,10.140335
MEDUNO,S03082,Friuli-Venezia Giulia,10,A,46.200678,12.80282
MEINA,S01019,Piemonte,3,A,45.794389,8.535452
MELANO MARISCHIO,S07065,Marche,11,A,43.345046,12.858866
MELE,S04106,Liguria,2,A,44.472797,8.733953
MELEGNANO,S01822,Lombardia,1,A,45.356321,9.319271
MELFI,S11206,Basilicata,15,Melfi,40.989871,15.646895
MELITO DI PORTO SALVO,S11863,Calabria,17,Melito P.S.,37.916732,15.780816
MELZO,S01705,Lombardia,1,A,45.502191,9.420653
MELZO SCALO,S02215,N/A,N/A,N/A,N/A,N/A
MEMMENANO,S06075,N/A,N/A,N/A,N/A,N/A
MENTON,S75648,N/A,N/A,N/A,N/A,N/A
MEOLO,S02668,Veneto,12,A,45.61319,12.453969
MERANA,S00875,Piemonte,3,A,44.519368,8.298327
MERANO,S02216,Trentino Alto Adige,22,Merano,46.673066,11.148978
MERANO MAIA BASSA,S02217,N/A,9,A,46.656202,11.147931
MERCATELLO,S09837,Campania,18,A,40.606491,15.38979
MERCATO SAN SEVERINO,S09706,Campania,18,Mercato S.Sever.,40.783095,14.759749
MERCENASCO,S00156,Piemonte,3,A,45.353436,7.886405
MERGOZZO,S01012,Piemonte,3,A,45.961303,8.440881
MERONE,S01454,Lombardia,1,A,45.781374,9.243772
MESAGNE,S11607,Puglia,16,A,40.563203,17.802082
MESSINA CENTRALE,S12301,Sicilia,14,Messina,38.184975,15.561278
MESSINA MARITTIMA,S12300,Sicilia,14,Messina Maritt.,38.14988,15.534997
MESTRINO,S02580,Veneto,12,A,45.457878,11.773859
METAPONTO,S11461,Basilicata,15,Metaponto,40.368496,16.815176
MEZZANI RONDANI,S01851,Emilia Romagna,8,A,44.966764,10.398818
MEZZANO,S05810,Emilia Romagna,8,A,44.463,12.098501
MEZZOCORONA,S02035,N/A,9,A,46.207258,11.128595
MI P.GAR.SOTT.,S01647,Lombardia,1,A,45.484228,9.185122
MI.P.GENOVA,S01631,Lombardia,1,A,45.453379,9.169303
MIGLIARINO,S05176,N/A,N/A,N/A,N/A,N/A
MIGLIARO,S05178,N/A,N/A,N/A,N/A,N/A
MIGNANEGO,S04212,Liguria,2,A,44.539031,8.929951
MIGNANO DI MONTE LUNGO,S09201,Campania,18,A,41.407585,13.986672
MILANO AFFORI,S01078,N/A,N/A,N/A,N/A,N/A
MILANO BOVISA FNM,S01642,Lombardia,1,A,45.502993,9.159235
MILANO BRUZZANO,S01079,N/A,N/A,N/A,N/A,N/A
MILANO CENTRALE,S01700,Lombardia,1,Milano,45.486347,9.204528
MILANO CERTOSA,S01640,Lombardia,1,A,45.507019,9.133863
MILANO DATEO,S01650,Lombardia,1,A,45.462341,9.209277
MILANO FARINI,S01644,N/A,N/A,N/A,N/A,N/A
MILANO GRECO PIRELLI,S01326,Lombardia,1,A,45.51272,9.214456
MILANO LAMBRATE,S01701,Lombardia,1,A,45.484933,9.237333
MILANO LANCETTI,S01643,Lombardia,1,A,45.492632,9.175832
MILANO NORD CADORNA,S01066,N/A,N/A,N/A,N/A,N/A
MILANO NORD DOMODOSSOLA,S01067,N/A,N/A,N/A,N/A,N/A
MILANO NORD QUARTO OGGIARO ,S01069,N/A,N/A,N/A,N/A,N/A
MILANO PORTA GARIBALDI,S01645,Lombardia,1,A,45.484917,9.187683
MILANO PORTA ROMANA,S01632,Lombardia,1,A,45.445844,9.213128
MILANO PORTA VITTORIA,S01633,Lombardia,1,A,45.459579,9.21813
MILANO REPUBBLICA,S01648,N/A,N/A,N/A,N/A,N/A
MILANO ROGOREDO,S01820,Lombardia,1,MI Rogoredo,45.433866,9.2391
MILANO ROMOLO,S01032,Lombardia,1,A,45.445008,9.168933
MILANO S. CRISTOFORO,S01630,Lombardia,1,A,45.442404,9.130258
MILANO VENEZIA,S01649,Lombardia,1,A,45.471121,9.201889
MILANO VILLAPIZZONE,S01639,N/A,N/A,N/A,N/A,N/A
MILAZZO,S12042,Sicilia,14,A,38.21195,15.244203
MILETO,S11790,Calabria,17,A,38.577082,16.060041
MILITELLO,S12276,Sicilia,14,A,37.277194,14.78317
MIMMOLE,S06954,Toscana,13,A,43.858111,11.265292
MINEO,S12275,Sicilia,14,A,37.24572,14.756907
MINERVINO MURGE,S11403,Puglia,16,A,41.081788,16.074974
MINTURNO,S09150,Lazio,5,A,41.257621,13.720664
MINUCCIANO - PIEVE - CASOLA,S06227,Toscana,13,A,44.194385,10.193837
MIRA MIRANO,S02588,Veneto,12,A,45.462943,12.118789
MIRADOLO TERME,S01867,Lombardia,1,A,45.162007,9.449952
MIRAMARE,S03311,N/A,N/A,N/A,N/A,N/A
MIRANDOLA,S05311,Emilia Romagna,8,A,44.891638,11.111689
MIRTO CROSIA,S11814,Calabria,17,A,39.604876,16.777366
MISANO ADRIATICO,S07119,Emilia Romagna,8,A,43.977493,12.697121
MODANE,S00201,N/A,N/A,N/A,N/A,N/A
MODANE FX,S00190,N/A,N/A,N/A,N/A,N/A
MODENA,S05032,Emilia Romagna,8,Modena,44.654461,10.930373
MODICA,S12417,Sicilia,14,Modica,36.8529,14.754255
MODUGNO,S11500,N/A,N/A,N/A,N/A,N/A
MODUGNO CITTA`,S11515,Puglia,16,A,41.086437,16.779596
MOGLIANO VENETO,S02717,Veneto,12,A,45.561964,12.23274
MOIANA,S01456,Lombardia,1,A,45.787082,9.255607
MOIMACCO,S03058,N/A,N/A,N/A,N/A,N/A
MOJO-ALCANTARA MALVAGNA,S12363,Sicilia,14,A,37.896949,15.050228
MOLA DI BARI,S11127,Puglia,16,A,41.057227,17.080919
MOLARE,S04102,Piemonte,3,A,44.621975,8.609904
MOLFETTA,S11114,Puglia,16,A,41.196008,16.596793
MOLINA CASTEL VECCHIO SUBAQUEO,S07424,Abruzzo,19,A,42.143476,13.739644
MOLINO DEL PALLONE,S05112,Emilia Romagna,8,A,44.100128,10.961252
MOLTENO,S01458,Lombardia,1,Molteno,45.780939,9.301683
MOMBALDONE ROCCAVERANO,S00873,Piemonte,3,A,44.569891,8.332781
MOMBARUZZO,S00808,Piemonte,3,A,44.76235,8.441006
MOMO,S00019,Piemonte,3,A,45.574646,8.55689
MONASTERACE STILO,S11844,Calabria,17,A,38.437591,16.574444
MONASTERO PRATAVECCHI,S00721,Piemonte,3,A,44.484517,7.44679
MONCALIERI,S00453,Piemonte,3,A,44.998187,7.678027
MONCALIERI SANGONE,S00510,Piemonte,3,A,45.000393,7.667991
MONCALVO,S00340,Piemonte,3,A,45.059463,8.261905
MONCHIERO DOGLIANI,S00735,Piemonte,3,A,44.571815,7.917635
MONDOVI`,S00952,Piemonte,3,Mondovi',44.398255,7.816339
MONEGLIA,S04727,Liguria,2,A,44.242449,9.486957
MONFALCONE,S03310,Friuli-Venezia Giulia,10,Monfalcone,45.807683,13.542929
MONGARDINO,S00801,Piemonte,3,A,44.84161,8.207411
MONGRASSANO CERVICATI,S11905,Calabria,17,A,39.538462,16.222511
MONGUELFO VALLE DI CASIES,S02111,N/A,9,A,46.752775,12.107264
MONOPOLI,S11129,Puglia,16,A,40.952017,17.292455
MONSAMPOLO DEL TRONTO,S07553,Marche,11,A,42.881488,13.803569
MONSELICE,S05703,Veneto,12,Monselice,45.246116,11.74789
MONTAGNANA,S02392,Veneto,12,A,45.228238,11.459873
MONTAGUTO PANNI,S09319,Campania,18,A,41.235362,15.235132
MONTALE AGLIANA,S06415,Toscana,13,A,43.912924,11.008309
MONTALLESE,S06856,Toscana,13,Montallese,43.064888,11.90928
MONTALTO DI CASTRO,S08008,Lazio,5,Montalto di Castro,42.334623,11.595085
MONTALTO DORA,S00153,Piemonte,3,A,45.490309,7.858986
MONTALTO ROSE,S11908,Calabria,17,Montalto Rose,39.407213,16.247291
MONTANARO,S00160,Piemonte,3,A,45.232674,7.858331
MONTE AMIATA,S06818,N/A,N/A,N/A,N/A,N/A
MONTE ANTICO,S06820,Toscana,13,Monte Antico,42.981054,11.359819
MONTE ARCAU,S12973,Sardegna,20,A,39.244501,8.543347
MONTE GIORDANO,S11805,Calabria,17,A,40.040812,16.597907
MONTE MELINO,S07014,Umbria,6,A,43.106303,12.249698
MONTE S. SAVINO,S06068,N/A,N/A,N/A,N/A,N/A
MONTE S.BIAGIO,S08605,Lazio,5,A,41.345967,13.347037
MONTEBELLO,S02443,Veneto,12,A,45.45251,11.390803
MONTEBELLUNA,S02570,Veneto,12,Montebelluna,45.776434,12.054
MONTECALVO BUONALBERGO CASALB.,S09315,Campania,18,A,41.2211,14.9795
MONTECARLO SAN SALVATORE,S06408,Toscana,13,A,43.850798,10.68537
MONTECAROTTO CASTELBELLINO,S07203,Marche,11,A,43.500005,13.1481
MONTECATINI CENTRO,S06412,Toscana,13,A,43.881216,10.77081
MONTECATINI TERME,S06411,Toscana,13,A,43.879327,10.780588
MONTECHIARO DENICE,S00872,Piemonte,3,A,44.600827,8.352185
MONTECHIARO D`ASTI,S00428,Piemonte,3,A,44.999849,8.10982
MONTECORVINO,S09822,Campania,18,A,40.617439,14.944628
MONTECOSARO,S07310,Marche,11,A,43.289297,13.646378
MONTEFALCIONE,S09602,Campania,18,A,40.951114,14.886432
MONTEFIASCONE,S08303,Lazio,5,A,42.520268,12.050448
MONTEFREDANE,S09529,Campania,18,A,40.951143,14.827771
MONTEGROSSO,S00803,Piemonte,3,A,44.818465,8.239171
MONTEIASI,S11601,Puglia,16,A,40.523852,17.361457
MONTELLA,S09612,Campania,18,A,40.845175,15.032758
MONTELLO GORLAGO,S01535,Lombardia,1,A,45.67017,9.808488
MONTELUPO CAPRAIA,S06511,Toscana,13,A,43.733357,11.018997
MONTEMAGGIORE,S12203,Sicilia,14,A,37.859037,13.693193
MONTEMARANO,S09610,Campania,18,A,40.900728,15.039506
MONTEMARCIANO,S07110,Marche,11,A,43.651397,13.346478
MONTEMILETTO,S09603,Campania,18,A,40.993606,14.920685
MONTENERO PETACCIATO,S07825,Molise,7,Montenero,42.033286,14.851015
MONTEPAONE - MONTAURO,S11836,Calabria,17,A,38.728548,16.541944
MONTEPESCALI,S06038,Toscana,13,Montepescali,42.869518,11.068743
MONTEPRANDONE,S07554,Marche,11,A,42.894183,13.849996
MONTEPULCIANO,S06855,Toscana,13,A,43.135353,11.856865
MONTEREALE VALCELLINA,S03085,Friuli-Venezia Giulia,10,A,46.148009,12.658923
MONTERODUNI,S09057,Molise,7,A,41.528345,14.156514
MONTERONI D`ARBIA,S06871,Toscana,13,A,43.230036,11.419662
MONTEROSSO,S04732,Liguria,2,A,44.145967,9.649009
MONTEROSSO MARCHE,S07062,Marche,11,A,43.462227,12.818339
MONTEROTONDO,S08215,Lazio,5,A,42.06409,12.595753
MONTESANO BUONABITACOLO,S09909,Campania,18,A,40.286725,15.653794
MONTESANTO,S05801,Emilia Romagna,8,A,44.732964,11.73652
MONTESILVANO,S07808,Abruzzo,19,A,42.515766,14.152567
MONTEU DA PO,S00422,Piemonte,3,A,45.158353,8.022925
MONTEVARCHI TERRANUOVA,S06910,Toscana,13,A,43.525165,11.563983
MONTEVERDE,S09624,Basilicata,15,A,40.967691,15.568502
MONTI TELTI,S12857,Sardegna,20,A,40.829632,9.322814
MONTICCHIO,S09622,Basilicata,15,Monticchio,40.923923,15.539231
MONTICELLI D`ONGINA,S01971,Emilia Romagna,8,A,45.075666,9.949036
MONTICELLO D`ALBA,S00823,Piemonte,3,A,44.703736,7.965002
MONTIGLIO MURISENGO,S00426,Piemonte,3,A,45.067664,8.106913
MONTIRONE,S01840,Lombardia,1,A,45.451352,10.239482
MONTJOVET,S00144,Valle d'Aosta,4,A,45.704586,7.666871
MONTORO FORINO,S09518,Campania,18,A,40.819987,14.757381
MONTORO SUPERIORE,S09517,Campania,18,A,40.831616,14.80217
MONTORSI,S09528,Campania,18,A,41.080487,14.786519
MONTORSOLI,S06601,Toscana,13,A,43.881903,11.265484
MONTREUX,S01235,N/A,N/A,N/A,N/A,N/A
MONZA,S01322,Lombardia,1,Monza,45.577789,9.273253
MONZA SOBBORGHI,S01480,Lombardia,1,A,45.582082,9.284375
MONZONE-M.DEI BANCHI-ISOLANO,S06225,Toscana,13,A,44.165637,10.123827
MONZUNO,S05132,Emilia Romagna,8,A,44.322277,11.262082
MORANO SUL PO,S00177,Piemonte,3,A,45.170793,8.366168
MORBEGNO,S01425,Lombardia,1,A,46.136663,9.568646
MORCONE,S09503,Campania,18,A,41.340445,14.677658
MORENGO BARIANO,S01710,Lombardia,1,A,45.521639,9.703114
MORES ITTIREDDU,S12864,Sardegna,20,A,40.555954,8.875838
MORETTA,S00544,Piemonte,3,A,44.765514,7.530303
MORGEX,S00131,Valle d'Aosta,4,A,45.757055,7.033898
MORI,S02046,N/A,9,A,45.861216,11.002648
MORNAGO CIMBRO,S01144,Lombardia,1,A,45.729742,8.734193
MOROLO,S08660,Lazio,5,A,41.667018,13.194557
MOROSOLO - CASCIAGO,N00026,N/A,N/A,N/A,N/A,N/A
MORRA DE SANCTIS TEORA,S09617,Campania,18,A,40.890563,15.239328
MORREA-CASTRONOVO-RENDINARA,S08813,N/A,N/A,N/A,N/A,N/A
MORROVALLE MONTE S.GIUSTO,S07309,Marche,11,A,43.279189,13.58285
MORTARA,S00034,Lombardia,1,Mortara,45.252171,8.731639
MOSCIANO S. ANGELO,S07904,Abruzzo,19,A,42.710309,13.908563
MOSSA,S03302,Friuli-Venezia Giulia,10,A,45.935114,13.547281
MOTTA CAMASTRA,S12360,Sicilia,14,A,37.890651,15.163764
MOTTA DI LIVENZA,S02767,Veneto,12,A,45.779114,12.607118
MOTTA S. DAMIANO,S01862,Lombardia,1,A,45.178344,9.219866
MOTTA SAN GIOVANNI LAZZARO,S11865,Calabria,17,A,37.976978,15.659977
MOTTEGGIANA,S02339,Lombardia,1,A,45.029685,10.755439
MOZIA-BIRGI,S12105,Sicilia,14,A,37.884956,12.499016
MOZZATE,N00016,N/A,N/A,N/A,N/A,N/A
MOZZECANE,S02332,Veneto,12,A,45.306687,10.823657
MULINETTI,S04713,Liguria,2,A,44.362614,9.129499
MURATELLA,S08400,Lazio,5,A,41.826182,12.412696
MURLO,S06876,Toscana,13,A,43.11398,11.400394
MUSEI,S12953,Sardegna,20,A,39.28837,8.676528
MUSIANO-PIAN DI MACINA,S05139,Emilia Romagna,8,A,44.402423,11.344912
MUSSOTTO,S00824,Piemonte,3,A,44.713227,8.015194
MUZZANA DEL TURGNANO,S03204,Friuli-Venezia Giulia,10,A,45.816817,13.132376
NAGYKANIZSA,S03624,N/A,N/A,N/A,N/A,N/A
NAPOLI CAMPI FLEGREI,S09103,Campania,18,A,40.822462,14.194649
NAPOLI CENTRALE,S09218,Campania,18,Napoli,40.852933,14.272908
NAPOLI GIANTURCO,S09110,Campania,18,A,40.853959,14.288213
NAPOLI MERGELLINA,S09105,Campania,18,A,40.831531,14.218662
NAPOLI MONTESANTO,S09107,Campania,18,A,40.847807,14.244022
NAPOLI PIAZZA GARIBALDI,S09109,Campania,18,A,40.852326,14.275159
NAPOLI PIAZZA LEOPARDI,S09104,Campania,18,A,40.82397,14.199117
NAPOLI S.GIOV.BARRA,S09800,Campania,18,A,40.831269,14.307811
NAPOLI SCALO MERCI,S09010,N/A,N/A,N/A,N/A,N/A
NAPOLI TRACCIA,S09220,N/A,N/A,N/A,N/A,N/A
NARNI AMELIA,S07230,Umbria,6,A,42.53128,12.519592
NARZOLE,S00734,Piemonte,3,A,44.598377,7.881597
NASISI,S11600,Puglia,16,A,40.50791,17.257802
NATURNO,S02211,N/A,9,A,46.645095,11.004303
NAVACCHIO,S06502,Toscana,13,A,43.685941,10.486806
NEIVE,S00827,Piemonte,3,A,44.723048,8.121071
NERA MONTORO,S07229,Umbria,6,Nera Montoro,42.497855,12.476587
NETTUNO,S08710,Lazio,5,Nettuno,41.459558,12.662123
NIARDO - LOSINE,N00227,N/A,N/A,N/A,N/A,N/A
NIBBIA,S00976,Piemonte,3,A,45.481363,8.557993
NICHELINO,S00511,Piemonte,3,A,44.99132,7.642068
NICORVO,S00273,Lombardia,1,A,45.275462,8.6712
NICOTERA,S11764,Calabria,17,A,38.549328,15.933749
NIELLA,S00739,Piemonte,3,A,44.415377,7.926365
NISCEMI,S12392,Sicilia,14,A,37.145,14.403471
NIZZA DI SICILIA,S12311,Sicilia,14,A,37.996937,15.412334
NIZZA MONFERRATO,S00834,Piemonte,3,Nizza,44.772905,8.361146
NOALE SCORZE`,S02510,Veneto,12,A,45.553833,12.074888
NOCERA INFERIORE,S09814,Campania,18,Nocera Inferiore,40.745318,14.635346
NOCERA INFERIORE MERCATO,S09709,Campania,18,A,40.745668,14.649129
NOCERA SUPERIORE,S09815,Campania,18,A,40.742597,14.672398
NOCERA TIRINESE,S11746,Calabria,17,A,39.015913,16.119677
NOCERA UMBRA,S07213,Umbria,6,A,43.100663,12.767207
NOCETO,S06101,Emilia Romagna,8,A,44.809934,10.147258
NOGARA,S05310,Veneto,12,Nogara,45.179937,11.070572
NOLA,S09700,Campania,18,Nola,40.923652,14.525004
NOLA INTERPORTO,S09699,N/A,N/A,N/A,N/A,N/A
NOLE,S00091,N/A,N/A,N/A,N/A,N/A
NONE,S00513,Piemonte,3,A,44.938011,7.540068
NOTARESCO,S07903,Abruzzo,19,A,42.706502,13.876365
NOTO,S12424,Sicilia,14,A,36.88247,15.074523
NOTO BAGNI,S12446,N/A,N/A,N/A,N/A,N/A
NOVA GORICA,S03303,N/A,N/A,N/A,N/A,N/A
NOVA SIRI ROTONDELLA,S11803,Basilicata,15,A,40.130311,16.644044
NOVARA,S00248,Piemonte,3,Novara,45.451376,8.624895
NOVARA FERROVIA NORD MILANO,S00023,N/A,N/A,N/A,N/A,N/A
NOVARA MONTALBANO FURNARI,S12039,Sicilia,14,Novara Mont.Fur.,38.121516,15.130702
NOVARA NORD,N00055,N/A,N/A,N/A,N/A,N/A
NOVATE MILANESE,S01070,N/A,N/A,N/A,N/A,N/A
NOVATE-MEZZOLA,S01403,Lombardia,1,A,46.216595,9.446573
NOVE,S02734,Veneto,12,A,46.050895,12.313312
NOVI LIGURE,S04203,Piemonte,3,Novi Ligure,44.762521,8.787289
NOZZANO,S06351,Toscana,13,A,43.829956,10.40716
NUCETTO,S00920,Piemonte,3,A,44.338871,8.061386
NUOVO SALARIO,S08231,Lazio,5,A,41.956195,12.510317
NUS,S00140,Valle d'Aosta,4,A,45.738786,7.4712
NUSCO,S09614,Campania,18,A,40.872272,15.095642
OCCHIOBELLO,S05710,Veneto,12,Occhiobello,44.899384,11.621197
ODERZO,S02765,Veneto,12,A,45.775304,12.49293
OFFICINE G.R. SALINE JONICHE,S11968,N/A,N/A,N/A,N/A,N/A
OFFIDA CASTEL DI LAMA,S07551,Marche,11,A,42.862074,13.720285
OGGIONO,S01460,Lombardia,1,A,45.788993,9.33748
OLBIA,S12855,Sardegna,20,Olbia,40.924595,9.498293
OLBIA MARITTIMA ISOLA BIANCA,S12901,Sardegna,20,Olbia M.I.B.,40.922597,9.523706
OLCENENGO,S00244,Piemonte,3,A,45.34147,8.310096
OLCIO,S01414,Lombardia,1,A,45.938011,9.313898
OLEGGIO,S00984,Piemonte,3,Oleggio,45.598029,8.632586
OLEVANO,S00036,Lombardia,1,A,45.212119,8.71182
OLGIATA,S08333,Lazio,5,A,42.01538,12.363864
OLGIATE-CALCO-BRIVIO,S01514,Lombardia,1,A,45.729166,9.40377
OLIVERI TINDARI,S12037,Sicilia,14,A,38.128346,15.056573
OLIVETTA SAN MICHELE,S04480,Liguria,2,Olivetta,43.878345,7.535066
OLMENETA,S01905,Lombardia,1,Olmeneta,45.231099,10.03194
OLMI SPERCENIGO,S02760,Veneto,12,A,45.679467,12.338101
OLTEN,S01150,N/A,N/A,N/A,N/A,N/A
OMEGNA,S00010,Piemonte,3,A,45.87179,8.413291
OMEGNA CRUSINALLO,S00008,Piemonte,3,A,45.898138,8.413929
OMIGNANO SALENTO,S11708,Campania,18,A,40.252688,15.134406
ORA,S02031,N/A,9,A,46.36092,11.296781
ORBETELLO,S08004,Toscana,13,Orbetello,42.450615,11.248972
ORCIANO,S06022,Toscana,13,A,43.500263,10.477566
ORDONA,S11202,Puglia,16,A,41.315006,15.620567
ORIA,S11605,Puglia,16,A,40.508167,17.646534
ORICOLA-PERETO,S08518,Abruzzo,19,A,42.067835,13.044214
ORIO LITTA,S01870,Lombardia,1,A,45.166778,9.550592
ORIOLO,S08313,Lazio,5,A,42.166825,12.138499
ORIS,S02203,N/A,9,A,46.626672,10.645989
ORISTANO,S12878,Sardegna,20,Oristano,39.902033,8.603974
ORMEA,S00927,N/A,N/A,N/A,N/A,N/A
ORNAVASSO,S00006,Piemonte,3,A,45.970296,8.415892
ORSA,S12121,Sicilia,14,A,38.190454,13.119126
ORSAGO,S02704,Veneto,12,A,45.928068,12.434259
ORSARA DI PUGLIA,S09320,Puglia,16,Orsara di Puglia,41.241899,15.27766
ORTA MIASINO,S00012,Piemonte,3,A,45.795865,8.421217
ORTANOVA,S11102,Puglia,16,A,41.350441,15.732059
ORTE,S08209,Lazio,5,Orte,42.43728,12.408986
ORTONA,S07815,Abruzzo,19,A,42.354196,14.407698
ORVIETO,S08203,Umbria,6,Orvieto,42.723379,12.127412
OSCHIRI,S12860,Sardegna,20,A,40.713273,9.107749
OSIMO CASTELFIDARDO,S07502,Marche,11,A,43.497033,13.547263
OSNAGO,S01512,Lombardia,1,A,45.678532,9.386995
OSPEDALETTO EUGANEO,S02395,Veneto,12,A,45.221706,11.606553
OSPEDALETTO LODIGIANO,S01871,Lombardia,1,A,45.16933,9.575164
OSPEDALICCHIO,S07012,Umbria,6,A,43.082369,12.506572
OSPITALE DI CADORE,S02554,Veneto,12,A,46.325771,12.318429
OSPITALETTO MANTOVANO,S01922,Lombardia,1,A,45.129748,10.604406
OSPITALETTO TRAVAGLIATO,S01716,Lombardia,1,A,45.546042,10.074363
OSTELLATO,S05175,N/A,N/A,N/A,N/A,N/A
OSTERIA NUOVA,S05302,Emilia Romagna,8,A,44.586613,11.236525
OSTIA PARMENSE,S06160,Emilia Romagna,8,A,44.520136,9.844981
OSTIGLIA,S05304,Lombardia,1,Ostiglia,45.072228,11.141059
OSTUNI,S11132,Puglia,16,A,40.752356,17.580809
OTTAVIA,S08324,N/A,N/A,N/A,N/A,N/A
OTTAVIANO,S09751,Campania,18,A,40.85256,14.493479
OULX CESANA CLAVIERE SESTRIERE,S00204,Piemonte,3,A,45.038789,6.831432
OVADA,S04103,Piemonte,3,Ovada,44.630377,8.632301
OVADA NORD,S04007,Piemonte,3,A,44.646656,8.644633
OVIGLIO,S00840,Piemonte,3,A,44.859537,8.494998
OZIERI CHILIVANI,S12862,Sardegna,20,Ozieri Chilivani,40.609496,8.933744
OZIERI FRAIGAS,S12861,Sardegna,20,A,40.627334,8.986497
OZZANO DELL'EMILIA,S05055,Emilia Romagna,8,A,44.450797,11.487297
OZZANO MONFERRATO,S00337,Piemonte,3,A,45.107581,8.372296
OZZANO TARO,S06152,Emilia Romagna,8,A,44.712268,10.141022
P.C.CANARO,S05709,Veneto,12,A,44.923012,11.675223
P.M. BADESSE,S06826,Toscana,13,A,43.382144,11.277136
P.M. RENO,S05047,N/A,N/A,N/A,N/A,N/A
P.M.TORRICCHIO,S09717,N/A,N/A,N/A,N/A,N/A
P.M.VAT,S03032,Friuli-Venezia Giulia,10,P.M.Vat.,46.092872,13.247412
PABILLONIS,S12881,Sardegna,20,A,39.610878,8.741013
PACE DEL MELA,S12045,Sicilia,14,A,38.202459,15.312676
PACECO,S12103,Sicilia,14,A,37.991354,12.550844
PACHINO,S12445,Sicilia,14,A,36.710144,15.094661
PADERNO,N00205,N/A,N/A,N/A,N/A,N/A
PADERNO DUGNANO,S01082,N/A,N/A,N/A,N/A,N/A
PADERNO ROBBIATE,S01502,Lombardia,1,A,45.678307,9.439202
PADIGLIONE,S08707,Lazio,5,A,41.513518,12.629476
PADOVA,S02581,Veneto,12,Padova,45.417846,11.880794
PADOVA CAMPO MARTE,S02650,N/A,N/A,N/A,N/A,N/A
PADULA,S09908,Campania,18,A,40.335142,15.629921
PADULI,S09313,Campania,18,A,41.146232,14.838878
PAESE,S02540,Veneto,12,A,45.669207,12.161677
PAESE CASTAGNOLE,S02602,Veneto,12,A,45.691182,12.182619
PAESTUM,S11703,Campania,18,A,40.421691,15.014915
PAGANI,S09813,Campania,18,A,40.74654,14.616996
PAGANICA,S07416,Abruzzo,19,A,42.334751,13.464317
PALAGIANELLO,S11508,Puglia,16,A,40.610906,16.975202
PALAGIANO CHIATONA,S11464,Puglia,16,A,40.516998,17.059217
PALAGIANO MOTTOLA,S11509,Puglia,16,A,40.601744,17.065478
PALAGONIA,S12279,Sicilia,14,A,37.318146,14.892565
PALAZZO REALE-ORLEANS,S12130,Sicilia,14,A,38.10878,13.353962
PALAZZO S.GERVASIO - MONTEMIL.,S11303,Basilicata,15,A,40.93929,15.98982
PALAZZOLO,S01083,N/A,N/A,N/A,N/A,N/A
PALAZZOLO DELLO STELLA,S03203,Friuli-Venezia Giulia,10,A,45.803403,13.083957
PALAZZOLO SULL`OGLIO,S01538,Lombardia,1,Palazzolo sull`Oglio,45.601486,9.896235
PALAZZOLO VERCELLESE,S00175,Piemonte,3,A,45.189004,8.232787
PALENA,S08904,Abruzzo,19,A,41.918401,14.105189
PALERMO BRANCACCIO,S12055,Sicilia,14,A,38.093141,13.392508
PALERMO CENTRALE,S12002,Sicilia,14,Palermo,38.109187,13.367515
PALERMO NOTARBARTOLO,S12134,Sicilia,14,A,38.132261,13.341572
PALESTRO,S00271,Lombardia,1,A,45.307274,8.534511
PALIDANO,S02343,Lombardia,1,A,44.972228,10.777412
PALIZZI,S11859,Calabria,17,A,37.91881,15.986405
PALLANZENO,S00002,Piemonte,3,A,46.043533,8.260645
PALLERONE,S06220,Toscana,13,A,44.204232,10.005173
PALMA S.GENNARO,S09701,Campania,18,A,40.864149,14.540472
PALMANOVA,S03122,Friuli-Venezia Giulia,10,A,45.906862,13.296461
PALMI,S11769,Calabria,17,A,38.364914,15.84438
PALO LAZIALE,S08018,Lazio,5,A,41.939327,12.102739
PALOMBINA,S07112,Marche,11,A,43.61701,13.429721
PANICAGLIA,S06605,Toscana,13,A,43.978449,11.407511
PANTANELLA,S08699,N/A,N/A,N/A,N/A,N/A
PANTIERE DI CASTELBELLINO,S07234,Marche,11,A,43.500941,13.183116
PAOLA,S11739,Calabria,17,Paola,39.359442,16.033093
PARABIAGO,S01035,Lombardia,1,A,45.552441,8.946319
PARATICO SARNICO,S01620,Lombardia,1,Paratico S.,45.662478,9.961417
PARCO LEONARDO,S08412,Lazio,5,A,41.79932,12.29543
PARCO PRENESTINO,S08495,N/A,N/A,N/A,N/A,N/A
PARCO PRENESTINO BIN. ESTERNI,S08498,N/A,N/A,N/A,N/A,N/A
PARGHELIA,S11759,Calabria,17,A,38.683341,15.925042
PARMA,S05014,Emilia Romagna,8,Parma,44.810203,10.32837
PARONA LOMELLINA,S01060,Lombardia,1,A,45.280107,8.780315
PARTINICO,S12124,Sicilia,14,A,38.05857,13.108956
PASSIGNANO SUL TRASIMENO,S07001,Umbria,6,A,43.188324,12.133128
PASSIRANO,N00206,N/A,N/A,N/A,N/A,N/A
PASTENA,S09836,N/A,N/A,N/A,N/A,N/A
PATERNOPOLI,S09607,Campania,18,A,40.972903,15.009932
PATTI-SAN PIERO PATTI,S12036,Sicilia,14,A,38.146905,14.975331
PAULILATINO,S12874,Sardegna,20,A,40.077373,8.775812
PAVIA,S01860,Lombardia,1,Pavia,45.188843,9.144674
PAVIA PORTA GARIBALDI,S01861,Lombardia,1,A,45.183996,9.167331
PAVONA,S08731,Lazio,5,A,41.723897,12.61116
PEDASO,S07510,Marche,11,A,43.094694,13.844906
PEDEROBBA CAVASO POSSAGNO,S02567,Veneto,12,A,45.877299,11.965222
PEGOGNAGA,S05154,N/A,N/A,N/A,N/A,N/A
PELLEZZANO,S09521,Campania,18,A,40.719928,14.777354
PENANGO,S00341,Piemonte,3,A,45.032254,8.235138
PERAROLO DI CADORE,S02553,Veneto,12,A,46.386277,12.352493
PERCA,S02060,N/A,N/A,N/A,N/A,N/A
PERCIANTI ARIANELLO,S09627,N/A,N/A,N/A,N/A,N/A
PERGINE,S02305,N/A,9,A,46.062482,11.232637
PERGOLA,S07060,Marche,11,Pergola,43.549653,12.832973
PERI,S02052,Veneto,12,Peri,45.658402,10.900314
PERPIGNAN,S78400,N/A,N/A,N/A,N/A,N/A
PERTENGO,S00311,Piemonte,3,A,45.233305,8.426739
PERTOSA,S09921,N/A,N/A,N/A,N/A,N/A
PERUGIA,S07004,Umbria,6,Perugia,43.103808,12.375567
PERUGIA PONTE S.GIOVANNI,S07005,Umbria,6,A,43.091801,12.438239
PERUGIA SILVESTRINI,S07013,N/A,N/A,N/A,N/A,N/A
PERUGIA UNIVERSITA',S07006,N/A,N/A,N/A,N/A,N/A
PESARO,S07104,Marche,11,Pesaro,43.906014,12.904848
PESCANTINA,S02057,N/A,N/A,N/A,N/A,N/A
PESCARA,S07810,Abruzzo,19,Pescara,42.467789,14.205066
PESCARA PORTA NUOVA,S07811,Abruzzo,19,A,42.458072,14.211663
PESCARA S. MARCO,S07017,Abruzzo,19,A,42.44613,14.208981
PESCHIERA DEL GARDA,S02088,Veneto,12,A,45.438502,10.702509
PESCIA,S06409,Toscana,13,A,43.886811,10.686074
PESCINA,S08532,Abruzzo,19,A,42.037564,13.668981
PESCOCANALE,S08811,Abruzzo,19,A,41.9589,13.391624
PESCOLANCIANO-CHIAUCI,S08915,Molise,7,A,41.678996,14.341588
PESCOSANNITA FRAGNETO L`ABATE,S09507,Campania,18,A,41.236154,14.788527
PESSIONE,S00457,Piemonte,3,A,44.965132,7.841321
PETINA,S09901,Campania,18,A,40.560347,15.389298
PETROSINO STRASATTI,S12109,Sicilia,14,A,37.725466,12.509434
PETTENASCO,S00011,Piemonte,3,A,45.820498,8.406802
PETTORANO SUL GIZIO,S08901,Abruzzo,19,A,41.974557,13.965036
PIACENZA,S05000,Emilia Romagna,8,Piacenza,45.052238,9.70633
PIADENA,S01919,Lombardia,1,Piadena,45.127608,10.369962
PIAN DEL MUGNONE,S06952,Toscana,13,A,43.813899,11.265994
PIAN DI BORNO,N00223,N/A,N/A,N/A,N/A,N/A
PIAN DI VENOLA,S05114,Emilia Romagna,8,A,44.332136,11.188609
PIANA,S00876,Liguria,2,A,44.486383,8.308796
PIANA BELLA MONTELIBRETTI,S08222,Lazio,5,A,42.105159,12.632938
PIANA DEL SIGNORE,S12394,Sicilia,14,A,37.056089,14.304292
PIANA DI M.VERNA,S09026,N/A,N/A,N/A,N/A,N/A
PIANCAMUNO - GRATACASOLO,N00218,N/A,N/A,N/A,N/A,N/A
PIANEROTTOLO DI ARIANO,S09317,Campania,18,A,41.188984,15.145482
PIANFEI,S00903,Piemonte,3,A,44.385228,7.717109
PIANIBBIE,S07990,N/A,N/A,N/A,N/A,N/A
PIANO D`ORTA BOLOGNANO,S07714,Abruzzo,19,A,42.254455,13.951514
PIANO ORIZZONTALE DEI GIOVI,S04216,Liguria,2,A,44.530912,8.9192
PIANORO,S05131,Emilia Romagna,8,A,44.380589,11.340675
PIANZANO,S02705,Veneto,12,A,45.913397,12.388168
PIAZZA AL SERCHIO,S06325,Toscana,13,A,44.182515,10.296615
PIAZZA AMEDEO,S09106,Campania,18,A,40.838506,14.232974
PIAZZA CAVOUR,S09108,Campania,18,A,40.855248,14.255175
PICERNO,S09833,Basilicata,15,A,40.640122,15.641612
PIEDIMONTE MATESE,S09999,N/A,N/A,N/A,N/A,N/A
PIEDIMONTE-V.S.L.-AQUINO,S08680,N/A,N/A,N/A,N/A,N/A
PIEDIMULERA,S00003,Piemonte,3,A,46.024348,8.261237
PIETRA LIGURE,S04520,Liguria,2,A,44.145345,8.277403
PIETRABISSARA,S04209,Liguria,2,A,44.658637,8.926969
PIETRAGALLA,S11213,Basilicata,15,A,40.753314,15.79211
PIETRAPAOLA,S11816,Calabria,17,A,39.540121,16.860819
PIETRARSA,S09801,Campania,18,A,40.822433,14.32058
PIETRASANTA,S06012,Toscana,13,A,43.95583,10.229731
PIETRELCINA,S09508,Campania,18,A,41.18865,14.832469
PIEVE ALBIGNOLA,S00402,Lombardia,1,A,45.116248,8.959723
PIEVE EMANUELE,S01104,N/A,N/A,N/A,N/A,N/A
PIEVE LIGURE,S04711,Liguria,2,A,44.372644,9.090975
PIEVE VERGONTE,S00004,Piemonte,3,A,46.009783,8.276298
PIEVETTA,S00922,Piemonte,3,A,44.257449,8.021744
PIGNATARO MAGGIORE,S09207,Campania,18,A,41.17384,14.160545
PILZONE,N00211,N/A,N/A,N/A,N/A,N/A
PINAROLO PO,S01931,Lombardia,1,A,45.073415,9.170273
PINEROLO,S00517,Piemonte,3,Pinerolo,44.887673,7.337402
PINEROLO OLIMPICA,S00082,Piemonte,3,A,44.893325,7.349043
PINETO,S08334,Lazio,5,A,41.909222,12.438385
PINETO ATRI,S07806,Abruzzo,19,A,42.607736,14.069072
PINO CONFINE,S13966,N/A,N/A,N/A,N/A,N/A
PINO T.,S01110,N/A,N/A,N/A,N/A,N/A
PINZANO,S03055,Friuli-Venezia Giulia,10,Pinzano,46.179217,12.950779
PIOLTELLO LIMITO,S01703,Lombardia,1,A,45.486019,9.329319
PIOMBINO,S06770,Toscana,13,A,42.924854,10.530959
PIOMBINO BINARI MARE,S06775,Toscana,13,Piombino bin.Mare,42.928931,10.54525
PIOMBINO DESE,S02509,Veneto,12,A,45.60944,12.00058
PIONA,S01406,Lombardia,1,A,46.124696,9.350759
PIOPPE DI SALVARO,S05106,Emilia Romagna,8,A,44.310761,11.161785
PIOVE DI SACCO,S02598,N/A,N/A,N/A,N/A,N/A
PIRAINETO,S12125,Sicilia,14,Piraineto,38.169148,13.14256
PISA BINARI AEROPORTO,S06450,Toscana,13,A,43.698555,10.398436
PISA CENTRALE,S06500,Toscana,13,Pisa,43.70794,10.398183
PISA SAN ROSSORE,S06501,Toscana,13,Pisa S.Rossore,43.723702,10.387363
PISCINA DI PINEROLO,S00515,Piemonte,3,A,44.921744,7.425482
PISCIOLO,S09625,Basilicata,15,A,41.018914,15.565446
PISCIOTTA PALINURO,S11712,Campania,18,A,40.091539,15.243601
PISOGNE,N00217,N/A,N/A,N/A,N/A,N/A
PISTICCI,S11459,Basilicata,15,A,40.420848,16.552181
PISTOIA,S06414,Toscana,13,Pistoia,43.926804,10.914624
PISTOIA OVEST,S05151,N/A,N/A,N/A,N/A,N/A
PITECCIO,S05116,Toscana,13,A,44.009786,10.9013
PIVKA,S44100,N/A,N/A,N/A,N/A,N/A
PIZZIGHETTONE,S01911,Lombardia,1,A,45.181772,9.777133
PIZZO,S11753,Calabria,17,A,38.726323,16.150615
PLAUS,S02212,N/A,9,A,46.65844,11.041057
PLOAGHE,S12816,Sardegna,20,A,40.66132,8.728075
PM GROTTALUPARA,S11514,N/A,N/A,N/A,N/A,N/A
POCAPAGLIA,S00842,Piemonte,3,A,44.701066,7.892496
POGGIBONSI,S06805,Toscana,13,Poggibonsi,43.468093,11.149455
POGGIO - CAREGGINE - VAGLI,S06323,Toscana,13,A,44.148541,10.350626
POGGIO FIDONI,S07428,Lazio,5,A,42.395811,12.795429
POGGIO IMPERIALE,S11023,Puglia,16,A,41.805561,15.35707
POGGIO MIRTETO,S08213,Lazio,5,A,42.242187,12.633043
POGGIO RENATICO,S05720,Emilia Romagna,8,A,44.767292,11.483701
POGGIO RUSCO,S05308,Lombardia,1,Poggio Rusco,44.981859,11.124627
POGGIORSINI,S11305,Puglia,16,A,40.935221,16.266897
POGGIRIDENTI-TRESIVIO-PIATEDA,S01433,Lombardia,1,A,46.166888,9.93382
POGLIOLA,S00904,Piemonte,3,A,44.399796,7.75057
POLESELLA,S05708,Veneto,12,A,44.961039,11.738498
POLICASTRO BUSSENTINO,S11718,Campania,18,A,40.076482,15.528438
POLICORO TURSI,S11802,Basilicata,15,A,40.207304,16.688819
POLIGNANO A MARE,S11128,Puglia,16,A,40.990926,17.218676
POLLA,S09903,Campania,18,A,40.512921,15.497238
POLLENZA,S07305,Marche,11,A,43.240933,13.367031
POLLINA,S12021,Sicilia,14,A,38.018,14.175943
POMBIA,S01125,Piemonte,3,A,45.649547,8.637037
POMEZIA - S.PALOMBA,S08601,Lazio,5,A,41.706171,12.573611
POMPEI,S09810,Campania,18,A,40.745918,14.501109
PONT,S00890,Liguria,2,A,45.420436,7.60442
PONT SAINT MARTIN,S00149,Valle d'Aosta,4,Pont Saint Martin,45.589834,7.795024
PONTASSIEVE,S06904,Toscana,13,Pontassieve,43.773949,11.437904
PONTE A ELSA,S06807,Toscana,13,A,43.694385,10.906008
PONTE A MORIANO,S06312,Toscana,13,A,43.908371,10.534264
PONTE A TRESSA,S06869,Toscana,13,A,43.250844,11.39617
PONTE ALBANITO,S09325,Puglia,16,A,41.35148,15.532976
PONTE CASALDUNI,S09309,Campania,18,A,41.214169,14.696458
PONTE DELLA VENTURINA,S05123,Emilia Romagna,8,A,44.128589,10.990756
PONTE DI BRENTA,S02585,Veneto,12,A,45.429216,11.947734
PONTE DI PIAVE,S02763,Veneto,12,A,45.719624,12.460683
PONTE D`ADDA,S01912,Lombardia,1,A,45.184352,9.790737
PONTE D`ADIGE,S02225,N/A,9,A,46.485444,11.297719
PONTE GALERIA,S08403,Lazio,5,Ponte Galeria,41.818349,12.344733
PONTE GARDENA,S02020,N/A,9,A,46.6012,11.53251
PONTE GINORI,S06752,Toscana,13,A,43.335594,10.740536
PONTE IN VALTELLINA,S01434,Lombardia,1,A,46.162631,9.975895
PONTE NELLE ALPI POLPET,S02558,Veneto,12,Ponte nelle Alpi,46.182328,12.277604
PONTE PARRANO DI NOCERA UMBRA,S07233,Umbria,6,A,43.137437,12.776376
PONTE S. CONO,S09841,N/A,N/A,N/A,N/A,N/A
PONTE S.MARCO - CALCINATO,S02082,Lombardia,1,A,45.473788,10.409018
PONTE S.PIETRO,S01528,Lombardia,1,Ponte S.Pietro,45.69916,9.584322
PONTE TICINO,N00053,N/A,N/A,N/A,N/A,N/A
PONTEBBA,S03010,Friuli-Venezia Giulia,10,A,46.508463,13.311357
PONTECAGNANO,S09821,Campania,18,A,40.641033,14.870272
PONTECCHIO MARCONI,S05103,Emilia Romagna,8,A,44.42294,11.26919
PONTECURONE,S01809,Piemonte,3,A,44.962014,8.929717
PONTEDERA CASCIANA TERME,S06506,Toscana,13,A,43.662145,10.628773
PONTELAGOSCURO,S05711,Emilia Romagna,8,Pontelagoscuro,44.873216,11.612526
PONTELAMBRO - CASTELMARTE,S01097,N/A,N/A,N/A,N/A,N/A
PONTELANDOLFO,S09504,Campania,18,A,41.29578,14.712051
PONTELATONE,S09027,N/A,N/A,N/A,N/A,N/A
PONTENURE,S05005,Emilia Romagna,8,A,45.001687,9.792103
PONTETTO,S04710,Liguria,2,A,44.377309,9.07696
PONTI,S00871,Piemonte,3,A,44.629979,8.365262
PONTICINO,S06913,Toscana,13,A,43.481446,11.71657
PONTIDA,S01526,Lombardia,1,A,45.730084,9.511632
PONTREMOLI,S06163,Toscana,13,Pontremoli,44.371976,9.887795
PONZANA,S00247,Piemonte,3,A,45.402685,8.522689
PONZANO MAGRA,S06200,Liguria,2,A,44.136227,9.934115
POPOLANO,S06612,Toscana,13,A,44.102323,11.649045
POPOLI VITTORITO,S07703,Abruzzo,19,A,42.172354,13.826152
POPPI,S06074,N/A,N/A,N/A,N/A,N/A
POPULONIA,S06773,Toscana,13,A,42.996412,10.540659
PORCARI,S06406,Toscana,13,A,43.831263,10.619212
PORDENONE,S02701,Friuli-Venezia Giulia,10,Pordenone,45.956281,12.654126
PORRENA - STRADA - MONTEM.,S06073,N/A,N/A,N/A,N/A,N/A
PORRETTA  TERME,S05110,Emilia Romagna,8,Porretta Terme,44.155757,10.978039
PORTA VENEZIA,N00094,N/A,N/A,N/A,N/A,N/A
PORTACOMARO,S00344,Piemonte,3,A,44.957169,8.224345
PORTICHETTO - LUISAGO,N00040,N/A,N/A,N/A,N/A,N/A
PORTICI- ERCOLANO,S09802,Campania,18,A,40.809907,14.335809
PORTO CERESIO,S01200,Lombardia,1,Porto Cceresio,45.903675,8.900357
PORTO DI VASTO,S07822,Abruzzo,19,A,42.167774,14.698057
PORTO D`ASCOLI,S07514,Marche,11,Porto d`Ascoli,42.912792,13.896813
PORTO EMPEDOCLE,S12214,Sicilia,14,Porto Empedocle,37.291539,13.537862
PORTO RECANATI,S07504,Marche,11,A,43.433726,13.661464
PORTO S. ELPIDIO,S07507,Marche,11,A,43.256855,13.760749
PORTO S. GIORGIO FERMO,S07508,Marche,11,A,43.17972,13.7975
PORTO TORRES,S12802,Sardegna,20,Porto Torres,40.833045,8.39642
PORTO VALTRAVAGLIA,S01116,Lombardia,1,A,45.958219,8.674141
PORTO VARALLO POMBIA,S01124,Piemonte,3,A,45.677697,8.638383
PORTOGRUARO CAORLE,S03200,Veneto,12,Portogruaro,45.781438,12.832375
PORTOMAGGIORE,S05802,Emilia Romagna,8,A,44.696699,11.799785
POSSIDENTE,S11220,Basilicata,15,A,40.781144,15.777104
POSTIOMA,S02601,Veneto,12,A,45.715862,12.148248
POSTO COMUNICAZIONE DOLCE`,S02053,Veneto,12,A,45.601513,10.850588
POSTOJNA,S00750,N/A,N/A,N/A,N/A,N/A
POTENZA INFERIORE,S11420,Basilicata,15,Potenza,40.629469,15.806808
POTENZA MACCHIA ROMANA,S11215,N/A,N/A,N/A,N/A,N/A
POTENZA PICENA MONTELUPONE,S07505,Marche,11,A,43.36991,13.59265
POTENZA SUPERIORE,S11217,Basilicata,15,A,40.64586,15.800966
POVE DEL GRAPPA CAMPESE,S02505,Veneto,12,A,45.803248,11.719936
POVO,S02301,N/A,N/A,N/A,N/A,N/A
POZZALLO,S12420,Sicilia,14,A,36.733821,14.848708
POZZOLO FORMIGARO,S04330,Piemonte,3,A,44.797395,8.782521
POZZUOLI SOLFATARA,S09101,Campania,18,A,40.827586,14.126163
POZZUOLO MARTESANA,S01722,Lombardia,1,A,45.510567,9.459096
PRACCHIA,S05113,Toscana,13,A,44.05479,10.90691
PRAJA AJETA TORTORA,S11725,Calabria,17,Praja A.T.,39.900832,15.780628
PRASCO CREMOLINO,S04101,Piemonte,3,A,44.648906,8.55001
PRATA CAMPORTACCIO,S01417,N/A,N/A,N/A,N/A,N/A
PRATA PRATOLA,S09513,Campania,18,A,40.988509,14.842666
PRATIGNONE,S06423,Toscana,13,A,43.849273,11.162008
PRATO BORGONUOVO,S06426,Toscana,13,A,43.893216,11.076222
PRATO CENTRALE,S06416,Toscana,13,Prato,43.878737,11.109252
PRATO PORTA AL SERRAGLIO,S06422,Toscana,13,A,43.884637,11.097385
PRATO SESIA,S00108,Piemonte,3,A,45.646472,8.370476
PRATO TIRES,S02024,N/A,N/A,N/A,N/A,N/A
PRATOLA PELIGNA,S07700,Abruzzo,19,A,42.102423,13.876349
PRATOLA PELIGNA SUPERIORE,S07601,Abruzzo,19,A,42.080415,13.87223
PRATOVECCHIO,S06072,N/A,N/A,N/A,N/A,N/A
PRATOVECCHIO STIA,S06071,N/A,N/A,N/A,N/A,N/A
PREDOSA,S04003,Piemonte,3,A,44.750978,8.651132
PREGANZIOL,S02715,Veneto,12,A,45.60367,12.23138
PREGNANA MILANESE,S01058,Lombardia,1,A,45.511868,9.003943
PREMOSELLO CHIOVENDA,S01009,Piemonte,3,Premosello,46.002188,8.326649
PREZZA,S08536,Abruzzo,19,A,42.053699,13.834497
PRE` SAINT DIDIER,S00130,Valle d'Aosta,4,Pre` Saint Didier,45.7636,6.99105
PRIMOLANO,S02319,Veneto,12,Primolano,45.965315,11.700899
PRIOLA,S00923,Piemonte,3,A,44.248694,8.023429
PRIOLO MELILLI,S12347,Sicilia,14,A,37.157951,15.197038
PRIOLO SOPRANO,S12393,Sicilia,14,A,37.092142,14.377888
PRIVERNO FOSSANOVA,S08604,Lazio,5,Priverno F.,41.421853,13.186406
PROSECCO,S03551,N/A,N/A,N/A,N/A,N/A
PROVAGLIO - TIMOLINE,N00209,N/A,N/A,N/A,N/A,N/A
PUGLIA - CECILIANO,S06085,N/A,N/A,N/A,N/A,N/A
PUNTA RAISI,S12133,Sicilia,14,Punta Raisi,38.188892,13.110059
PdE 2AV,S05299,N/A,N/A,N/A,N/A,N/A
QUADRI-BORELLO,S07996,N/A,N/A,N/A,N/A,N/A
QUARONA,S00102,Piemonte,3,A,45.763547,8.266603
QUART,S00138,Valle d'Aosta,4,A,45.741372,7.414645
QUARTESANA,S05170,N/A,N/A,N/A,N/A,N/A
QUARTO DI MARANO,S09111,Campania,18,A,40.871086,14.122801
QUARTO D`ALTINO,S02670,Veneto,12,A,45.574576,12.365032
QUATTRO VENTI,S08005,Lazio,5,A,41.880145,12.459731
QUERCIANELLA,S06728,Toscana,13,A,43.454922,10.37255
QUERO VAS,S02565,Veneto,12,A,45.939306,11.920189
QUILIANO VADO,S04527,Liguria,2,A,44.279933,8.435562
QUINCINETTO,S00150,Piemonte,3,A,45.567295,7.809711
QUISTELLO,S05156,N/A,N/A,N/A,N/A,N/A
R.C.AEROPORTO,S11866,Calabria,17,A,38.073039,15.642301
RACALMUTO,S12373,Sicilia,14,A,37.406065,13.72752
RACCONIGI,S00602,Piemonte,3,A,44.771179,7.685681
RACCORDO  X,N00181,N/A,N/A,N/A,N/A,N/A
RAGUSA,S12414,Sicilia,14,Ragusa,36.91927,14.725677
RAGUSA IBLA,S12416,Sicilia,14,A,36.93133,14.750993
RAIANO,S07600,Abruzzo,19,A,42.097931,13.80908
RANDAZZO,S12365,Sicilia,14,A,37.873782,14.950406
RAPALLO,S04720,Liguria,2,Rapallo,44.351398,9.231282
RAPOLANO TERME,S06850,Toscana,13,A,43.283331,11.602504
RAPOLLA - LAVELLO,S11207,N/A,N/A,N/A,N/A,N/A
RAPONE RUVO S.FELE,S09621,Basilicata,15,A,40.88802,15.47373
RASSINA,S06078,N/A,N/A,N/A,N/A,N/A
RASTIGNANO,S05138,Emilia Romagna,8,A,44.443592,11.357617
RAVENNA,S05811,Emilia Romagna,8,Ravenna,44.419155,12.208404
RECALE,S09302,Campania,18,A,41.06235,14.30323
RECCO,S04714,Liguria,2,A,44.361215,9.146788
REDIPUGLIA,S03308,Friuli-Venezia Giulia,10,A,45.853476,13.486016
REGGIO CALABRIA CENTRALE,S11781,Calabria,17,Reggio Calabria,38.103884,15.635844
REGGIO CALABRIA LIDO,S11780,Calabria,17,A,38.117668,15.649171
REGGIO DI CALABRIA ARCHI,S11973,N/A,N/A,N/A,N/A,N/A
REGGIO DI CALABRIA BOCALE,S11969,N/A,N/A,N/A,N/A,N/A
REGGIO DI CALABRIA CATONA,S11776,Calabria,17,A,38.185806,15.641205
REGGIO DI CALABRIA GALLICO,S11777,Calabria,17,A,38.165235,15.650716
REGGIO DI CALABRIA OMECA,S11970,N/A,N/A,N/A,N/A,N/A
REGGIO DI CALABRIA PELLARO,S11867,Calabria,17,R.C. Pellaro,38.02561,15.650064
REGGIO DI CALABRIA S.CATERINA,S11975,N/A,N/A,N/A,N/A,N/A
REGGIO DI CALABRIA S.GREGORIO,S11868,Calabria,17,A,38.061274,15.652053
REGGIO EMILIA,S05023,Emilia Romagna,8,Reggio Emilia,44.697793,10.643093
REGGIO EMILIA AV,S05254,Emilia Romagna,8,Reggio Emilia AV,44.779886,10.744171
REGOLEDO,S01410,Lombardia,1,A,46.030574,9.292106
REMANZACCO,S03059,N/A,N/A,N/A,N/A,N/A
REMEDELLO SOPRA,S01845,Lombardia,1,A,45.27848,10.379211
REMEDELLO SOTTO,S01846,Lombardia,1,A,45.257477,10.388402
RENATE-VEDUGGIO,S01489,Lombardia,1,A,45.728304,9.279834
REPUBBLICA,N00095,N/A,N/A,N/A,N/A,N/A
RESANA,S02508,Veneto,12,A,45.634081,11.964251
RESCALDINA,S01135,N/A,N/A,N/A,N/A,N/A
REVERE,S05305,Lombardia,1,A,45.049863,11.130884
REVIGLIONE DI SOMMA VESUVIANA,S09762,Campania,18,A,40.872234,14.482833
RHO,S01037,Lombardia,1,Rho,45.523813,9.043563
RHO FIERA MILANO,S01039,N/A,N/A,N/A,N/A,N/A
RIACE,S11845,Calabria,17,A,38.389178,16.528152
RIARDO,S09204,Campania,18,A,41.265177,14.124949
RICADI,S11761,Calabria,17,A,38.630676,15.839848
RICCIONE,S07101,Emilia Romagna,8,A,43.999218,12.658549
RIDOTTI-COLLEPIANO,S08815,N/A,N/A,N/A,N/A,N/A
RIETI,S07405,Lazio,5,A,42.405918,12.862596
RIGNANO GARGANICO,S11028,Puglia,16,A,41.579344,15.490229
RIGNANO SULL`ARNO REGGELLO,S06906,Toscana,13,A,43.720834,11.452383
RIGOLA - STADIO,S00084,N/A,N/A,N/A,N/A,N/A
RIGOLI,S06401,Toscana,13,A,43.789681,10.419663
RIGOMAGNO,S06851,Toscana,13,A,43.256767,11.706492
RIGOROSO,S04208,Piemonte,3,A,44.670577,8.896487
RIMINI,S05071,Emilia Romagna,8,Rimini,44.064176,12.574093
RIMINI MIRAMARE,S07100,Emilia Romagna,8,A,44.030388,12.618105
RIMINI TORRE PEDRERA,S05819,Emilia Romagna,8,A,44.106987,12.508755
RIMINI VISERBA,S05820,Emilia Romagna,8,A,44.088407,12.533785
RIMINIFIERA,S05057,N/A,N/A,N/A,N/A,N/A
RIO DI PUSTERIA,S02102,N/A,9,A,46.79712,11.670028
RIO SECCO,S04004,Piemonte,3,A,44.722275,8.658805
RIOFREDDO,S08517,Lazio,5,A,42.060704,13.021419
RIOLA,S05108,Emilia Romagna,8,A,44.229851,11.053592
RIOMAGGIORE,S04736,Liguria,2,A,44.105203,9.729105
RIONERO ATELLA RIPACANDITA,S11209,Basilicata,15,A,40.922066,15.678699
RIPABOTTONI S.ELIA,S09463,Molise,7,A,41.669666,14.844353
RIPAFRATTA,S06402,Toscana,13,A,43.821711,10.415733
RIPARBELLA,S06750,Toscana,13,A,43.339461,10.582184
RISANO,S03120,Friuli-Venezia Giulia,10,A,45.97487,13.26181
RIVA TRIGOSO,S04726,Liguria,2,A,44.26391,9.429277
RIVALTA SCRIVIA,S04331,Piemonte,3,A,44.854158,8.809846
RIVAROLO,S00884,N/A,N/A,N/A,N/A,N/A
RIVISONDOLI-PESCOCOSTANZO,S08905,Abruzzo,19,A,41.877292,14.079308
ROBBIO,S00272,Lombardia,1,A,45.293542,8.597051
ROBECCO-PONTEVICO,S01904,Lombardia,1,A,45.266224,10.078593
ROBILANTE,S00615,Piemonte,3,A,44.296496,7.510906
ROCCA DI CORNO,S07410,Abruzzo,19,Rocca di Corno,42.388164,13.143939
ROCCA DI FONDI,S07409,Lazio,5,A,42.39799,13.095825
ROCCA D`EVANDRO,S09200,Lazio,5,Rocca d`Evandro,41.438861,13.911338
ROCCA IMPERIALE,S11804,Calabria,17,Rocca Imperiale,40.100043,16.615742
ROCCA RAVINDOLA,S09058,Molise,7,A,41.521035,14.122965
ROCCABERNARDA,S11828,Calabria,17,A,38.942165,16.900439
ROCCACIGLIE`,S00740,Piemonte,3,A,44.425831,7.95274
ROCCADEBALDI,S00905,Piemonte,3,A,44.410446,7.780449
ROCCAGRIMALDA,S04006,Piemonte,3,A,44.675247,8.656154
ROCCALUMERA MANDANICI,S12312,Sicilia,14,A,37.972946,15.391411
ROCCAMURATA,S06159,Emilia Romagna,8,A,44.532756,9.876175
ROCCAPALUMBA-ALIA,S12204,Sicilia,14,Roccapalumba-A.,37.793751,13.673628
ROCCARASO,S08906,Abruzzo,19,A,41.850833,14.079292
ROCCASECCA,S08668,Lazio,5,Roccasecca,41.526377,13.645814
ROCCASTRADA,S06823,Toscana,13,A,42.957631,11.192942
ROCCAVALDINA,S12046,N/A,N/A,N/A,N/A,N/A
ROCCAVIONE,S00614,Piemonte,3,A,44.314445,7.485361
ROCCAVIVI,S08814,N/A,N/A,N/A,N/A,N/A
ROCCELLA JONICA,S11847,Calabria,17,Roccella Jonica,38.322043,16.406917
ROCCHETTA CAIRO,S00878,Liguria,2,A,44.427477,8.295356
ROCCHETTA S.ANT.LAC.,S11205,Puglia,16,Rocchetta S.A.L,41.1518,15.53295
ROCCHETTA TANARO CERRO,S00466,Piemonte,3,A,44.875574,8.351402
RODALLO,S00159,Piemonte,3,A,45.278714,7.878025
ROGOLO,S01423,Lombardia,1,A,46.138696,9.486985
ROLO NOVI FABBRICO,S02346,Emilia Romagna,8,A,44.886561,10.867882
ROMA AURELIA,S08025,Lazio,5,A,41.88344,12.395271
ROMA BALDUINA,S08327,N/A,N/A,N/A,N/A,N/A
ROMA CASILINA,S08674,Lazio,5,A,41.87669,12.537297
ROMA MONTE MARIO,S08322,Lazio,5,A,41.939088,12.421732
ROMA NOMENTANA L.L.,S08236,Lazio,5,A,41.932935,12.523628
ROMA NOMENTANA LM,S08232,N/A,N/A,N/A,N/A,N/A
ROMA OSTIENSE,S08406,Lazio,5,A,41.87265,12.483917
ROMA PRENESTINA,S08500,Lazio,5,A,41.897571,12.545803
ROMA S.FILIPPO NERI,S08325,Lazio,5,A,41.950262,12.412414
ROMA S.PIETRO,S08323,Lazio,5,A,41.896143,12.454497
ROMA TERMINI,S08409,Lazio,5,Roma,41.900636,12.502026
ROMA TIBURTINA,S08217,Lazio,5,A,41.910903,12.530749
ROMA TIBURTINA PIAZZALE EST,S08226,Lazio,5,A,41.910903,12.530749
ROMA TRASTEVERE,S08405,Lazio,5,A,41.872279,12.466162
ROMA TUSCOLANA,S08408,Lazio,5,A,41.879384,12.523505
ROMAGNANO SESIA,S00109,Piemonte,3,Romagnano Sesia,45.629888,8.384581
ROMAGNANO V.,S09829,Campania,18,Romagnano V.,40.610041,15.447651
ROMANO,S01711,Lombardia,1,A,45.523839,9.753402
ROMANORE,S02337,Lombardia,1,A,45.063834,10.750997
ROMETTA MESSINESE,S12049,Sicilia,14,A,38.228455,15.405894
RONCANOVA DI GAZZO VER.,S05303,Veneto,12,A,45.142207,11.097995
RONCEGNO BAGNI-MARTER,S02312,N/A,9,A,46.03618,11.398818
RONCHI DEI LEGIONARI NORD,S03309,Friuli-Venezia Giulia,10,Ronchi Nord,45.830285,13.505962
RONCIGLIONE,S08109,Lazio,5,A,42.282499,12.219437
RONCO SCR.,S04211,Liguria,2,Ronco Scr.,44.614537,8.949421
RONTA,S06606,Toscana,13,A,44.009432,11.434125
ROSARNO,S11765,Calabria,17,Rosarno,38.488593,15.970149
ROSA`,S02521,Veneto,12,A,45.72054,11.775799
ROSENHEIM,S03600,N/A,N/A,N/A,N/A,N/A
ROSETO CAPO SPULICO,S11806,Calabria,17,A,39.972412,16.620275
ROSETO DEGLI ABRUZZI,S07804,Abruzzo,19,A,42.677852,14.01535
ROSIGNANO,S06730,Toscana,13,A,43.387899,10.438041
ROSOLINA,S05424,Veneto,12,A,45.075548,12.239663
ROSOLINI,S12422,Sicilia,14,A,36.81598,14.952955
ROSSANO,S11813,Calabria,17,A,39.603005,16.640859
ROSSANO VENETO,S02522,Veneto,12,A,45.702039,11.784812
ROSSIGLIONE,S04104,Liguria,2,A,44.566955,8.668051
ROSTA,S00215,Piemonte,3,A,45.078397,7.463963
ROTONDI-PAOLISI,S09016,N/A,N/A,N/A,N/A,N/A
ROTTEWEIL,S29411,N/A,N/A,N/A,N/A,N/A
ROTTOFRENO,S01950,Emilia Romagna,8,A,45.060546,9.549127
ROVASENDA,S00053,Piemonte,3,Rovasenda,45.537291,8.317376
ROVASENDA ALTA,S00056,Piemonte,3,A,45.537368,8.316722
ROVATO,S01714,Lombardia,1,Rovato,45.55193,10.000924
ROVATO CITTA,N00237,N/A,N/A,N/A,N/A,N/A
ROVELLASCA - MANERA,N00035,N/A,N/A,N/A,N/A,N/A
ROVELLO PORRO,N00034,N/A,N/A,N/A,N/A,N/A
ROVERBELLA,S02333,Lombardia,1,Roverbella,45.252645,10.796795
ROVERETO,S02044,N/A,21,Rovereto,45.890985,11.033518
ROVERETO - S.V. - MEDELANA,S05173,N/A,N/A,N/A,N/A,N/A
ROVETO BIMMISCA,S12442,N/A,N/A,N/A,N/A,N/A
ROVIANO,S08515,Lazio,5,A,42.026476,12.991119
ROVIGLIANO,S09771,N/A,N/A,N/A,N/A,N/A
ROVIGO,S05706,Veneto,12,Rovigo,45.076993,11.780892
RUBIERA,S05031,Emilia Romagna,8,A,44.65618,10.780252
RUDALZA,S12895,Sardegna,20,A,40.994082,9.531214
RUFINA,S06703,Toscana,13,A,43.822236,11.485072
RUSSI,S05903,Emilia Romagna,8,Russi,44.379011,12.03164
RUTINO,S11707,Campania,18,A,40.29259,15.104561
S SOSTENE,S11838,N/A,N/A,N/A,N/A,N/A
S. AMBROGIO,S00213,Piemonte,3,A,45.101161,7.360933
S. ANGELO CINIGIANO,S06819,N/A,N/A,N/A,N/A,N/A
S. ANGELO IN FOR.,S09030,N/A,N/A,N/A,N/A,N/A
S. ANTONINO DI SALUGGIA,S00236,Piemonte,3,A,45.253967,8.039728
S. ANTONINO VAIE,S00211,Piemonte,3,A,45.109469,7.275931
S. BENIGNO,S00881,N/A,N/A,N/A,N/A,N/A
S. CASSIANO VALCHIAVENNA,S01401,Lombardia,1,A,46.275438,9.397419
S. CRISTINA E BISSONE,S01866,Lombardia,1,A,45.160533,9.401006
S. DAMIANO D`ASTI,S00461,Piemonte,3,A,44.878914,8.125956
S. DONA` DI PIAVE,S02666,Veneto,12,A,45.63983,12.559791
S. EUROSIA,S08739,Lazio,5,A,41.675927,12.755105
S. FELICE A CANCELLO-ARIENZO,S09019,N/A,N/A,N/A,N/A,N/A
S. GENNARO,S08737,N/A,N/A,N/A,N/A,N/A
S. GERMANO VERCELLESE,S00243,Piemonte,3,A,45.353603,8.249958
S. GIACOMO DI TEGLIO,S01436,Lombardia,1,A,46.159722,10.027405
S. GIOVANNI IN CROCE,S01849,Lombardia,1,A,45.075783,10.377527
S. GIULIANO MILANESE,S01821,Lombardia,1,A,45.391226,9.286418
S. GIULIANO PIACENTINO,S01961,Emilia Romagna,8,A,45.070627,9.985919
S. IORIO,S09029,N/A,N/A,N/A,N/A,N/A
S. MAMA,S06079,N/A,N/A,N/A,N/A,N/A
S. MARCO,S09022,N/A,N/A,N/A,N/A,N/A
S. MARGHERITA LIGURE PORTOFINO,S04718,Liguria,2,A,44.33676,9.216673
S. MARIA A VICO,S09018,N/A,N/A,N/A,N/A,N/A
S. MARIA DELLE MOLE,S08738,Lazio,5,A,41.774417,12.606225
S. MARTINO V.C.-M.SARCHIO-P.RANO,S09014,N/A,N/A,N/A,N/A,N/A
S. NICOLA DI MELFI,S11300,Basilicata,15,S. Nicola Melfi,41.073281,15.677602
S. PAOLO SOLBRITO,S00463,Piemonte,3,A,44.951753,7.975779
S. PIETRO A VICO,S06313,Toscana,13,A,43.875094,10.530945
S. PIETRO AVELLANA-CAPRACOTTA,S08912,Molise,7,A,41.76978,14.19995
S. PIETRO BERBENNO,S01428,Lombardia,1,A,46.161347,9.740491
S. PIETRO VERNOTICO,S11141,Puglia,16,A,40.48902,18.000716
S. STEFANO DI MAGRA,S06170,Liguria,2,S. Stefano di Magra,44.156857,9.915202
S. STINO DI LIVENZA,S02664,Veneto,12,A,45.721088,12.682769
S. VINCENZO,S06030,Toscana,13,A,43.100366,10.539823
S. VITO CHIETINO,S07985,N/A,N/A,N/A,N/A,N/A
S. ZENO FOLZANO,S01900,Lombardia,1,S. Zeno Folzano,45.491552,10.211683
S. ZENONE AL LAMBRO,S01823,Lombardia,1,A,45.337824,9.36126
S.AGAPITO LONGANO,S09056,N/A,N/A,N/A,N/A,N/A
S.AGATA M.,S12027,Sicilia,14,A,38.073554,14.640622
S.AGATA SUL SANTERNO,S05954,Emilia Romagna,8,A,44.436774,11.858855
S.ALESSIO SICULO FORZA D`AGRO`,S12315,Sicilia,14,A,37.923992,15.347322
S.ANDREA DELL`JONIO,S11840,Calabria,17,A,38.620097,16.553449
S.ANGELO DEI LOMBARDI,S09615,Campania,18,A,40.890372,15.161478
S.ANNA DI CHIOGGIA,S05411,N/A,N/A,N/A,N/A,N/A
S.ANNA ROBELLA,S00434,Piemonte,3,A,45.074464,8.08568
S.ANTIMO S.ARPINO,S09007,Campania,18,A,40.949188,14.247415
S.ANTONIO MANTOVANO,S02334,Lombardia,1,A,45.187447,10.785806
S.ARCANGELO DI ROMAGNA,S05069,Emilia Romagna,8,A,44.070316,12.45454
S.BENEDETTO DEL TRONTO,S07513,Marche,11,A,42.954386,13.882297
S.BENIGNO DI CUNEO,S00609,Piemonte,3,A,44.461002,7.572712
S.BIAGIO,S05805,Emilia Romagna,8,A,44.594511,11.87054
S.BIAGIO DI CALLALTA,S02761,Veneto,12,A,45.686134,12.374316
S.CANDIDO,S02114,Trentino Alto Adige,22,S.Candido,46.732728,12.271917
S.CASSIANO,S06615,Emilia Romagna,8,A,44.143684,11.687503
S.CATALDO,S12382,Sicilia,14,A,37.469615,13.997659
S.CATERINA DELL`JONIO,S11842,Calabria,17,A,38.530452,16.571093
S.CLAUDIO,S07312,Marche,11,A,43.287357,13.532751
S.CRISTOFORO AL LAGO-ISCHIA,S02306,N/A,9,A,46.039743,11.23375
S.CROCE DEL LAGO,S02735,Veneto,12,A,46.094795,12.324068
S.CROCE DEL SANNIO,S09502,Campania,18,A,41.37114,14.705455
S.DEMETRIO DE` VESTINI,S07418,Abruzzo,19,A,42.294447,13.536543
S.DONATO MILANESE,S01624,N/A,N/A,N/A,N/A,N/A
S.DONNINO BADIA,S06514,Toscana,13,A,43.785424,11.142169
S.ELENA - ESTE,S05704,Veneto,12,A,45.199209,11.712883
S.ELLERO,S06905,Toscana,13,A,43.742143,11.469621
S.EUFEMIA DI BRISIGHELLA,S06616,N/A,N/A,N/A,N/A,N/A
S.EUSANIO DEL SANGRO,S07989,N/A,N/A,N/A,N/A,N/A
S.FELICE SP,S05313,Emilia Romagna,8,A,44.834527,11.140243
S.FILIPPO,S07557,Marche,11,A,42.849787,13.599949
S.FILIPPO-S.LUCIA,S12044,Sicilia,14,A,38.198143,15.288334
S.FLAVIA,S12009,Sicilia,14,A,38.0826,13.530625
S.FREDIANO A SETTIMO,S06504,Toscana,13,A,43.680508,10.517254
S.GIACOMO DI SPOLETO,S07220,Umbria,6,A,42.79015,12.755445
S.GIORGIO CASALE,S00336,Piemonte,3,A,45.101495,8.412858
S.GIORGIO DELLE PERTICHE,S02526,Veneto,12,A,45.542538,11.917455
S.GIORGIO P.,S05723,Emilia Romagna,8,A,44.646641,11.37901
S.GIOVANNI AL NATISONE,S03031,Friuli-Venezia Giulia,10,A,45.976122,13.397437
S.GIOVANNI DI CASARSA,S03199,Friuli-Venezia Giulia,10,A,45.943448,12.837255
S.GIOVANNI D`ASSO,S06816,Toscana,13,A,43.153292,11.593803
S.GIOVANNI VALDARNO,S06909,Toscana,13,A,43.56601,11.527033
S.GIULETTA,S01943,Lombardia,1,A,45.035719,9.179239
S.GIULIANO DEL SANNIO,S09476,N/A,N/A,N/A,N/A,N/A
S.GIULIANO PIEMONTE,S01941,Piemonte,3,A,44.890543,8.760933
S.GIULIANO TERME,S06400,Toscana,13,A,43.764895,10.436892
S.GIUSEPPE VESUVIANO,S09752,Campania,18,A,40.834058,14.502954
S.GIUSTINA CESIO,S02562,Veneto,12,A,46.077655,12.04294
S.ILARIO,S05021,Emilia Romagna,8,A,44.765795,10.450469
S.LIBERATO,S07235,Umbria,6,A,42.478853,12.443006
S.LORENZO COLLI,S12132,Sicilia,14,A,38.16292,13.316449
S.LORENZO LO VECCHIO,S12443,N/A,N/A,N/A,N/A,N/A
S.LORENZO MAGGIORE,S09308,Campania,18,A,41.219748,14.648419
S.LUCIDO MARINA,S11740,Calabria,17,A,39.313203,16.045546
S.MARCELLINO FRIGNANO,S09005,Campania,18,S.Marcellino F.,40.992103,14.171976
S.MARCO ROGGIANO,S11904,Calabria,17,A,39.605223,16.208776
S.MARIA CAPUA VETERE,S09209,Campania,18,A,41.07353,14.254081
S.MARIA COLLE SERRA,S09474,N/A,N/A,N/A,N/A,N/A
S.MARIA LA BRUNA,S09804,Campania,18,A,40.755435,14.407647
S.MARIA LA LONGA,S03121,Friuli-Venezia Giulia,10,A,45.933068,13.287755
S.MARIA OLIVETO,S09059,Molise,7,A,41.507208,14.096049
S.MARINO,S02501,Veneto,12,A,45.897699,11.692241
S.MARTINO AL CIMINO,S08307,Lazio,5,A,42.382043,12.108104
S.MARTINO BUON ALBERGO,S02435,Veneto,12,A,45.421559,11.089155
S.MARTINO DI LUPARI,S02536,Veneto,12,A,45.655928,11.857227
S.MARTINO IN GATTARA,S06613,Emilia Romagna,8,A,44.113211,11.667077
S.MARTINO IN PENSILIS,S09468,Molise,7,A,41.877211,14.984218
S.MICHELE DI SERINO,S09523,Campania,18,A,40.874511,14.853445
S.MICHELE IN BOSCO,S01924,Lombardia,1,A,45.122404,10.57329
S.MINIATO FUCECCHIO,S06509,Toscana,13,A,43.701383,10.831605
S.NAZARIO,S02503,Veneto,12,A,45.838117,11.691321
S.NICOLA ARCELLA,S11726,Calabria,17,A,39.850764,15.793165
S.NICOLA T.,S12012,Sicilia,14,A,38.015817,13.612755
S.NICOLO',S01951,Emilia Romagna,8,A,45.058843,9.606443
S.PATRIZIO,S05953,N/A,N/A,N/A,N/A,N/A
S.PIERO A SIEVE,S06603,Toscana,13,A,43.958317,11.322742
S.PIETRO A MAIDA,S11750,Calabria,17,A,38.867817,16.276306
S.PIETRO IN CASALE,S05722,Emilia Romagna,8,A,44.697928,11.404763
S.PIETRO IN GU`,S02531,Veneto,12,A,45.605039,11.673157
S.ROMANO MONTOPOLI S.CROCE,S06508,Toscana,13,A,43.690575,10.760152
S.SEBASTIANO PO,S00420,Piemonte,3,A,45.167102,7.953781
S.SEVERINO MARCHE,S07303,Marche,11,A,43.22996,13.183491
S.SILVESTRO,S00173,Piemonte,3,A,45.19366,8.148095
S.STEFANO BELBO,S00831,Piemonte,3,A,44.71714,8.241233
S.STEFANO LODIGIANO,S01829,Lombardia,1,A,45.122091,9.723606
S.STEFANO UDINESE,S03124,Friuli-Venezia Giulia,10,A,45.953683,13.274971
S.TOMMASO DEL PIANO,S09630,Basilicata,15,A,40.900403,15.503719
S.VINCENZO V.R.,S08855,Abruzzo,19,A,41.832988,13.526148
S.VITO AL TAGLIAMENTO,S02660,Friuli-Venezia Giulia,10,A,45.912433,12.851594
S.VITO DEI NORMANNI,S11135,Puglia,16,A,40.650352,17.818585
S.VITO LANCIANO,S07817,Abruzzo,19,A,42.307401,14.448093
S.VITTORIA,S00822,Piemonte,3,A,44.69561,7.916909
SACCONAGO,S01754,N/A,N/A,N/A,N/A,N/A
SACCONAGO,N00150,N/A,N/A,N/A,N/A,N/A
SACILE,S02703,Friuli-Venezia Giulia,10,Sacile,45.948413,12.498498
SACILE SAN LIBERALE,S03089,Friuli-Venezia Giulia,10,A,45.959155,12.514778
SAGRADO,S03307,Friuli-Venezia Giulia,10,A,45.872629,13.484004
SAINT PIERRE,S00161,Valle d'Aosta,4,A,45.708146,7.229338
SAIRANO,S00408,Lombardia,1,A,45.138858,9.046868
SAIRANO ZINASCO,S00400,Lombardia,1,A,45.133795,9.030153
SALA AL BARRO-GALBIATE,S01461,Lombardia,1,A,45.821086,9.359223
SALA CONSILINA,S09906,Campania,18,A,40.405144,15.576057
SALANDRA,S11457,Basilicata,15,A,40.583446,16.351564
SALASSA,S00886,N/A,N/A,N/A,N/A,N/A
SALBERTRAND,S00205,Piemonte,3,A,45.073478,6.887428
SALE LANGHE,S00743,Piemonte,3,A,44.392425,8.077468
SALE MARASINO,N00213,N/A,N/A,N/A,N/A,N/A
SALEMI GIBELLINA,S12114,Sicilia,14,A,37.806619,12.865517
SALERNO,S09818,Campania,18,Salerno,40.675137,14.772822
SALERNO IRNO,S09799,N/A,N/A,N/A,N/A,N/A
SALETTO,S02394,Veneto,12,A,45.22274,11.535093
SALICETO,S00744,Piemonte,3,A,44.404437,8.172887
SALINE DI REGGIO,S11864,Calabria,17,A,37.938677,15.710664
SALONE,S08502,Lazio,5,A,41.915253,12.636215
SALORNO,S02034,N/A,9,A,46.245842,11.202681
SALSOMAGGIORE T.,S05090,Emilia Romagna,8,Salsomaggiore T.,44.81866,9.988129
SALUGGIA,S00235,Piemonte,3,A,45.23443,8.017112
SALUSSOLA,S00074,Piemonte,3,A,45.44438,8.115195
SALUZZO,S00547,N/A,N/A,N/A,N/A,N/A
SALZA IRPINA,S09600,Campania,18,A,40.922251,14.881761
SALZANO ROBEGANO,S02511,Veneto,12,A,45.535378,12.111485
SAMASSI SERRENTI,S12885,Sardegna,20,Samassi,39.483075,8.899035
SAMOGGIA,S05039,Emilia Romagna,8,A,44.567307,11.146221
SAMOLACO,S01402,Lombardia,1,A,46.246436,9.423582
SAMPIERI,S12419,Sicilia,14,A,36.73188,14.744577
SAN BENEDETTO PO,S05155,N/A,N/A,N/A,N/A,N/A
SAN BENEDETTO SAMBRO-CAST.PEPOLI,S05134,Emilia Romagna,8,San Benedetto Sambro-Castiglione Pepoli,44.22866,11.19226
SAN BONIFACIO,S02440,Veneto,12,A,45.40276,11.27406
SAN GAVINO,S12882,Sardegna,20,A,39.546206,8.788017
SAN GIACOMO,S04005,Piemonte,3,A,44.687745,8.663185
SAN GIORGIO,S12034,Sicilia,14,A,38.173967,14.94414
SAN GIORGIO DI NOGARO,S03205,Friuli-Venezia Giulia,10,A,45.82917,13.210315
SAN GIOVANNI,S12804,Sardegna,20,A,40.762523,8.499282
SAN GIOVANNI IN PERSICETO,S05319,Emilia Romagna,8,A,44.643151,11.189444
SAN GIULIANO D'AREZZO,S06065,N/A,N/A,N/A,N/A,N/A
SAN GIUSEPPE DI CAIRO,S04805,Liguria,2,S.Giuseppe di Cairo,44.370096,8.28864
SAN LEONARDO DI CUTRO,S11827,Calabria,17,A,38.954221,16.964409
SAN MARCO D`ALUNZIO T.,S12028,Sicilia,14,A,38.094202,14.675909
SAN MAURIZIO,S00089,N/A,N/A,N/A,N/A,N/A
SAN MAURO LA BRUCA,S11714,Campania,18,A,40.09683,15.298924
SAN MOMME`,S05118,Toscana,13,A,44.027999,10.914798
SAN NICOLA VARCO DI EBOLI,S11700,Campania,18,A,40.561479,14.998375
SAN PIETRO INFINE,S09210,N/A,N/A,N/A,N/A,N/A
SAN REMO,S04505,Liguria,2,San Remo,43.821269,7.766693
SAN ROCCO MANTOVANO,S05157,N/A,N/A,N/A,N/A,N/A
SAN SEVERO,S11025,Puglia,16,San Severo,41.684512,15.392567
SANDIGLIANO,S00072,Piemonte,3,A,45.519652,8.081531
SANFRE`,S00731,Piemonte,3,A,44.74799,7.796793
SANGIANO,S01140,Lombardia,1,A,45.874464,8.630769
SANGINETO,S11733,Calabria,17,A,39.592487,15.863973
SANGUINETTO,S02384,Veneto,12,A,45.188811,11.152467
SANLURI STATO,S12883,Sardegna,20,A,39.526147,8.850221
SANNAZZARO,S00403,Lombardia,1,A,45.10554,8.905149
SANNICANDRO DI BARI,S11503,Puglia,16,A,40.958821,16.753771
SANTA DOMENICA,S11786,Calabria,17,A,38.663764,15.859822
SANTA LUCE,S06023,Toscana,13,A,43.437248,10.48971
SANTA MARIA DI CATANZARO,S11957,Calabria,17,A,38.864988,16.605785
SANTA MARINELLA,S08015,Lazio,5,A,42.035892,11.863122
SANTA SEVERA,S08016,Lazio,5,A,42.020645,11.969077
SANTA TERESA DI RIVA,S12314,Sicilia,14,A,37.946295,15.367682
SANTE MARIE,S08521,Abruzzo,19,A,42.096993,13.21696
SANTERAMO,S11310,Puglia,16,A,40.8026,16.76403
SANTHIA`,S00240,Piemonte,3,Santhia`,45.363726,8.180093
SANTO STEFANO DI CAMASTRA,S12024,Sicilia,14,A,38.01778,14.35104
SANTOPADRE,S08817,N/A,N/A,N/A,N/A,N/A
SANTUARIO,S04802,Liguria,2,A,44.34607,8.435756
SANTUARIO INCORONATA,S11201,Puglia,16,A,41.370726,15.605748
SANT`ANNA,S12897,Sardegna,20,A,39.810758,8.641451
SANT`ORSOLA,S12806,Sardegna,20,A,40.747117,8.532229
SANZANO OCCHINO,S09629,Campania,18,A,40.8869,15.27783
SAPRI,S11721,Campania,18,Sapri,40.078013,15.627204
SARMATO,S01949,Emilia Romagna,8,A,45.063043,9.491116
SARNO,S09702,Campania,18,Sarno,40.813063,14.612442
SARONNO,S01933,Lombardia,1,Saronno,45.625309,9.030839
SARONNO SUD,S01077,N/A,N/A,N/A,N/A,N/A
SARRE,S00136,Valle d'Aosta,4,A,45.717919,7.258468
SARTIRANA,S00038,Lombardia,1,A,45.111728,8.67012
SARZANA,S06007,Liguria,2,Sarzana,44.108865,9.960657
SASSA TORNIMPARTE,S07413,Abruzzo,19,A,42.360549,13.295333
SASSANO TEGGIANO,S09907,Campania,18,A,40.368687,15.604818
SASSARI,S12807,Sardegna,20,Sassari,40.729506,8.554157
SASSINORO,S09475,N/A,N/A,N/A,N/A,N/A
SASSO MARCONI,S05104,Emilia Romagna,8,A,44.394939,11.254333
SASSOFERRATO ARCEVIA,S07063,Marche,11,A,43.435381,12.851514
SASSONE,S08712,Lazio,5,A,41.783777,12.625832
SAVIGLIANO,S00604,Piemonte,3,Savigliano,44.651337,7.663748
SAVIGNANO GRECI,S09318,Campania,18,A,41.230587,15.167109
SAVIGNANO SUL RUBICONE,S05068,Emilia Romagna,8,A,44.095191,12.40421
SAVONA,S04801,Liguria,2,Savona,44.306892,8.470259
SAVONA MARITTIMA,S04800,Liguria,2,A,44.308777,8.488243
SCAFA S.VALENTINO CARAMANICO T,S07707,Abruzzo,19,A,42.26717,13.99909
SCAFATI,S09811,Campania,18,A,40.746028,14.523253
SCALA DI GIOCCA,S12814,Sardegna,20,A,40.698881,8.59695
SCALEA S.DOMENICA TALAO,S11727,Calabria,17,A,39.8083,15.80139
SCALENGHE,S00540,Piemonte,3,A,44.89018,7.490745
SCALETTA ZANCLEA,S12309,Sicilia,14,A,38.04635,15.465376
SCANZANO BELFIORE,S07216,Umbria,6,A,42.983918,12.737692
SCANZANO J. MONTALBANO J.,S11801,Basilicata,15,A,40.25362,16.705192
SCARLINO,S06035,Toscana,13,A,42.942002,10.836798
SCERNE DI PINETO,S07805,Abruzzo,19,A,42.642427,14.041324
SCHAFFHAUSEN,S03424,N/A,N/A,N/A,N/A,N/A
SCHIO,S02140,Veneto,12,Schio,45.710848,11.355508
SCHIVENOGLIA,S05158,N/A,N/A,N/A,N/A,N/A
SCHWAZ,S01179,N/A,N/A,N/A,N/A,N/A
SCICLI,S12418,Sicilia,14,A,36.789939,14.698759
SCILLA,S11772,Calabria,17,A,38.251202,15.710886
SCOPETI,S06705,Toscana,13,A,43.841117,11.497001
SCORCETOLI,S06164,Toscana,13,A,44.34431,9.911853
SCORDIA,S12278,Sicilia,14,A,37.294595,14.851219
SCURCOLA MARSICANA,S08524,Abruzzo,19,A,42.053136,13.344374
SECUGNAGO,S01826,Lombardia,1,A,45.223253,9.58684
SEDICO BRIBANO,S02560,Veneto,12,A,46.095424,12.086508
SEGESTA TEMPIO,S12152,Sicilia,14,A,37.949585,12.828118
SEGNALE DI CONF. RENO EST,S05326,N/A,N/A,N/A,N/A,N/A
SEGNALE DI CONF. RENO OVEST,S05325,N/A,N/A,N/A,N/A,N/A
SEGRATE,S01715,Lombardia,1,A,45.480702,9.298873
SELLA DI CORNO,S07411,Abruzzo,19,A,42.360461,13.189876
SELLERO,N00230,N/A,N/A,N/A,N/A,N/A
SELLIA MARINA,S11831,Calabria,17,A,38.903666,16.764788
SELVA DEL BOCCHETTO,S06155,Emilia Romagna,8,A,44.62487,10.006253
SENALES,S02210,N/A,N/A,N/A,N/A,N/A
SENIGALLIA,S07108,Marche,11,A,43.716277,13.221652
SEPINO,S09501,Molise,7,A,41.413946,14.657456
SEREGNO,S01318,Lombardia,1,Seregno,45.64601,9.20285
SERENELLA,S01073,N/A,N/A,N/A,N/A,N/A
SERIATE,S01533,Lombardia,1,A,45.683145,9.724628
SERINO,S09515,Campania,18,A,40.858838,14.860182
SERMIDE,S05161,N/A,N/A,N/A,N/A,N/A
SERRA S.QUIRICO,S07205,Marche,11,A,43.444879,13.027408
SERRADIFALCO,S12383,Sicilia,14,A,37.431804,13.883299
SERRALUNGA CERESETO,S00338,Piemonte,3,A,45.100914,8.30742
SERRAMANNA NURAMINIS,S12886,Sardegna,20,A,39.426123,8.916579
SERRAVALLE,S02048,N/A,9,A,45.808184,11.014942
SERRAVALLE D`ASTI,S00431,Piemonte,3,A,44.948019,8.14808
SERRAVALLE PISTOIESE,S06413,Toscana,13,A,43.908016,10.85168
SERRAVALLE SCRIVIA,S04206,Piemonte,3,A,44.72393,8.858548
SERRE DI RAPOLANO,S06857,Toscana,13,A,43.284347,11.558209
SESSA AURUNCA R.,S09000,Campania,18,A,41.1955,13.8761
SESSANO DEL MOLISE,S08917,Molise,7,A,41.639587,14.32853
SESTO CALENDE,S01026,Lombardia,1,Sesto Calende,45.726241,8.628135
SESTO CAMPANO,S09062,Molise,7,A,41.420005,14.088909
SESTO FIORENTINO,S06418,Toscana,13,A,43.833297,11.191941
SESTO S. GIOVANNI,S01325,Lombardia,1,A,45.541087,9.23926
SESTRI LEVANTE,S04725,Liguria,2,A,44.27626,9.397651
SETTE BAGNI,S08216,Lazio,5,Settebagni,42.006438,12.520156
SETTEQUERCE,S02224,N/A,9,A,46.508448,11.264785
SETTIME CINAGLIO MOMBARONE,S00430,Piemonte,3,A,44.966229,8.128853
SETTIMO,S00229,Piemonte,3,A,45.139834,7.769335
SETTIMO TAVAGNASCO,S00151,Piemonte,3,A,45.546214,7.825189
SETTINGIANO,S11954,Calabria,17,A,38.903198,16.510832
SEVEGLIANO,S03151,Friuli-Venezia Giulia,10,A,45.887451,13.30468
SEVESO,S01925,Lombardia,1,Seveso,45.648187,9.140488
SEVNICA,S42100,N/A,N/A,N/A,N/A,N/A
SEZANA,S01000,N/A,N/A,N/A,N/A,N/A
SEZZE ROMANO,S08609,Lazio,5,A,41.495542,13.038452
SGURGOLA,S08659,Lazio,5,A,41.687018,13.146199
SIBARI,S11811,Calabria,17,Sibari,39.749863,16.456922
SICIGNANO DEGLI ALBURNI,S09827,Campania,18,A,40.605454,15.290904
SIDERNO,S11850,Calabria,17,A,38.2708,16.302
SIECI,S06903,Toscana,13,A,43.790892,11.394608
SIENA,S06809,Toscana,13,Siena,43.331708,11.322972
SIENA ZONA INDUSTRIALE,S06867,Toscana,13,A,43.26528,11.376652
SIERRE SIDERS,S01509,N/A,N/A,N/A,N/A,N/A
SIGNA,S06513,Toscana,13,A,43.775441,11.095961
SILANDRO,S02205,N/A,9,A,46.625613,10.766327
SILIQUA,S12954,Sardegna,20,A,39.297005,8.813078
SILLA,S05109,Emilia Romagna,8,A,44.177652,10.980635
SILLAVENGO,S00978,Piemonte,3,A,45.521303,8.444987
SILVI,S07807,Abruzzo,19,A,42.55911,14.110365
SIMERI CRICHI,S11832,Calabria,17,A,38.883068,16.716122
SINALUNGA,S06852,Toscana,13,A,43.216189,11.744866
SINGEN,S03700,N/A,N/A,N/A,N/A,N/A
SIOFOK,S03350,N/A,N/A,N/A,N/A,N/A
SION,S01225,N/A,N/A,N/A,N/A,N/A
SIPICCIANO,S08300,Lazio,5,A,42.546495,12.254318
SIPICCIANO S.NICOLA,S08302,N/A,N/A,N/A,N/A,N/A
SIPONTO,S11056,Puglia,16,A,41.61296,15.895572
SIRACUSA,S12349,Sicilia,14,Siracusa,37.068906,15.280896
SIRACUSA M.,S12351,Sicilia,14,A,37.057888,15.293258
SISTIANA,S03312,Friuli-Venezia Giulia,10,A,45.774903,13.645832
SIZZANO,S00111,Piemonte,3,A,45.573834,8.436024
SLUDERNO-GLORENZA,S02201,N/A,9,A,46.664329,10.581832
SOFFRATTA,S02732,Veneto,12,A,45.976377,12.299346
SOLAGNA,S02504,Veneto,12,A,45.815434,11.72134
SOLAROLO,S05900,Emilia Romagna,8,A,44.356425,11.849183
SOLARUSSA,S12876,Sardegna,20,A,39.952525,8.679813
SOLERO,S00469,Piemonte,3,A,44.915886,8.51043
SOLIERA MODENESE,S02351,Emilia Romagna,8,Soliera Modenese,44.722667,10.90601
SOLIGNANO,S06156,Emilia Romagna,8,A,44.614024,9.98014
SOLOFRA,S09516,Campania,18,A,40.834504,14.843975
SOLOPACA,S09307,Campania,18,A,41.210521,14.571413
SOMMA LOMBARDO,S01028,Lombardia,1,A,45.686423,8.712991
SOMMACAMPAGNA-SONA,S02094,N/A,N/A,N/A,N/A,N/A
SOMMARIVA BOSCO,S00730,Piemonte,3,A,44.770754,7.777086
SONDRIO,S01430,Lombardia,1,Sondrio,46.167064,9.872928
SONICO,N00234,N/A,N/A,N/A,N/A,N/A
SORA,S08857,Lazio,5,A,41.716618,13.618601
SORESINA,S01607,Lombardia,1,A,45.283083,9.85664
SORGENTI DEL PESCHIERA,S07434,Lazio,5,A,42.36428,12.996973
SORI,S04712,Liguria,2,A,44.369795,9.106006
SOVERATO,S11837,Calabria,17,A,38.684339,16.549416
SPADAFORA,S12048,Sicilia,14,A,38.221922,15.377196
SPAGNUOLA,S12106,Sicilia,14,A,37.83631,12.477051
SPARANISE,S09206,Campania,18,A,41.185707,14.092954
SPARTIMENTO DI SCISCIANO,S09761,Campania,18,A,40.891561,14.468487
SPELLO,S07010,Umbria,6,A,42.9844,12.668884
SPEZZANO ALBANESE TERME,S11901,Calabria,17,A,39.707307,16.287599
SPIEZ,S07483,N/A,N/A,N/A,N/A,N/A
SPIGNO,S00874,Piemonte,3,A,44.539437,8.317924
SPINAZZOLA,S11304,Puglia,16,Spinazzola,40.953396,16.087173
SPINETOLI COLLI,S07552,Marche,11,A,42.87032,13.762811
SPINETTA,S01940,Piemonte,3,A,44.882378,8.683146
SPOLETO,S07221,Umbria,6,A,42.748121,12.736142
SPONDIGNA-PRATO VENOSTA,S02202,N/A,9,A,46.634571,10.60999
SPOTORNO NOLI,S04526,Liguria,2,A,44.226528,8.410932
SPRESIANO,S02709,Veneto,12,A,45.77763,12.266984
SQUILLACE,S11835,Calabria,17,A,38.77705,16.570418
SQUINZANO,S11142,Puglia,16,A,40.439266,18.046097
ST VEIT GLAN,S03633,N/A,N/A,N/A,N/A,N/A
ST.DALMAS DE TENDE,S00620,N/A,N/A,N/A,N/A,N/A
STAGGIA,S06810,N/A,N/A,N/A,N/A,N/A
STANGHELLA,S05705,Veneto,12,A,45.13209,11.749094
STAZIONE PER L`ALPAGO,S02736,Veneto,12,A,46.137574,12.316066
STEINACH TIROL,S02264,N/A,N/A,N/A,N/A,N/A
STELLATA FICAROLO,S05164,N/A,N/A,N/A,N/A,N/A
STICCIANO,S06824,Toscana,13,A,42.929333,11.118621
STIMIGLIANO,S08212,Lazio,5,A,42.289811,12.568632
STRADA CASALE,S06617,Emilia Romagna,8,A,44.183511,11.697496
STRADELLA,S01945,Lombardia,1,A,45.079465,9.300865
STRAMBINO,S00155,Piemonte,3,A,45.382508,7.887955
STRASSOLDO,S03150,Friuli-Venezia Giulia,10,A,45.856617,13.31836
STRESA,S01016,Piemonte,3,A,45.884486,8.531454
STREVI,S00866,Piemonte,3,A,44.697771,8.525525
STRIGNO,S02315,N/A,9,A,46.051003,11.514327
STRONCONE,S07400,Umbria,6,A,42.517955,12.65372
STRONGOLI,S11822,Calabria,17,A,39.228139,17.108256
STUTTGART HBF,S03800,N/A,N/A,N/A,N/A,N/A
SU CANALE,S12896,Sardegna,20,A,40.838375,9.404226
SUBBIANO,S06082,N/A,N/A,N/A,N/A,N/A
SULMONA,S08539,Abruzzo,19,Sulmona,42.060836,13.907156
SULMONA-INTRODACQUA,S08900,Abruzzo,19,A,42.038241,13.92156
SULZANO,N00212,N/A,N/A,N/A,N/A,N/A
SUNO,S00018,Piemonte,3,A,45.620435,8.519344
SURBO,S11144,N/A,N/A,N/A,N/A,N/A
SURBO FASCIO MERCI,S11134,N/A,N/A,N/A,N/A,N/A
SUSA,S00260,Piemonte,3,Susa,45.138622,7.052311
SUSEGANA,S02708,Veneto,12,A,45.821054,12.258364
SUZZARA,S02340,Lombardia,1,A,44.994432,10.756138
SUZZARA V.N.,S05153,N/A,N/A,N/A,N/A,N/A
SZEKESFEHERVAR,S03269,N/A,N/A,N/A,N/A,N/A
TAGGIA ARMA,S04506,Liguria,2,A,43.840764,7.835604
TAGLIACOZZO,S08522,Abruzzo,19,A,42.070701,13.255664
TAINO ANGERA,S01122,Lombardia,1,A,45.772269,8.60599
TALAMONA,S01426,Lombardia,1,A,46.13952,9.599528
TALAMONE,S08002,Toscana,13,A,42.56461,11.164524
TAORMINA,S12317,Sicilia,14,Taormina,37.845429,15.282584
TARANTO,S11465,Puglia,16,Taranto,40.483727,17.224059
TARCENTO,S03022,Friuli-Venezia Giulia,10,A,46.209134,13.196211
TARGIA,S12353,Sicilia,14,A,37.10963,15.245908
TARQUINIA,S08009,Lazio,5,Tarquinia,42.239463,11.727009
TARSIA,S11903,Calabria,17,A,39.653552,16.24293
TARVISIO BOSCOVERDE,S03015,Friuli-Venezia Giulia,10,Tarvisio,46.505956,13.608012
TASSIGNANO,S06405,Toscana,13,A,43.834131,10.570495
TAURASI,S09605,Campania,18,A,40.980838,14.965804
TAVAZZANO,S01824,Lombardia,1,A,45.32629,9.402748
TEANO,S09205,Campania,18,A,41.231804,14.077075
TEGLIO VENETO,S02662,Veneto,12,A,45.809887,12.858938
TEL,S02213,N/A,N/A,N/A,N/A,N/A
TELESE CERRETO,S09326,Campania,18,A,41.211709,14.526165
TEMPIO DI VULCANO,S12215,N/A,N/A,N/A,N/A,N/A
TENDE,S00619,N/A,N/A,N/A,N/A,N/A
TERAMO,S07900,Abruzzo,19,Teramo,42.660551,13.715882
TERLANO-ANDRIANO,S02223,N/A,9,A,46.528517,11.248394
TERME EUGANEE-ABANO-MONTEGR.,S05701,Veneto,12,A,45.32744,11.79604
TERME VIGLIATORE,S12040,Sicilia,14,A,38.133588,15.164396
TERMINI IMERESE,S12014,Sicilia,14,A,37.980132,13.703631
TERMOLI,S11019,Molise,7,Termoli,42.000623,14.992805
TERNATE VARANO BORGHI,S01143,Lombardia,1,A,45.781835,8.700371
TERNI,S07226,Umbria,6,Terni,42.570768,12.651091
TERNI COSPEA,S07430,Umbria,6,A,42.549615,12.625075
TERNO,S01504,Lombardia,1,A,45.688658,9.536169
TERONTOLA CORTONA,S06922,Toscana,13,Terontola,43.210263,12.007906
TERRACINA,S08809,Lazio,5,Terracina,41.29697,13.244055
TERRAROSSA - TRESANA,S06167,Toscana,13,A,44.237379,9.959675
TERRENOVE,S12108,Sicilia,14,A,37.748755,12.480604
TERRIA,S07425,Lazio,5,A,42.436334,12.782816
TERZIGNO,S09753,Campania,18,A,40.806926,14.503275
TERZO MONTABONE,S00869,Piemonte,3,A,44.671932,8.428705
TEZZE DI GRIGNO,S02318,N/A,9,A,45.990485,11.669726
THIENE,S02143,Veneto,12,A,45.700697,11.475407
THUN,S01250,N/A,N/A,N/A,N/A,N/A
THURIO,S11869,Calabria,17,A,39.69651,16.474098
TIERA,S11216,Basilicata,15,A,40.697817,15.819279
TIONE DEGLI ABRUZZI,S07426,Abruzzo,19,A,42.204908,13.64205
TIRANO,S01440,Lombardia,1,Tirano,46.21539,10.166961
TISSI USINI,S12813,Sardegna,20,A,40.689278,8.530258
TITO,S09834,Basilicata,15,A,40.607321,15.698194
TIVOLI,S08508,Lazio,5,A,41.961849,12.805047
TOCCO CASTIGLIONE,S07705,Abruzzo,19,A,42.226619,13.904658
TOLENTINO,S07304,Marche,11,A,43.214556,13.290501
TOLINE,N00216,N/A,N/A,N/A,N/A,N/A
TOLLO CANOSA SANNITA,S07814,Abruzzo,19,A,42.394208,14.339984
TOMBOLO,S06720,Toscana,13,A,43.631726,10.352916
TOMMASO NATALE,S12131,Sicilia,14,A,38.190283,13.28819
TONCO ALFIANO,S00342,Piemonte,3,A,45.012659,8.216858
TOR SAPIENZA,S08501,Lazio,5,A,41.907095,12.594489
TOR VERGATA,S08655,Lazio,5,A,41.823224,12.666162
TORA PRESENZANO,S09202,Campania,18,A,41.358861,14.04514
TORANO LATTARICO,S11906,Calabria,17,A,39.49455,16.210509
TORCHIARA,S11706,Campania,18,A,40.315916,15.041267
TORINO DORA,S00224,Piemonte,3,A,45.090085,7.677853
TORINO LINGOTTO,S00452,Piemonte,3,A,45.0266,7.657469
TORINO P.NUOVA,S00219,Piemonte,3,Torino,45.060969,7.67747
TORINO PORTA SUSA,S00035,Piemonte,3,A,45.075906,7.667673
TORINO REBAUDENGO FOSSATA,S00060,N/A,N/A,N/A,N/A,N/A
TORINO S. PAOLO,S00223,Piemonte,3,A,45.054519,7.639557
TORINO STURA,S00228,Piemonte,3,A,45.121932,7.713202
TORRALBA,S12865,Sardegna,20,A,40.482769,8.781619
TORRAZZA P.,S00234,Piemonte,3,A,45.211855,7.970255
TORRE ANNUNZIATA CENTRALE,S09806,Campania,18,Torre A.Centrale,40.747131,14.463744
TORRE ANNUNZIATA CITTA',S09805,Campania,18,A,40.754069,14.448628
TORRE DEI PASSERI,S07706,Abruzzo,19,A,42.244022,13.937525
TORRE DEL GRECO,S09803,Campania,18,A,40.787631,14.363159
TORRE DEL LAGO PUCCINI,S06015,Toscana,13,A,43.826501,10.290287
TORRE DE` PICENARDI,S01918,Lombardia,1,A,45.137198,10.286849
TORRE IN PIETRA-PALIDORO,S08019,Lazio,5,A,41.92432,12.183116
TORRE MELISSA,S11821,Calabria,17,A,39.304391,17.108402
TORRE ORSAIA,S11717,Campania,18,A,40.099017,15.481204
TORRE PELLICE,S00524,Piemonte,3,A,44.818929,7.225901
TORRE S.GIORGIO,S00545,Piemonte,3,A,44.737375,7.525461
TORREBERETTI,S00039,Lombardia,1,Torreberetti,45.060533,8.660431
TORREMEZZO DI FALCONARA,S11971,N/A,N/A,N/A,N/A,N/A
TORRENIERI,S06817,Toscana,13,A,43.086602,11.552385
TORRICELLA,S07011,Umbria,6,A,43.159149,12.188249
TORRICOLA,S08600,Lazio,5,Torricola,41.809538,12.557716
TORRILE S. POLO,S01853,Lombardia,1,Torrile S.Polo,44.885677,10.362814
TORRIONE,S09835,N/A,N/A,N/A,N/A,N/A
TORRITA DI SIENA,S06854,Toscana,13,A,43.174187,11.78758
TORTONA,S01810,Piemonte,3,Tortona,44.900126,8.861777
TORTORETO LIDO,S07801,Abruzzo,19,A,42.804562,13.939012
TORVISCOSA,S03206,Friuli-Venezia Giulia,10,Torviscosa,45.826002,13.282358
TOSCANO,S11961,N/A,N/A,N/A,N/A,N/A
TRABIA,S12013,Sicilia,14,A,37.996408,13.65567
TRADATE,N00019,N/A,N/A,N/A,N/A,N/A
TRANI,S11112,Puglia,16,Trani,41.272693,16.417646
TRAPANI,S12100,Sicilia,14,Trapani,38.017092,12.518814
TRAPPA,S00925,Piemonte,3,A,44.185375,7.994435
TRAPPETO,S12123,Sicilia,14,A,38.065089,13.036873
TRAVEDONA BIANDRONNO,S01142,Lombardia,1,A,45.809601,8.696322
TRAVESIO,S03081,Friuli-Venezia Giulia,10,A,46.187141,12.876921
TRE CROCI,S08308,Lazio,5,A,42.331525,12.086159
TREBASELEGHE,S02514,Veneto,12,A,45.581509,12.040046
TREBISACCE,S11808,Calabria,17,A,39.865561,16.532173
TRECATE,S00252,Lombardia,1,Trecate,45.428589,8.739561
TRECELLA,S01706,Lombardia,1,A,45.512792,9.480674
TREMESTIERI,S12303,Sicilia,14,A,38.150323,15.535528
TRENTO,S02038,N/A,21,Trento,46.072414,11.118941
TREPUZZI,S11143,Puglia,16,A,40.40964,18.076902
TREQUANDA,S06821,N/A,N/A,N/A,N/A,N/A
TRESENDA-APRICA-TEGLIO,S01437,Lombardia,1,A,46.162082,10.083754
TRESIGALLO - CORREGGI,S05172,N/A,N/A,N/A,N/A,N/A
TREVI,S07218,Umbria,6,A,42.8762,12.733709
TREVIGLIO,S01708,Lombardia,1,Treviglio,45.515063,9.587919
TREVIGLIO OVEST,S01601,Lombardia,1,Treviglio Ovest,45.521762,9.580281
TREVIGNANO SIGNORESSA,S02600,Veneto,12,A,45.74789,12.103123
TREVISO C.,S02712,Veneto,12,Treviso,45.659608,12.24614
TREZZANO S.N.,S01065,Lombardia,1,A,45.422203,9.071196
TRICESIMO - SAN PELAGIO,S03023,N/A,N/A,N/A,N/A,N/A
TRIESTE AQUILINIA,S03856,Friuli-Venezia Giulia,10,A,45.618107,13.806161
TRIESTE CENTRALE,S03317,Friuli-Venezia Giulia,10,Trieste,45.657456,13.771873
TRIESTE SERVOLA,S03854,N/A,N/A,N/A,N/A,N/A
TRIFLISCO,S09028,N/A,N/A,N/A,N/A,N/A
TRINITAPOLI S.FERDIN. DI P.,S11106,Puglia,16,A,41.349677,16.090839
TRINITA` BENE VAGIENNA,S00950,Piemonte,3,A,44.504656,7.752647
TRINO VERCELLESE,S00176,Piemonte,3,A,45.190066,8.294093
TRIUGGIO-PONTE ALBIATE,S01485,Lombardia,1,A,45.658956,9.266961
TRIVIGNO,S11452,Basilicata,15,A,40.588598,15.997824
TROFARELLO,S00455,Piemonte,3,Trofarello,44.980471,7.735206
TROIA CASTELLUCCIO SAURI,S09322,Puglia,16,A,41.319829,15.421123
TROMELLO,S00275,Lombardia,1,A,45.211988,8.872154
TRONZANO,S00239,Piemonte,3,A,45.342929,8.168395
TROPEA,S11760,Calabria,17,Tropea,38.672302,15.894568
TUFARA VALLE,S09013,N/A,N/A,N/A,N/A,N/A
TUFO,S09512,Campania,18,A,41.013853,14.815962
TUORO SUL TRASIMENO,S07000,Umbria,6,A,43.196631,12.0796
TURBIGO,N00051,N/A,N/A,N/A,N/A,N/A
TUSA,S12022,Sicilia,14,A,38.007989,14.256693
TUTTINGEN,S02901,N/A,N/A,N/A,N/A,N/A
TUTURANO,S11140,Puglia,16,A,40.550726,17.979016
UDINE,S03026,Friuli-Venezia Giulia,10,Udine,46.055791,13.242003
UGOVIZZA VALBRUNA,S03006,Friuli-Venezia Giulia,10,A,46.502902,13.494972
URAS MOGORO,S12880,Sardegna,20,A,39.692629,8.696459
URBISAGLIA SFORZACOSTA,S07306,Marche,11,A,43.25746,13.416932
URURI ROTELLO,S09467,Molise,7,A,41.801134,14.953072
VADA,S06025,Toscana,13,Vada,43.352641,10.470376
VAGLIA,S06602,Toscana,13,A,43.924442,11.284576
VAGLIO BASILICATA,S11450,Basilicata,15,A,40.656322,15.880105
VAIANO,S05136,Toscana,13,A,43.961772,11.130773
VAIRANO,S09203,Campania,18,Vairano,41.317446,14.104022
VALCESURA,S05177,N/A,N/A,N/A,N/A,N/A
VALDAORA - ANTERSELVA,S02110,N/A,9,A,46.769231,12.02898
VALDIBRANA,S05117,Toscana,13,A,43.965434,10.909994
VALENZA,S00041,Piemonte,3,Valenza,45.023527,8.625808
VALLAZZA - CARBONARA PO,S05160,N/A,N/A,N/A,N/A,N/A
VALLE AURELIA,S08329,Lazio,5,A,41.899356,12.447667
VALLE DI MADDALONI,S09304,Campania,18,A,41.087558,14.426049
VALLE DI MERCATO S.SEVERINO,S09705,Campania,18,A,40.776365,14.722362
VALLE LOMELLINA,S00037,Lombardia,1,A,45.150588,8.685874
VALLECROSIA,S04502,Liguria,2,A,43.787619,7.634997
VALLEDOLMO,S12231,Sicilia,14,A,37.709073,13.756029
VALLELUNGA,S12232,Sicilia,14,A,37.691542,13.846428
VALLO DELLA LUC. CASTELNUOVO,S11709,Campania,18,A,40.233316,15.266511
VALLORBE,S01103,N/A,N/A,N/A,N/A,N/A
VALMADONNA,S00042,Piemonte,3,A,44.972588,8.610667
VALMADRERA,S01463,Lombardia,1,A,45.846439,9.368183
VALMONTONE,S08656,Lazio,5,A,41.774291,12.923696
VALPERGA,S00887,N/A,N/A,N/A,N/A,N/A
VALTOPINA,S07214,Umbria,6,A,43.05689,12.755068
VANDOIES,S02103,N/A,9,A,46.814822,11.723079
VANZAGHELLO - MAGNAGO,N00049,N/A,N/A,N/A,N/A,N/A
VANZAGO POGLIANO,S01036,Lombardia,1,A,45.525216,8.995531
VAPRIO D`AGOGNA,S00022,Piemonte,3,A,45.599085,8.536862
VARALLO POMBIA,S00982,Piemonte,3,A,45.670032,8.620047
VARALLO SESIA,S00100,Piemonte,3,Varallo Sesia,45.815227,8.256606
VARANO,S07500,Marche,11,A,43.574729,13.523436
VARAZZE,S04531,Liguria,2,A,44.356842,8.566682
VAREDO,S01084,N/A,N/A,N/A,N/A,N/A
VARENNA ESINO,S01411,Lombardia,1,A,46.015,9.286405
VARESE,S01205,Lombardia,1,Varese,45.816201,8.833089
VARESE CASBENO,N00025,N/A,N/A,N/A,N/A,N/A
VARESE NORD,N00024,N/A,N/A,N/A,N/A,N/A
VARIGNANA,S05052,Emilia Romagna,8,A,44.436796,11.523078
VASTO S.SALVO,S07824,Abruzzo,19,Vasto,42.079832,14.739483
VASTOGIRARDI,S08913,Molise,7,A,41.739482,14.249334
VE ASSEGGIANO,S02513,Veneto,12,A,45.499357,12.178101
VEDANO,N00022,N/A,N/A,N/A,N/A,N/A
VELLETRI,S08734,Lazio,5,Velletri,41.682421,12.780864
VELLO,N00215,N/A,N/A,N/A,N/A,N/A
VENAFRO,S09060,Molise,7,Venafro,41.482975,14.048722
VENARIA,S00085,N/A,N/A,N/A,N/A,N/A
VENEGONO INF.,N00020,N/A,N/A,N/A,N/A,N/A
VENEGONO SUP. - CASTIGLIO,N00021,N/A,N/A,N/A,N/A,N/A
VENETICO,S12047,Sicilia,14,A,38.216502,15.367076
VENEZIA CARPENEDO,S02672,Veneto,12,A,45.506697,12.247609
VENEZIA MARGHERA SCALO,S02515,N/A,N/A,N/A,N/A,N/A
VENEZIA MARITTIMA,S02594,Veneto,12,A,45.43995,12.320091
VENEZIA MESTRE,S02589,Veneto,12,Mestre,45.482123,12.232069
VENEZIA PORTO MARGHERA,S02592,Veneto,12,A,45.472381,12.256536
VENEZIA SANTA LUCIA,S02593,Veneto,12,Venezia,45.441569,12.320882
VENOSA - MASCHITO,S11302,Basilicata,15,A,40.979136,15.846171
VENTIMIGLIA,S04501,Liguria,2,Ventimiglia,43.792561,7.610224
VENZONE,S03018,Friuli-Venezia Giulia,10,A,46.331883,13.13549
VERBANIA-PALLANZA,S01013,Piemonte,3,Verbania,45.943821,8.47224
VERCEIA,S01404,Lombardia,1,A,46.202832,9.458412
VERCELLI,S00245,Piemonte,3,Vercelli,45.329909,8.416028
VERCURAGO S.GIROLAMO,S01523,Lombardia,1,A,45.812122,9.422349
VERDELLO DALMINE,S01600,Lombardia,1,A,45.605715,9.619797
VERGATO,S05107,Emilia Romagna,8,A,44.282723,11.114386
VERGIATE,S01027,Lombardia,1,A,45.717119,8.693187
VERGNASCO,S00073,Piemonte,3,A,45.489282,8.091687
VERNANTE,S00616,Piemonte,3,A,44.244639,7.535986
VERNAZZA,S04733,Liguria,2,A,44.134963,9.684804
VERNIO MONTEPIANO CANTAGALLO,S05135,Toscana,13,A,44.043991,11.152342
VEROLANUOVA,S01903,Lombardia,1,A,45.324989,10.08388
VEROLENGO,S00170,Piemonte,3,A,45.193107,7.969511
VERONA CA` DI DAVID,S02061,Veneto,12,A,45.384406,10.994897
VERONA PARONA,S02058,N/A,N/A,N/A,N/A,N/A
VERONA PORTA NUOVA,S02430,Veneto,12,Verona,45.428603,10.982377
VERONA PORTA VESCOVO,S02433,Veneto,12,A,45.435552,11.018841
VERRES,S00145,Valle d'Aosta,4,A,45.659822,7.690012
VERZUOLO,S00701,Piemonte,3,A,44.598767,7.48724
VESPOLATE,S00031,Piemonte,3,A,45.351517,8.671947
VESPRI,S12135,Sicilia,14,A,38.101996,13.362701
VETRALLA,S08309,Lazio,5,A,42.304619,12.089137
VEZZANO LIGURE,S06171,Liguria,2,Vezzano Ligure,44.127081,9.88928
VIA CAMPANA,S09114,N/A,N/A,N/A,N/A,N/A
VIA CHIARI,S06064,N/A,N/A,N/A,N/A,N/A
VIADANA BRESCIANA,S01842,Lombardia,1,A,45.373648,10.331792
VIAREGGIO,S06040,Toscana,13,Viareggio,43.865947,10.257886
VIBO MARINA,S11754,Calabria,17,A,38.713731,16.120199
VIBO VALENZIA PIZZO,S11789,Calabria,17,Vibo Valentia,38.714593,16.139887
VICARELLO,S06017,Toscana,13,A,43.609253,10.460442
VICCHIO,S06700,Toscana,13,A,43.933463,11.457634
VICENZA,S02446,Veneto,12,Vicenza,45.541102,11.540762
VICO MATRINO,S08310,Lazio,5,A,42.278028,12.121681
VICOFERTILE,S06150,Emilia Romagna,8,A,44.778436,10.25834
VICOFORTE SAN MICHELE,S00953,Piemonte,3,A,44.37404,7.894687
VICOVARO,S08511,Lazio,5,A,42.010183,12.888294
VIDALENGO,S01709,Lombardia,1,A,45.517854,9.639676
VIETRI SUL MARE,S09817,Campania,18,A,40.674996,14.726829
VIEVOLA,S00618,N/A,N/A,N/A,N/A,N/A
VIGARANO PIEVE,S05166,N/A,N/A,N/A,N/A,N/A
VIGEVANO,S01061,Lombardia,1,A,45.312712,8.861977
VIGLIANO CANDELO,S00977,Piemonte,3,A,45.557517,8.108475
VIGLIANO D`ABRUZZO,S07412,Abruzzo,19,A,42.341675,13.231335
VIGLIANO D`ASTI,S00802,Piemonte,3,A,44.827335,8.218271
VIGNA DI VALLE,S08316,Lazio,5,A,42.076863,12.210716
VIGNALE,S00021,Piemonte,3,Vignale,45.478989,8.613132
VIGNALE RIOTORTO,S06032,Toscana,13,A,42.967587,10.667255
VIGNATE,S01704,Lombardia,1,A,45.493946,9.374083
VIGODARZERE,S02528,Veneto,12,A,45.453289,11.891641
VIGONE,S00542,Piemonte,3,A,44.846923,7.491123
VIGONZA PIANIGA,S02586,Veneto,12,A,45.442799,12.017977
VILLA BONELLI,S08399,Lazio,5,A,41.8477601,12.455223
VILLA CADE`,S05022,Emilia Romagna,8,A,44.743203,10.519402
VILLA CASTELLI,S11608,Puglia,16,A,40.523377,17.476149
VILLA CLAUDIA,S08714,Lazio,5,A,41.484326,12.61709
VILLA DEL CONTE,S02523,Veneto,12,A,45.607701,11.852518
VILLA DI TIRANO,S01439,Lombardia,1,A,46.196164,10.13033
VILLA LITERNO,S09003,Campania,18,Villa Literno,41.004956,14.06753
VILLA OPICINA,S03466,Friuli-Venezia Giulia,10,Villa Opicina,45.6944,13.791142
VILLA ORTENSIA,S09024,N/A,N/A,N/A,N/A,N/A
VILLA RAVERIO,S01487,Lombardia,1,A,45.690418,9.261549
VILLA S.G.CANNITELLO,S11773,Calabria,17,A,38.23409,15.653246
VILLA S.MARIA,S07995,N/A,N/A,N/A,N/A,N/A
VILLA SAN GIOVANNI,S11774,Calabria,17,Villa S.Giovanni,38.216638,15.634336
VILLA SAN MICHELE,S08555,N/A,N/A,N/A,N/A,N/A
VILLA SAN SEBASTIANO,S08523,Abruzzo,19,A,42.049331,13.308271
VILLABARTOLOMEA,S02367,Veneto,12,A,45.153057,11.348728
VILLABASSA - BRAIES,S02112,N/A,9,A,46.736492,12.167041
VILLABATE,S12006,Sicilia,14,A,38.086094,13.451314
VILLADOSSOLA,S00001,Piemonte,3,A,46.064151,8.264675
VILLAFRANCA - BAGNONE,S06166,Toscana,13,A,44.294399,9.948096
VILLAFRANCA C.,S00459,Piemonte,3,A,44.908916,8.043692
VILLAFRANCA DI VERONA,S02331,Veneto,12,A,45.349801,10.849016
VILLAFRANCA P.,S00543,Piemonte,3,A,44.786739,7.510077
VILLAFRANCA TIRRENA,S12050,Sicilia,14,Villafranca T.,38.233517,15.42892
VILLALBA,S12233,Sicilia,14,A,37.668526,13.885155
VILLAMAGGIORE,S01802,Lombardia,1,A,45.32045,9.190674
VILLAMASSARGIA DOMUSNOVAS,S12952,Sardegna,20,Villamassargia,39.294811,8.641986
VILLANOVA,S00458,Piemonte,3,A,44.963159,7.947136
VILLANOVA - GROSSO,S00092,N/A,N/A,N/A,N/A,N/A
VILLANOVA DI REGGIOLO,S02345,Emilia Romagna,8,A,44.915925,10.842455
VILLANOVA D`ARDA,S01962,Emilia Romagna,8,A,45.028291,9.993291
VILLANOVA D`ARDENGHI,S00278,Lombardia,1,A,45.156982,9.037176
VILLAPIANA LIDO,S11809,Calabria,17,A,39.811234,16.490988
VILLAPIANA TORRE CERCHIARA,S11810,Calabria,17,A,39.790568,16.479497
VILLAROSA,S12237,Sicilia,14,A,37.567205,14.200464
VILLASANTA,S01481,Lombardia,1,A,45.603434,9.304923
VILLASOR,S12887,Sardegna,20,A,39.381451,8.935907
VILLASPECIOSA UTA,S12956,Sardegna,20,A,39.304168,8.940501
VILLASTELLONE,S00600,Piemonte,3,A,44.920531,7.749572
VILLAVERLA MONTECCHIO,S02145,Veneto,12,A,45.656998,11.524271
VILLAZZANO,S02300,N/A,9,A,46.045911,11.13906
VILLENEUVE,S00135,Valle d'Aosta,4,A,45.706648,7.213481
VILLETTA,S08711,Lazio,5,A,41.738237,12.649463
VILLETTA MALAGNINO,S01916,Lombardia,1,A,45.137019,10.111943
VILLETTA S. ROMANO,S06322,Toscana,13,A,44.146764,10.367565
VILPIANO-NALLES,S02222,N/A,9,A,46.554251,11.220143
VINCHIATURO,S09457,Molise,7,A,41.49385,14.59801
VIPITENO,S02006,N/A,9,A,46.895732,11.440206
VISANO,S01844,Lombardia,1,A,45.31531,10.363098
VISONE,S04100,Piemonte,3,A,44.661951,8.500198
VITERBO PORTA FIORENTINA,S08304,Lazio,5,Viterbo,42.425237,12.106204
VITERBO PORTA ROMANA,S08306,Lazio,5,A,42.411974,12.110482
VITTORIA,S12410,Sicilia,14,A,36.958721,14.52499
VITTORIO VENETO,S02733,Veneto,12,A,45.989946,12.29327
VITTUONE ARLUNO,S01042,Lombardia,1,A,45.491054,8.947299
VITULANO FOGLIANISE,S09310,Campania,18,A,41.163008,14.720027
VITUSO,S12391,Sicilia,14,A,37.160465,14.451623
VIZZINI,S12273,Sicilia,14,A,37.182566,14.729457
VOGHERA,S01807,Lombardia,1,Voghera,44.9978,9.007942
VOGOGNA OSSOLA,S01008,Piemonte,3,A,46.005883,8.294664
VOLPIANO,S00880,N/A,N/A,N/A,N/A,N/A
VOLTANA,S05807,Emilia Romagna,8,A,44.540369,11.93605
VOLTERRA SALINE - POMARANCE,S06753,Toscana,13,Volterra Saline,43.35962,10.808269
VRBOVEC,S73110,N/A,N/A,N/A,N/A,N/A
VRTOJBA,S03299,N/A,N/A,N/A,N/A,N/A
X,S00000,N/A,N/A,N/A,N/A,N/A
Y,S99999,N/A,N/A,N/A,N/A,N/A
ZAGAROLO,S08652,Lazio,5,A,41.821927,12.82692
ZAMARDI,S03392,N/A,N/A,N/A,N/A,N/A
ZAMBRA,S06425,Toscana,13,A,43.825856,11.206206
ZAMBRONE,S11758,Calabria,17,A,38.712738,15.976204
ZAPPULLA,S12029,Sicilia,14,A,38.116962,14.703086
ZERBINATE,S05163,N/A,N/A,N/A,N/A,N/A
ZINASCO NUOVO,S00401,Lombardia,1,A,45.124555,8.999657
ZOAGLI,S04721,Liguria,2,A,44.33546,9.269126
ZURICH ALTSTETTEN,S03001,N/A,N/A,N/A,N/A,N/A
